location_id,pm2_5,pm10,no2,so2,o3,co,aqi,id,name,city,country,coordinates,latitude,longitude,dist_to_road_m,dist_to_industrial_m,pollution_source,predicted_source
12,15.68,22.5,6.29,1.31,27.61,308.03,2,12,SPARTAN - IIT Kanpur,,"{'id': 9, 'code': 'IN', 'name': 'India'}","{'latitude': 26.519, 'longitude': 80.233}",26.519,80.233,1500,1500,Other,Other
13,63.35,85.06,14.0,2.33,52.29,494.06,4,13,"Delhi Technological University, Delhi - CPCB",,"{'id': 9, 'code': 'IN', 'name': 'India'}","{'latitude': 28.744, 'longitude': 77.12}",28.744,77.12,1500,1500,Burning,Burning
15,62.28,82.71,15.03,2.45,48.04,520.72,4,15,IGI Airport,,"{'id': 9, 'code': 'IN', 'name': 'India'}","{'latitude': 28.56, 'longitude': 77.094}",28.56,77.094,1500,1500,Burning,Burning
16,64.12,85.27,15.77,2.5,46.84,528.63,4,16,Civil Lines,,"{'id': 9, 'code': 'IN', 'name': 'India'}","{'latitude': 28.6787, 'longitude': 77.2262}",28.6787,77.2262,1500,1500,Burning,Burning
17,62.28,82.71,15.03,2.45,48.04,520.72,4,17,"R K Puram, Delhi - DPCC",,"{'id': 9, 'code': 'IN', 'name': 'India'}","{'latitude': 28.563262, 'longitude': 77.186937}",28.563262,77.186937,1500,1500,Burning,Burning
22,7.49,12.21,1.94,0.77,39.49,141.03,1,22,SPARTAN - Dhaka University,,"{'id': 128, 'code': 'BD', 'name': 'Bangladesh'}","{'latitude': 23.728, 'longitude': 90.398}",23.728,90.398,1500,1500,Other,Other
50,63.35,85.06,14.0,2.33,52.29,494.06,4,50,"Punjabi Bagh, Delhi - DPCC",,"{'id': 9, 'code': 'IN', 'name': 'India'}","{'latitude': 28.674045, 'longitude': 77.131023}",28.674045,77.131023,1500,1500,Burning,Burning
103,64.12,85.27,15.77,2.5,46.84,528.63,4,103,"Income Tax Office, Delhi - CPCB",,"{'id': 9, 'code': 'IN', 'name': 'India'}","{'latitude': 28.623499999999996, 'longitude': 77.2494}",28.623499999999996,77.2494,1500,1500,Burning,Burning
235,64.12,85.27,15.77,2.5,46.84,528.63,4,235,"Anand Vihar, New Delhi - DPCC",,"{'id': 9, 'code': 'IN', 'name': 'India'}","{'latitude': 28.646835, 'longitude': 77.316032}",28.646835,77.316032,1500,1500,Burning,Burning
236,64.12,85.27,15.77,2.5,46.84,528.63,4,236,"Mandir Marg, Delhi - DPCC",,"{'id': 9, 'code': 'IN', 'name': 'India'}","{'latitude': 28.6341, 'longitude': 77.2005}",28.6341,77.2005,1500,1500,Burning,Burning
286,14.68,16.16,16.12,3.67,0.47,388.85,2,286,Collectorate - Gaya - BSPCB,,"{'id': 9, 'code': 'IN', 'name': 'India'}","{'latitude': 24.7489694, 'longitude': 84.9438395}",24.7489694,84.9438395,1500,1500,Other,Other
301,62.28,82.71,15.03,2.45,48.04,520.72,4,301,"Vikas Sadan, Gurugram - HSPCB",,"{'id': 9, 'code': 'IN', 'name': 'India'}","{'latitude': 28.4501238, 'longitude': 77.0263051}",28.4501238,77.0263051,1500,1500,Burning,Burning
346,62.38,88.09,14.44,2.17,53.07,475.73,4,346,"MD University, Rohtak - HSPCB",,"{'id': 9, 'code': 'IN', 'name': 'India'}","{'latitude': 28.876028, 'longitude': 76.619464}",28.876028,76.619464,1500,1500,Burning,Burning
354,17.34,26.82,9.45,1.51,21.35,356.85,2,354,"Lalbagh, DN Park",,"{'id': 9, 'code': 'IN', 'name': 'India'}","{'latitude': 26.84578611, 'longitude': 80.93874444}",26.84578611,80.93874444,1500,1500,Other,Other
378,40.02,48.64,17.16,4.64,36.2,435.12,3,378,Alandur Bus Depot,,"{'id': 9, 'code': 'IN', 'name': 'India'}","{'latitude': 12.99711389, 'longitude': 80.19151667}",12.99711389,80.19151667,1500,1500,Other,Other
407,3.6,6.56,9.21,4.77,18.94,159.81,1,407,"Zoo Park, Hyderabad - TSPCB",,"{'id': 9, 'code': 'IN', 'name': 'India'}","{'latitude': 17.349694, 'longitude': 78.451437}",17.349694,78.451437,1500,1500,Other,Other
412,5.97,9.88,8.17,1.69,17.16,200.08,1,412,"Peenya, Bengaluru - KSPCB",,"{'id': 9, 'code': 'IN', 'name': 'India'}","{'latitude': 13.0339, 'longitude': 77.51321111}",13.0339,77.51321111,1500,1500,Other,Other
431,64.12,85.27,15.77,2.5,46.84,528.63,4,431,"IHBAS, Delhi - CPCB",,"{'id': 9, 'code': 'IN', 'name': 'India'}","{'latitude': 28.6821, 'longitude': 77.305}",28.6821,77.305,1500,1500,Burning,Burning
594,9.59,14.87,12.37,2.74,16.43,260.35,1,594,"BTM Layout, Bengaluru - KSPCB",,"{'id': 9, 'code': 'IN', 'name': 'India'}","{'latitude': 12.912811110000002, 'longitude': 77.60921944}",12.912811110000002,77.60921944,1500,1500,Other,Other
697,12.65,15.41,0.81,0.65,72.37,158.58,2,697,"Haldia, Haldia - WBPCB",,"{'id': 9, 'code': 'IN', 'name': 'India'}","{'latitude': 22.06047, 'longitude': 88.109737}",22.06047,88.109737,1500,1500,Other,Other
703,10.05,22.47,3.92,0.66,47.63,163.28,2,703,Collectorate Jodhpur - RSPCB,,"{'id': 9, 'code': 'IN', 'name': 'India'}","{'latitude': 26.2920639, 'longitude': 73.0379111111111}",26.2920639,73.0379111111111,1500,1500,Other,Other
716,9.0,10.12,0.8,0.53,70.08,158.29,2,716,"Rabindra Bharati University, Kolkata - WBSPCB",,"{'id': 9, 'code': 'IN', 'name': 'India'}","{'latitude': 22.627875, 'longitude': 88.3804}",22.627875,88.3804,1500,1500,Other,Other
797,11.46,17.73,13.95,3.34,16.88,281.58,2,797,City Railway Station - KSPCB,,"{'id': 9, 'code': 'IN', 'name': 'India'}","{'latitude': 12.9773472, 'longitude': 77.5706972222222}",12.9773472,77.5706972222222,1500,1500,Other,Other
854,8.41,11.08,3.13,0.68,19.28,183.18,1,854,Chandrapur,,"{'id': 9, 'code': 'IN', 'name': 'India'}","{'latitude': 19.95, 'longitude': 79.3}",19.95,79.3,1500,1500,Other,Other
860,28.71,33.87,5.4,0.87,53.26,374.39,3,860,"Sanjay Palace, Agra - UPPCB",,"{'id': 9, 'code': 'IN', 'name': 'India'}","{'latitude': 27.19865833, 'longitude': 78.00598056}",27.19865833,78.00598056,1500,1500,Other,Other
910,9.02,10.56,0.66,0.41,70.8,153.33,2,910,Victoria Memorial - WBSPCB,,"{'id': 9, 'code': 'IN', 'name': 'India'}","{'latitude': 22.572646, 'longitude': 88.36389499999996}",22.572646,88.36389499999996,1500,1500,Other,Other
985,12.42,15.94,12.51,3.07,11.91,374.03,2,985,Collectorate - Muzaffarpur - BSPCB,,"{'id': 9, 'code': 'IN', 'name': 'India'}","{'latitude': 26.0762, 'longitude': 85.4115}",26.0762,85.4115,1500,1500,Other,Other
2345,12.12,16.83,4.09,0.93,71.98,315.68,2,2345,VK Industrial Area Jaipur - RSPCB,,"{'id': 9, 'code': 'IN', 'name': 'India'}","{'latitude': 26.9738778, 'longitude': 75.7738777777777}",26.9738778,75.7738777777777,1500,1500,Other,Other
2445,7.14,11.85,1.81,0.68,38.48,140.28,1,2445,US Diplomatic Post: Dhaka,,"{'id': 128, 'code': 'BD', 'name': 'Bangladesh'}","{'latitude': 23.797687, 'longitude': 90.423698}",23.797687,90.423698,1500,1500,Other,Other
2456,17.34,26.82,9.45,1.51,21.35,356.85,2,2456,"Talkatora District Industries Center, Lucknow - CPCB",,"{'id': 9, 'code': 'IN', 'name': 'India'}","{'latitude': 26.83399722, 'longitude': 80.8917361}",26.83399722,80.8917361,1500,1500,Other,Other
2459,3.81,7.4,9.14,3.66,16.95,173.45,1,2459,US Diplomatic Post: Hyderabad,,"{'id': 9, 'code': 'IN', 'name': 'India'}","{'latitude': 17.443464, 'longitude': 78.47489}",17.443464,78.47489,1500,1500,Other,Other
2460,9.02,10.56,0.66,0.41,70.8,153.33,2,2460,US Diplomatic Post: Kolkata,,"{'id': 9, 'code': 'IN', 'name': 'India'}","{'latitude': 22.547142, 'longitude': 88.351048}",22.547142,88.351048,1500,1500,Other,Other
2461,43.2,51.92,14.01,3.26,47.23,426.57,3,2461,US Diplomatic Post: Chennai,,"{'id': 9, 'code': 'IN', 'name': 'India'}","{'latitude': 13.052371, 'longitude': 80.251932}",13.052371,80.251932,1500,1500,Burning,Burning
2463,17.34,26.82,9.45,1.51,21.35,356.85,2,2463,Central School,,"{'id': 9, 'code': 'IN', 'name': 'India'}","{'latitude': 26.85272778, 'longitude': 80.99632778}",26.85272778,80.99632778,1500,1500,Other,Other
2503,63.35,85.06,14.0,2.33,52.29,494.06,4,2503,"Shadipur, Delhi - CPCB",,"{'id': 9, 'code': 'IN', 'name': 'India'}","{'latitude': 28.651699999999998, 'longitude': 77.1581}",28.651699999999998,77.1581,1500,1500,Burning,Burning
2549,44.64,52.56,13.22,3.98,53.59,393.89,3,2549,IIT,,"{'id': 9, 'code': 'IN', 'name': 'India'}","{'latitude': 12.992513890000001, 'longitude': 80.23744722}",12.992513890000001,80.23744722,1500,1500,Burning,Burning
2583,72.88,94.39,8.11,4.26,68.16,476.25,4,2583,"Sector-6, Panchkula - HSPCB ",,"{'id': 9, 'code': 'IN', 'name': 'India'}","{'latitude': 30.7057778, 'longitude': 76.85318056}",30.7057778,76.85318056,1500,1500,Burning,Burning
2585,1.26,2.16,0.83,0.22,35.48,87.81,1,2585,AAQMS Karve Road Pune,,"{'id': 9, 'code': 'IN', 'name': 'India'}","{'latitude': 18.497484, 'longitude': 73.81349}",18.497484,73.81349,1500,1500,Other,Other
2586,43.2,51.92,14.01,3.26,47.23,426.57,3,2586,"Manali, Chennai - CPCB",,"{'id': 9, 'code': 'IN', 'name': 'India'}","{'latitude': 13.164544, 'longitude': 80.26285}",13.164544,80.26285,1500,1500,Burning,Burning
2587,61.75,81.22,15.72,2.52,45.37,534.81,4,2587,"Sector16A, Faridabad - HSPCB",,"{'id': 9, 'code': 'IN', 'name': 'India'}","{'latitude': 28.410122219999998, 'longitude': 77.313775}",28.410122219999998,77.313775,1500,1500,Burning,Burning
2589,11.46,17.73,13.95,3.34,16.88,281.58,2,2589,SaneguravaHalli - KSPCB,,"{'id': 9, 'code': 'IN', 'name': 'India'}","{'latitude': 12.9916694, 'longitude': 77.5458305555555}",12.9916694,77.5458305555555,1500,1500,Other,Other
2591,15.46,19.18,6.32,0.93,13.99,351.98,2,2591,Ardhali Bazar,,"{'id': 9, 'code': 'IN', 'name': 'India'}","{'latitude': 25.35055556, 'longitude': 82.97833333}",25.35055556,82.97833333,1500,1500,Other,Other
2592,9.59,14.87,12.37,2.74,16.43,260.35,1,2592,"BWSSB Kadabesanahalli, Bengaluru - KSPCB",,"{'id': 9, 'code': 'IN', 'name': 'India'}","{'latitude': 12.93890556, 'longitude': 77.69727222}",12.93890556,77.69727222,1500,1500,Other,Other
2593,14.85,17.21,17.86,4.04,5.5,369.93,2,2593,IGSC Planetarium Complex - Patna - BSPCB,,"{'id': 9, 'code': 'IN', 'name': 'India'}","{'latitude': 25.3636, 'longitude': 85.0755}",25.3636,85.0755,1500,1500,Other,Other
2594,3.81,7.4,9.14,3.66,16.95,173.45,1,2594,"Sanathnagar, Hyderabad - TSPCB",,"{'id': 9, 'code': 'IN', 'name': 'India'}","{'latitude': 17.42329722, 'longitude': 78.47469722}",17.42329722,78.47469722,1500,1500,Other,Other
2595,15.68,22.5,6.29,1.31,27.61,308.03,2,2595,Nehru Nagar,,"{'id': 9, 'code': 'IN', 'name': 'India'}","{'latitude': 26.470308800000005, 'longitude': 80.3251749}",26.470308800000005,80.3251749,1500,1500,Other,Other
2596,1.54,3.25,5.41,1.13,21.01,139.14,1,2596,"Solapur, Solapur - MPCB",,"{'id': 9, 'code': 'IN', 'name': 'India'}","{'latitude': 17.6599188, 'longitude': 75.9063906}",17.6599188,75.9063906,1500,1500,Other,Other
2597,62.28,82.71,15.03,2.45,48.04,520.72,4,2597,US Diplomatic Post: New Delhi,,"{'id': 9, 'code': 'IN', 'name': 'India'}","{'latitude': 28.598096, 'longitude': 77.189066}",28.598096,77.189066,1500,1500,Burning,Burning
2598,1.25,4.2,0.07,0.13,39.86,82.11,1,2598,Navi Mumbai Municipal Corporation Airoli,,"{'id': 9, 'code': 'IN', 'name': 'India'}","{'latitude': 19.1494, 'longitude': 72.9986}",19.1494,72.9986,1500,1500,Other,Other
3459,10.92,12.6,16.83,4.82,8.63,402.29,2,3459,Embassy Kathmandu,,"{'id': 145, 'code': 'NP', 'name': 'Nepal'}","{'latitude': 27.738703, 'longitude': 85.336206}",27.738703,85.336206,1500,1500,Other,Other
3460,10.92,12.6,16.83,4.82,8.63,402.29,2,3460,Phora Durbar Kathman,,"{'id': 145, 'code': 'NP', 'name': 'Nepal'}","{'latitude': 27.712464, 'longitude': 85.315703}",27.712464,85.315703,1500,1500,Other,Other
5404,63.35,85.06,14.0,2.33,52.29,494.06,4,5404,"Pusa, Delhi - IMD",,"{'id': 9, 'code': 'IN', 'name': 'India'}","{'latitude': 28.639645, 'longitude': 77.146263}",28.639645,77.146263,1500,1500,Burning,Burning
5408,5.85,9.91,6.16,1.44,25.78,182.3,1,5408,"Secretariat, Amaravati - APPCB",,"{'id': 9, 'code': 'IN', 'name': 'India'}","{'latitude': 16.5150833, 'longitude': 80.5181667}",16.5150833,80.5181667,1500,1500,Other,Other
5443,12.53,14.27,4.12,1.76,44.73,158.36,2,5443,"Mahakaleshwar Temple, Ujjain - MPPCB",,"{'id': 9, 'code': 'IN', 'name': 'India'}","{'latitude': 23.182719, 'longitude': 75.768218}",23.182719,75.768218,1500,1500,Other,Other
5505,20.85,26.69,5.57,1.67,22.78,324.41,2,5505,"Birla Staff colony, Satna - MPPCB",,"{'id': 9, 'code': 'IN', 'name': 'India'}","{'latitude': 24.5908256, 'longitude': 80.8574279}",24.5908256,80.8574279,1500,1500,Other,Other
5509,64.12,85.27,15.77,2.5,46.84,528.63,4,5509,"Anand Vihar, Delhi - DPCC",,"{'id': 9, 'code': 'IN', 'name': 'India'}","{'latitude': 28.647622000000002, 'longitude': 77.315809}",28.647622000000002,77.315809,1500,1500,Burning,Burning
5540,63.35,85.06,14.0,2.33,52.29,494.06,4,5540,"Punjabi Bagh, Delhi - DPCC",,"{'id': 9, 'code': 'IN', 'name': 'India'}","{'latitude': 28.6670856, 'longitude': 77.1301247}",28.6670856,77.1301247,1500,1500,Burning,Burning
5541,64.12,85.27,15.77,2.5,46.84,528.63,4,5541,"Burari Crossing, New Delhi - IMD",,"{'id': 9, 'code': 'IN', 'name': 'India'}","{'latitude': 28.7256504, 'longitude': 77.2011573}",28.7256504,77.2011573,1500,1500,Burning,Burning
5542,72.43,96.41,9.07,2.61,44.2,513.41,4,5542,"Civil Line, Jalandhar - PPCB",,"{'id': 9, 'code': 'IN', 'name': 'India'}","{'latitude': 31.321907, 'longitude': 75.578914}",31.321907,75.578914,1500,1500,Burning,Burning
5544,64.65,88.77,12.42,3.76,54.53,442.93,4,5544,"Model Town, Patiala - PPCB",,"{'id': 9, 'code': 'IN', 'name': 'India'}","{'latitude': 30.349388, 'longitude': 76.366642}",30.349388,76.366642,1500,1500,Burning,Burning
5546,15.94,18.83,10.45,6.39,17.75,385.66,2,5546,Tata Stadium - Jorapokhar - JSPCB,,"{'id': 9, 'code': 'IN', 'name': 'India'}","{'latitude': 23.707909, 'longitude': 86.41467}",23.707909,86.41467,1500,1500,Other,Other
5547,9.59,14.87,12.37,2.74,16.43,260.35,1,5547,"BWSSB Kadabesanahalli, Bengaluru - CPCB",,"{'id': 9, 'code': 'IN', 'name': 'India'}","{'latitude': 12.9352049, 'longitude': 77.6814488}",12.9352049,77.6814488,1500,1500,Other,Other
5548,11.46,17.73,13.95,3.34,16.88,281.58,2,5548,"BTM Layout, Bengaluru - CPCB",,"{'id': 9, 'code': 'IN', 'name': 'India'}","{'latitude': 12.9135218, 'longitude': 77.5950804}",12.9135218,77.5950804,1500,1500,Other,Other
5551,78.7,106.35,9.31,3.36,50.71,597.6,5,5551,"Golden Temple, Amritsar - PPCB",,"{'id': 9, 'code': 'IN', 'name': 'India'}","{'latitude': 31.62, 'longitude': 74.876512}",31.62,74.876512,1500,1500,Burning,Burning
5552,62.38,88.09,14.44,2.17,53.07,475.73,4,5552,"MD University, Rohtak - HSPCB",,"{'id': 9, 'code': 'IN', 'name': 'India'}","{'latitude': 28.870083, 'longitude': 76.6205}",28.870083,76.6205,1500,1500,Burning,Burning
5558,40.02,48.64,17.16,4.64,36.2,435.12,3,5558,"Alandur Bus Depot, Chennai - CPCB",,"{'id': 9, 'code': 'IN', 'name': 'India'}","{'latitude': 12.909916100000002, 'longitude': 80.1076538}",12.909916100000002,80.1076538,1500,1500,Other,Other
5559,14.68,16.16,16.12,3.67,0.47,388.85,2,5559,"Collectorate, Gaya - BSPCB",,"{'id': 9, 'code': 'IN', 'name': 'India'}","{'latitude': 24.7955, 'longitude': 84.9994}",24.7955,84.9994,1500,1500,Other,Other
5565,8.41,11.08,3.13,0.68,19.28,183.18,1,5565,"MIDC Khutala, Chandrapur - MPCB",,"{'id': 9, 'code': 'IN', 'name': 'India'}","{'latitude': 19.9775302, 'longitude': 79.2337086}",19.9775302,79.2337086,1500,1500,Other,Other
5566,10.34,14.36,3.64,0.98,13.79,266.61,2,5566,"Talcher Coalfields,Talcher - OSPCB",,"{'id': 9, 'code': 'IN', 'name': 'India'}","{'latitude': 20.9360711, 'longitude': 85.1707021}",20.9360711,85.1707021,1500,1500,Other,Other
5569,68.15,89.75,9.09,2.92,46.0,465.59,4,5569,"Punjab Agricultural University, Ludhiana - PPCB",,"{'id': 9, 'code': 'IN', 'name': 'India'}","{'latitude': 30.9028, 'longitude': 75.8086}",30.9028,75.8086,1500,1500,Burning,Burning
5570,62.28,82.71,15.03,2.45,48.04,520.72,4,5570,"Aya Nagar, New Delhi - IMD",,"{'id': 9, 'code': 'IN', 'name': 'India'}","{'latitude': 28.474261, 'longitude': 77.131606}",28.474261,77.131606,1500,1500,Burning,Burning
5574,11.46,17.73,13.95,3.34,16.88,281.58,2,5574,"City Railway Station, Bengaluru - KSPCB",,"{'id': 9, 'code': 'IN', 'name': 'India'}","{'latitude': 12.9756843, 'longitude': 77.5660749}",12.9756843,77.5660749,1500,1500,Other,Other
5576,46.24,64.77,11.99,2.28,61.78,484.32,3,5576,"Moti Doongri, Alwar - RSPCB",,"{'id': 9, 'code': 'IN', 'name': 'India'}","{'latitude': 27.554793, 'longitude': 76.611536}",27.554793,76.611536,1500,1500,Burning,Burning
5581,63.35,85.06,14.0,2.33,52.29,494.06,4,5581,"Pusa, New Delhi - IMD",,"{'id': 9, 'code': 'IN', 'name': 'India'}","{'latitude': 28.610304, 'longitude': 77.0996943}",28.610304,77.0996943,1500,1500,Burning,Burning
5585,15.31,28.0,15.42,6.55,25.93,292.38,2,5585,"Ashok Nagar, Udaipur - RSPCB",,"{'id': 9, 'code': 'IN', 'name': 'India'}","{'latitude': 24.5886166, 'longitude': 73.6321397}",24.5886166,73.6321397,1500,1500,Other,Other
5586,61.75,81.22,15.72,2.52,45.37,534.81,4,5586,"Sirifort, Delhi - CPCB",,"{'id': 9, 'code': 'IN', 'name': 'India'}","{'latitude': 28.5504249, 'longitude': 77.2159377}",28.5504249,77.2159377,1500,1500,Burning,Burning
5587,10.05,22.47,3.92,0.66,47.63,163.28,2,5587,"Collectorate, Jodhpur - RSPCB",,"{'id': 9, 'code': 'IN', 'name': 'India'}","{'latitude': 26.268249, 'longitude': 73.0193853}",26.268249,73.0193853,1500,1500,Other,Other
5588,63.26,82.92,18.54,2.86,36.64,600.95,4,5588,"RIICO Ind. Area III, Bhiwadi - RSPCB",,"{'id': 9, 'code': 'IN', 'name': 'India'}","{'latitude': 28.194909, 'longitude': 76.862296}",28.194909,76.862296,1500,1500,Burning,Burning
5590,15.46,19.18,6.32,0.93,13.99,351.98,2,5590,"Ardhali Bazar, Varanasi - UPPCB",,"{'id': 9, 'code': 'IN', 'name': 'India'}","{'latitude': 25.3505986, 'longitude': 82.9083074}",25.3505986,82.9083074,1500,1500,Other,Other
5592,12.13,22.29,12.93,8.13,15.09,323.9,2,5592,"Gangapur Road, Nashik - MPCB",,"{'id': 9, 'code': 'IN', 'name': 'India'}","{'latitude': 20.0073285, 'longitude': 73.7762427}",20.0073285,73.7762427,1500,1500,Other,Other
5593,1.25,4.2,0.07,0.13,39.86,82.11,1,5593,"Pimpleshwar Mandir, Thane - MPCB",,"{'id': 9, 'code': 'IN', 'name': 'India'}","{'latitude': 19.192056, 'longitude': 72.9585188}",19.192056,72.9585188,1500,1500,Other,Other
5594,11.28,14.46,9.77,2.65,17.72,335.27,2,5594,"Muzaffarpur Collectorate, Muzaffarpur - BSPCB",,"{'id': 9, 'code': 'IN', 'name': 'India'}","{'latitude': 26.1209, 'longitude': 85.3647}",26.1209,85.3647,1500,1500,Other,Other
5596,5.85,9.91,6.16,1.44,25.78,182.3,1,5596,"Secretariat, Amaravati - APPCB",,"{'id': 9, 'code': 'IN', 'name': 'India'}","{'latitude': 16.5150833, 'longitude': 80.5181667}",16.5150833,80.5181667,1500,1500,Other,Other
5598,61.75,81.22,15.72,2.52,45.37,534.81,4,5598,"Sector - 125, Noida, UP - UPPCB",,"{'id': 9, 'code': 'IN', 'name': 'India'}","{'latitude': 28.5447608, 'longitude': 77.3231257}",28.5447608,77.3231257,1500,1500,Burning,Burning
5599,3.12,6.17,8.99,2.85,17.43,171.1,1,5599,"Bollaram Industrial Area, Hyderabad - TSPCB",,"{'id': 9, 'code': 'IN', 'name': 'India'}","{'latitude': 17.540891, 'longitude': 78.358528}",17.540891,78.358528,1500,1500,Other,Other
5601,93.45,119.15,19.0,6.25,53.82,760.01,5,5601,"Lajpat Nagar, Moradabad - UPPCB",,"{'id': 9, 'code': 'IN', 'name': 'India'}","{'latitude': 28.825341, 'longitude': 78.7213009}",28.825341,78.7213009,1500,1500,Burning,Burning
5602,21.76,26.56,13.2,8.01,10.66,434.34,2,5602,"Asansol Court Area, Asansol - WBPCB",,"{'id': 9, 'code': 'IN', 'name': 'India'}","{'latitude': 23.685297, 'longitude': 86.945968}",23.685297,86.945968,1500,1500,Other,Other
5603,13.68,15.7,5.77,2.17,31.91,169.17,2,5603,"Sector-2 Industrial Area, Pithampur - MPPCB",,"{'id': 9, 'code': 'IN', 'name': 'India'}","{'latitude': 22.624758, 'longitude': 75.675238}",22.624758,75.675238,1500,1500,Other,Other
5604,17.34,26.82,9.45,1.51,21.35,356.85,2,5604,"Nishant Ganj, Lucknow - UPPCB",,"{'id': 9, 'code': 'IN', 'name': 'India'}","{'latitude': 26.871428, 'longitude': 80.957145}",26.871428,80.957145,1500,1500,Other,Other
5607,5.97,9.88,8.17,1.69,17.16,200.08,1,5607,"Peenya, Bengaluru - CPCB",,"{'id': 9, 'code': 'IN', 'name': 'India'}","{'latitude': 13.0270199, 'longitude': 77.494094}",13.0270199,77.494094,1500,1500,Other,Other
5608,14.88,17.31,4.02,1.07,18.37,317.96,2,5608,"GM Office, Brajrajnagar - OSPCB",,"{'id': 9, 'code': 'IN', 'name': 'India'}","{'latitude': 21.8004996, 'longitude': 83.8396977}",21.8004996,83.8396977,1500,1500,Other,Other
5609,16.95,22.22,2.98,1.43,42.21,195.19,2,5609,"Anam Kala Kendram, Rajamahendravaram - APPCB",,"{'id': 9, 'code': 'IN', 'name': 'India'}","{'latitude': 16.9872867, 'longitude': 81.7363176}",16.9872867,81.7363176,1500,1500,Other,Other
5610,63.35,85.06,14.0,2.33,52.29,494.06,4,5610,"North Campus, DU, Delhi - IMD",,"{'id': 9, 'code': 'IN', 'name': 'India'}","{'latitude': 28.6573814, 'longitude': 77.1585447}",28.6573814,77.1585447,1500,1500,Burning,Burning
5611,6.29,8.18,4.3,2.21,29.28,165.63,1,5611,"Chandrapur, Chandrapur - MPCB",,"{'id': 9, 'code': 'IN', 'name': 'India'}","{'latitude': 19.645324, 'longitude': 77.6345232}",19.645324,77.6345232,1500,1500,Other,Other
5612,12.12,16.83,4.09,0.93,71.98,315.68,2,5612,"Shastri Nagar, Jaipur - RSPCB",,"{'id': 9, 'code': 'IN', 'name': 'India'}","{'latitude': 26.9502929, 'longitude': 75.730943}",26.9502929,75.730943,1500,1500,Other,Other
5613,64.12,85.27,15.77,2.5,46.84,528.63,4,5613,"ITO, New Delhi - CPCB",,"{'id': 9, 'code': 'IN', 'name': 'India'}","{'latitude': 28.628624, 'longitude': 77.24106}",28.628624,77.24106,1500,1500,Burning,Burning
5614,9.02,10.56,0.66,0.41,70.8,153.33,2,5614,"Padmapukur, Howrah - WBPCB",,"{'id': 9, 'code': 'IN', 'name': 'India'}","{'latitude': 22.5687319, 'longitude': 88.2797276}",22.5687319,88.2797276,1500,1500,Other,Other
5615,20.04,24.39,9.22,6.55,15.76,367.37,2,5615,"Sidhu Kanhu Indoor Stadium, Durgapur - WBPCB",,"{'id': 9, 'code': 'IN', 'name': 'India'}","{'latitude': 23.5404352, 'longitude': 87.2892225}",23.5404352,87.2892225,1500,1500,Other,Other
5616,64.12,85.27,15.77,2.5,46.84,528.63,4,5616,"Sector - 62, Noida, UP - IMD",,"{'id': 9, 'code': 'IN', 'name': 'India'}","{'latitude': 28.6245479, 'longitude': 77.3577104}",28.6245479,77.3577104,1500,1500,Burning,Burning
5617,61.75,81.22,15.72,2.52,45.37,534.81,4,5617,"Sector- 16A, Faridabad - HSPCB",,"{'id': 9, 'code': 'IN', 'name': 'India'}","{'latitude': 28.4088421, 'longitude': 77.3099081}",28.4088421,77.3099081,1500,1500,Burning,Burning
5619,7.25,9.12,6.74,1.08,9.14,303.83,1,5619,"Vindhyachal STPS, Singrauli - MPPCB",,"{'id': 9, 'code': 'IN', 'name': 'India'}","{'latitude': 24.10897, 'longitude': 82.64558}",24.10897,82.64558,1500,1500,Other,Other
5621,13.05,15.11,4.27,1.6,29.38,204.21,2,5621,"Opp GPO Civil Lines, Nagpur - MPCB",,"{'id': 9, 'code': 'IN', 'name': 'India'}","{'latitude': 21.152875, 'longitude': 79.0517531}",21.152875,79.0517531,1500,1500,Other,Other
5622,63.35,85.06,14.0,2.33,52.29,494.06,4,5622,"NSIT Dwarka, Delhi - CPCB",,"{'id': 9, 'code': 'IN', 'name': 'India'}","{'latitude': 28.60909, 'longitude': 77.0325413}",28.60909,77.0325413,1500,1500,Burning,Burning
5623,3.12,6.17,8.99,2.85,17.43,171.1,1,5623,"Central University, Hyderabad - TSPCB",,"{'id': 9, 'code': 'IN', 'name': 'India'}","{'latitude': 17.460103, 'longitude': 78.334361}",17.460103,78.334361,1500,1500,Other,Other
5624,3.12,6.17,8.99,2.85,17.43,171.1,1,5624,"IDA Pashamylaram, Hyderabad - TSPCB",,"{'id': 9, 'code': 'IN', 'name': 'India'}","{'latitude': 17.5316895, 'longitude': 78.218939}",17.5316895,78.218939,1500,1500,Other,Other
5625,69.54,90.04,10.72,3.65,48.81,467.49,4,5625,"RIMT University, Mandi Gobindgarh - PPCB",,"{'id': 9, 'code': 'IN', 'name': 'India'}","{'latitude': 30.649961, 'longitude': 76.331442}",30.649961,76.331442,1500,1500,Burning,Burning
5626,63.35,85.06,14.0,2.33,52.29,494.06,4,5626,"DTU, New Delhi - CPCB",,"{'id': 9, 'code': 'IN', 'name': 'India'}","{'latitude': 28.7500499, 'longitude': 77.1112615}",28.7500499,77.1112615,1500,1500,Burning,Burning
5627,61.75,81.22,15.72,2.52,45.37,534.81,4,5627,"CRRI Mathura Road, New Delhi - IMD",,"{'id': 9, 'code': 'IN', 'name': 'India'}","{'latitude': 28.5512005, 'longitude': 77.2735737}",28.5512005,77.2735737,1500,1500,Burning,Burning
5628,12.07,16.79,5.09,3.51,33.48,180.61,2,5628,"GVM Corporation, Visakhapatnam - APPCB",,"{'id': 9, 'code': 'IN', 'name': 'India'}","{'latitude': 17.722682, 'longitude': 83.308197}",17.722682,83.308197,1500,1500,Other,Other
5630,63.35,85.06,14.0,2.33,52.29,494.06,4,5630,"Shadipur, Delhi - CPCB",,"{'id': 9, 'code': 'IN', 'name': 'India'}","{'latitude': 28.6514781, 'longitude': 77.1473105}",28.6514781,77.1473105,1500,1500,Burning,Burning
5631,3.0,7.57,3.95,1.36,30.74,125.66,1,5631,"Maninagar, Ahmedabad - GPCB",,"{'id': 9, 'code': 'IN', 'name': 'India'}","{'latitude': 23.002657, 'longitude': 72.591912}",23.002657,72.591912,1500,1500,Other,Other
5632,5.62,7.12,3.3,0.81,40.64,171.79,1,5632,"Sector-D Industrial Area, Mandideep - MPPCB",,"{'id': 9, 'code': 'IN', 'name': 'India'}","{'latitude': 23.10844, 'longitude': 77.511428}",23.10844,77.511428,1500,1500,Other,Other
5633,12.12,16.83,4.09,0.93,71.98,315.68,2,5633,"Police Commissionerate, Jaipur - RSPCB",,"{'id': 9, 'code': 'IN', 'name': 'India'}","{'latitude': 26.9164092, 'longitude': 75.7994901}",26.9164092,75.7994901,1500,1500,Other,Other
5634,61.75,81.22,15.72,2.52,45.37,534.81,4,5634,"Lodhi Road, New Delhi - IMD",,"{'id': 9, 'code': 'IN', 'name': 'India'}","{'latitude': 28.5918245, 'longitude': 77.2273074}",28.5918245,77.2273074,1500,1500,Burning,Burning
5635,16.29,21.86,4.2,0.99,75.49,339.46,2,5635,"Adarsh Nagar, Jaipur - RSPCB",,"{'id': 9, 'code': 'IN', 'name': 'India'}","{'latitude': 26.902909, 'longitude': 75.836858}",26.902909,75.836858,1500,1500,Other,Other
5636,11.54,13.38,2.65,0.84,46.8,185.77,2,5636,"Shrinath Puram, Kota - RSPCB",,"{'id': 9, 'code': 'IN', 'name': 'India'}","{'latitude': 25.14389, 'longitude': 75.821256}",25.14389,75.821256,1500,1500,Other,Other
5638,12.46,19.45,6.14,0.77,36.32,205.14,2,5638,"Indira Colony Vistar, Pali - RSPCB",,"{'id': 9, 'code': 'IN', 'name': 'India'}","{'latitude': 25.771061, 'longitude': 73.340227}",25.771061,73.340227,1500,1500,Other,Other
5639,62.28,82.71,15.03,2.45,48.04,520.72,4,5639,"R K Puram, New Delhi - DPCC",,"{'id': 9, 'code': 'IN', 'name': 'India'}","{'latitude': 28.5646102, 'longitude': 77.1670103}",28.5646102,77.1670103,1500,1500,Burning,Burning
5641,64.12,85.27,15.77,2.5,46.84,528.63,4,5641,"Mandir Marg, New Delhi - DPCC",,"{'id': 9, 'code': 'IN', 'name': 'India'}","{'latitude': 28.6372688, 'longitude': 77.2005604}",28.6372688,77.2005604,1500,1500,Burning,Burning
5642,8.82,10.83,7.81,2.91,24.53,180.91,1,5642,"More Chowk Waluj, Aurangabad - MPCB",,"{'id': 9, 'code': 'IN', 'name': 'India'}","{'latitude': 19.8389439, 'longitude': 75.244448}",19.8389439,75.244448,1500,1500,Other,Other
5644,11.46,17.73,13.95,3.34,16.88,281.58,2,5644,"Sanegurava Halli, Bengaluru - KSPCB",,"{'id': 9, 'code': 'IN', 'name': 'India'}","{'latitude': 12.990328, 'longitude': 77.5431385}",12.990328,77.5431385,1500,1500,Other,Other
5645,3.12,6.17,8.99,2.85,17.43,171.1,1,5645,"ICRISAT Patancheru, Hyderabad - TSPCB",,"{'id': 9, 'code': 'IN', 'name': 'India'}","{'latitude': 17.5184, 'longitude': 78.278777}",17.5184,78.278777,1500,1500,Other,Other
5646,0.57,1.77,1.01,0.44,31.9,78.01,1,5646,"Plammoodu, Thiruvananthapuram - Kerala PCB",,"{'id': 9, 'code': 'IN', 'name': 'India'}","{'latitude': 8.5149093, 'longitude': 76.9435879}",8.5149093,76.9435879,1500,1500,Other,Other
5647,3.81,7.4,9.14,3.66,16.95,173.45,1,5647,"Sanathnagar, Hyderabad - TSPCB",,"{'id': 9, 'code': 'IN', 'name': 'India'}","{'latitude': 17.4559458, 'longitude': 78.4332152}",17.4559458,78.4332152,1500,1500,Other,Other
5648,8.2,10.3,9.02,3.76,14.28,258.74,1,5648,"Ward-32 Bapupara, Siliguri - WBPCB",,"{'id': 9, 'code': 'IN', 'name': 'India'}","{'latitude': 26.6883049, 'longitude': 88.412668}",26.6883049,88.412668,1500,1500,Other,Other
5649,18.06,28.63,14.42,1.84,7.3,375.71,2,5649,"Tirumala, Tirupati - APPCB",,"{'id': 9, 'code': 'IN', 'name': 'India'}","{'latitude': 13.67, 'longitude': 79.35}",13.67,79.35,1500,1500,Other,Other
5650,62.28,82.71,15.03,2.45,48.04,520.72,4,5650,"IGI Airport (T3), Delhi - IMD",,"{'id': 9, 'code': 'IN', 'name': 'India'}","{'latitude': 28.5627763, 'longitude': 77.1180053}",28.5627763,77.1180053,1500,1500,Burning,Burning
5652,13.59,16.33,14.43,3.41,10.23,345.79,2,5652,"IGSC Planetarium Complex, Patna - BSPCB",,"{'id': 9, 'code': 'IN', 'name': 'India'}","{'latitude': 25.5941, 'longitude': 85.1376}",25.5941,85.1376,1500,1500,Other,Other
5655,43.2,51.92,14.01,3.26,47.23,426.57,3,5655,"Velachery Res. Area, Chennai - CPCB",,"{'id': 9, 'code': 'IN', 'name': 'India'}","{'latitude': 13.0052189, 'longitude': 80.2398125}",13.0052189,80.2398125,1500,1500,Burning,Burning
5657,17.34,26.82,9.45,1.51,21.35,356.85,2,5657,"Central School, Lucknow - CPCB",,"{'id': 9, 'code': 'IN', 'name': 'India'}","{'latitude': 26.8821003, 'longitude': 80.9302753}",26.8821003,80.9302753,1500,1500,Other,Other
5659,17.34,26.82,9.45,1.51,21.35,356.85,2,5659,"Lalbagh, Lucknow - CPCB",,"{'id': 9, 'code': 'IN', 'name': 'India'}","{'latitude': 26.8458805, 'longitude': 80.9365541}",26.8458805,80.9365541,1500,1500,Other,Other
5661,1.26,2.16,0.83,0.22,35.48,87.81,1,5661,"Karve Road Pune, Pune - MPCB",,"{'id': 9, 'code': 'IN', 'name': 'India'}","{'latitude': 18.5011743, 'longitude': 73.8165527}",18.5011743,73.8165527,1500,1500,Other,Other
5662,15.68,22.5,6.29,1.31,27.61,308.03,2,5662,"Nehru Nagar, Kanpur - UPPCB",,"{'id': 9, 'code': 'IN', 'name': 'India'}","{'latitude': 26.4703136, 'longitude': 80.3229863}",26.4703136,80.3229863,1500,1500,Other,Other
5664,9.37,13.78,5.24,1.45,35.7,179.92,1,5664,"PWD Grounds, Vijayawada - APPCB",,"{'id': 9, 'code': 'IN', 'name': 'India'}","{'latitude': 16.507014, 'longitude': 80.627767}",16.507014,80.627767,1500,1500,Other,Other
5665,64.12,85.27,15.77,2.5,46.84,528.63,4,5665,"Vasundhara, Ghaziabad - UPPCB",,"{'id': 9, 'code': 'IN', 'name': 'India'}","{'latitude': 28.6603346, 'longitude': 77.3572563}",28.6603346,77.3572563,1500,1500,Burning,Burning
5667,8.26,9.94,3.49,1.36,41.15,150.75,1,5667,"Bhopal Chauraha, Dewas - MPPCB",,"{'id': 9, 'code': 'IN', 'name': 'India'}","{'latitude': 22.9682591, 'longitude': 76.064118}",22.9682591,76.064118,1500,1500,Other,Other
5742,64.12,85.27,15.77,2.5,46.84,528.63,4,5742,"Patparganj, Delhi - DPCC",,"{'id': 9, 'code': 'IN', 'name': 'India'}","{'latitude': 28.6310495, 'longitude': 77.2846218}",28.6310495,77.2846218,1500,1500,Burning,Burning
5743,63.35,85.06,14.0,2.33,52.29,494.06,4,5743,"Rohini, Delhi - DPCC",,"{'id': 9, 'code': 'IN', 'name': 'India'}","{'latitude': 28.7407056, 'longitude': 77.0577492}",28.7407056,77.0577492,1500,1500,Burning,Burning
5744,61.75,81.22,15.72,2.52,45.37,534.81,4,5744,"Dr. Karni Singh Shooting Range, Delhi - DPCC",,"{'id': 9, 'code': 'IN', 'name': 'India'}","{'latitude': 28.4997315, 'longitude': 77.2649067}",28.4997315,77.2649067,1500,1500,Burning,Burning
5745,14.29,16.91,1.76,1.25,61.07,197.95,2,5745,"Ghusuri, Howrah - WBPCB",,"{'id': 9, 'code': 'IN', 'name': 'India'}","{'latitude': 22.5565568, 'longitude': 87.895755}",22.5565568,87.895755,1500,1500,Other,Other
5753,64.12,85.27,15.77,2.5,46.84,528.63,4,5753,"Vivek Vihar, Delhi - DPCC",,"{'id': 9, 'code': 'IN', 'name': 'India'}","{'latitude': 28.6687803, 'longitude': 77.3130982}",28.6687803,77.3130982,1500,1500,Burning,Burning
5754,61.75,81.22,15.72,2.52,45.37,534.81,4,5754,"Jawaharlal Nehru Stadium, Delhi - DPCC",,"{'id': 9, 'code': 'IN', 'name': 'India'}","{'latitude': 28.5828503, 'longitude': 77.2321778}",28.5828503,77.2321778,1500,1500,Burning,Burning
5755,64.12,85.27,15.77,2.5,46.84,528.63,4,5755,"Major Dhyan Chand National Stadium, Delhi - DPCC",,"{'id': 9, 'code': 'IN', 'name': 'India'}","{'latitude': 28.6125027, 'longitude': 77.2351994}",28.6125027,77.2351994,1500,1500,Burning,Burning
5759,64.12,85.27,15.77,2.5,46.84,528.63,4,5759,"Sonia Vihar, Delhi - DPCC",,"{'id': 9, 'code': 'IN', 'name': 'India'}","{'latitude': 28.67795, 'longitude': 77.29868}",28.67795,77.29868,1500,1500,Burning,Burning
5760,62.81,84.2,14.34,2.39,50.69,506.72,4,5760,"Dwarka-Sector 8, Delhi - DPCC ",,"{'id': 9, 'code': 'IN', 'name': 'India'}","{'latitude': 28.5206826, 'longitude': 76.8023871}",28.5206826,76.8023871,1500,1500,Burning,Burning
5761,63.35,85.06,14.0,2.33,52.29,494.06,4,5761,"Jahangirpuri, Delhi - DPCC",,"{'id': 9, 'code': 'IN', 'name': 'India'}","{'latitude': 28.7258373, 'longitude': 77.1605631}",28.7258373,77.1605631,1500,1500,Burning,Burning
5762,63.35,85.06,14.0,2.33,52.29,494.06,4,5762,"Ashok Vihar, Delhi - DPCC",,"{'id': 9, 'code': 'IN', 'name': 'India'}","{'latitude': 28.6957202, 'longitude': 77.1812947}",28.6957202,77.1812947,1500,1500,Burning,Burning
5763,64.82,88.89,16.28,2.55,50.42,520.52,4,5763,"Narela, Delhi - DPCC",,"{'id': 9, 'code': 'IN', 'name': 'India'}","{'latitude': 28.8446874, 'longitude': 77.0332666}",28.8446874,77.0332666,1500,1500,Burning,Burning
5765,61.75,81.22,15.72,2.52,45.37,534.81,4,5765,"Okhla Phase-2, Delhi - DPCC",,"{'id': 9, 'code': 'IN', 'name': 'India'}","{'latitude': 28.5366411, 'longitude': 77.2664587}",28.5366411,77.2664587,1500,1500,Burning,Burning
5766,61.75,81.22,15.72,2.52,45.37,534.81,4,5766,"Nehru Nagar, Delhi - DPCC",,"{'id': 9, 'code': 'IN', 'name': 'India'}","{'latitude': 28.5639543, 'longitude': 77.2587868}",28.5639543,77.2587868,1500,1500,Burning,Burning
6310,9.02,10.56,0.66,0.41,70.8,153.33,2,6310,"Rabindra Bharati University, Kolkata - WBPCB",,"{'id': 9, 'code': 'IN', 'name': 'India'}","{'latitude': 22.5824635, 'longitude': 88.35724470000001}",22.5824635,88.35724470000001,1500,1500,Other,Other
6314,62.81,84.2,14.34,2.39,50.69,506.72,4,6314,"NISE Gwal Pahari, Gurugram - IMD",,"{'id': 9, 'code': 'IN', 'name': 'India'}","{'latitude': 28.4228859, 'longitude': 76.8496963}",28.4228859,76.8496963,1500,1500,Burning,Burning
6338,6.0,7.06,0.25,0.33,73.64,71.79,2,6338,阿里地委,,"{'id': 10, 'code': 'CN', 'name': 'China'}","{'latitude': 32.5039, 'longitude': 80.0895}",32.5039,80.0895,1500,1500,Other,Other
6356,63.35,85.06,14.0,2.33,52.29,494.06,4,6356,"Pusa, Delhi - DPCC",,"{'id': 9, 'code': 'IN', 'name': 'India'}","{'latitude': 28.639645, 'longitude': 77.146262}",28.639645,77.146262,1500,1500,Burning,Burning
6357,63.35,85.06,14.0,2.33,52.29,494.06,4,6357,"Punjabi Bagh, Delhi - DPCC",,"{'id': 9, 'code': 'IN', 'name': 'India'}","{'latitude': 28.674045000000003, 'longitude': 77.13102300000001}",28.674045000000003,77.13102300000001,1500,1500,Burning,Burning
6358,64.12,85.27,15.77,2.5,46.84,528.63,4,6358,"Mandir Marg, New Delhi - DPCC",,"{'id': 9, 'code': 'IN', 'name': 'India'}","{'latitude': 28.636429, 'longitude': 77.201067}",28.636429,77.201067,1500,1500,Burning,Burning
6359,64.12,85.27,15.77,2.5,46.84,528.63,4,6359,"IHBAS, Dilshad Garden,New Delhi - CPCB",,"{'id': 9, 'code': 'IN', 'name': 'India'}","{'latitude': 28.6811736, 'longitude': 77.3025234}",28.6811736,77.3025234,1500,1500,Burning,Burning
6442,79.2,100.5,7.24,3.71,60.08,503.13,5,6442,"Ratanpura, Rupnagar - Ambuja Cements",,"{'id': 9, 'code': 'IN', 'name': 'India'}","{'latitude': 31.0325454, 'longitude': 76.5623046}",31.0325454,76.5623046,1500,1500,Burning,Burning
6443,20.85,26.69,5.57,1.67,22.78,324.41,2,6443,"Bandhavgar Colony, Satna - Birla Cement",,"{'id': 9, 'code': 'IN', 'name': 'India'}","{'latitude': 24.58434363, 'longitude': 80.8549414}",24.58434363,80.8549414,1500,1500,Other,Other
6920,8.77,13.63,4.44,1.0,0.67,257.35,1,6920,"Manali Village, Chennai - TNPCB",,"{'id': 9, 'code': 'IN', 'name': 'India'}","{'latitude': 11.258244, 'longitude': 77.552429}",11.258244,77.552429,1500,1500,Other,Other
6923,71.26,101.25,21.32,6.63,55.86,677.93,4,6923,"New Mandi, Muzaffarnagar - UPPCB",,"{'id': 9, 'code': 'IN', 'name': 'India'}","{'latitude': 29.4723508, 'longitude': 77.7194031}",29.4723508,77.7194031,1500,1500,Burning,Burning
6924,64.12,85.27,15.77,2.5,46.84,528.63,4,6924,"Indirapuram, Ghaziabad - UPPCB",,"{'id': 9, 'code': 'IN', 'name': 'India'}","{'latitude': 28.646233, 'longitude': 77.358075}",28.646233,77.358075,1500,1500,Burning,Burning
6927,1.42,4.79,0.08,0.15,39.38,82.18,1,6927,"Colaba, Mumbai - MPCB",,"{'id': 9, 'code': 'IN', 'name': 'India'}","{'latitude': 18.91, 'longitude': 72.82}",18.91,72.82,1500,1500,Other,Other
6928,1.25,4.19,0.14,0.26,39.92,82.4,1,6928,"Vasai West, Mumbai - MPCB",,"{'id': 9, 'code': 'IN', 'name': 'India'}","{'latitude': 19.3832, 'longitude': 72.8204}",19.3832,72.8204,1500,1500,Other,Other
6929,64.12,85.27,15.77,2.5,46.84,528.63,4,6929,"Major Dhyan Chand National Stadium, Delhi - DPCC",,"{'id': 9, 'code': 'IN', 'name': 'India'}","{'latitude': 28.611281, 'longitude': 77.237738}",28.611281,77.237738,1500,1500,Burning,Burning
6930,70.13,97.12,15.21,5.06,57.4,580.2,4,6930,"Gobind Pura, Yamuna Nagar - HSPCB",,"{'id': 9, 'code': 'IN', 'name': 'India'}","{'latitude': 30.1480566, 'longitude': 77.2893471}",30.1480566,77.2893471,1500,1500,Burning,Burning
6931,62.28,82.71,15.03,2.45,48.04,520.72,4,6931,"Dwarka-Sector 8, Delhi - DPCC ",,"{'id': 9, 'code': 'IN', 'name': 'India'}","{'latitude': 28.5710274, 'longitude': 77.0719006}",28.5710274,77.0719006,1500,1500,Burning,Burning
6932,64.82,88.89,16.28,2.55,50.42,520.52,4,6932,"Alipur, Delhi - DPCC",,"{'id': 9, 'code': 'IN', 'name': 'India'}","{'latitude': 28.815329, 'longitude': 77.15301}",28.815329,77.15301,1500,1500,Burning,Burning
6933,16.53,18.51,5.57,2.53,44.7,176.52,2,6933,"Shasthri Nagar, Ratlam - IPCA Lab",,"{'id': 9, 'code': 'IN', 'name': 'India'}","{'latitude': 23.331731, 'longitude': 75.045981}",23.331731,75.045981,1500,1500,Other,Other
6934,61.75,81.22,15.72,2.52,45.37,534.81,4,6934,"Dr. Karni Singh Shooting Range, Delhi - DPCC",,"{'id': 9, 'code': 'IN', 'name': 'India'}","{'latitude': 28.498571, 'longitude': 77.26484}",28.498571,77.26484,1500,1500,Burning,Burning
6935,48.36,79.11,8.08,1.45,79.14,368.99,3,6935,"Urban Estate-II, Hisar - HSPCB",,"{'id': 9, 'code': 'IN', 'name': 'India'}","{'latitude': 29.14056, 'longitude': 75.744941}",29.14056,75.744941,1500,1500,Burning,Burning
6936,62.58,84.85,12.24,2.16,57.69,459.77,4,6936,"Arya Nagar, Bahadurgarh - HSPCB",,"{'id': 9, 'code': 'IN', 'name': 'India'}","{'latitude': 28.6701, 'longitude': 76.9254}",28.6701,76.9254,1500,1500,Burning,Burning
6937,2.91,8.27,4.86,1.44,33.13,130.68,1,6937,"Sector-10, Gandhinagar - GPCB",,"{'id': 9, 'code': 'IN', 'name': 'India'}","{'latitude': 23.221714, 'longitude': 72.654328}",23.221714,72.654328,1500,1500,Other,Other
6938,64.12,85.27,15.77,2.5,46.84,528.63,4,6938,"Vivek Vihar, Delhi - DPCC",,"{'id': 9, 'code': 'IN', 'name': 'India'}","{'latitude': 28.672342, 'longitude': 77.31526}",28.672342,77.31526,1500,1500,Burning,Burning
6939,53.69,93.89,9.99,2.46,55.33,408.24,4,6939,"Hardev Nagar, Bathinda - PPCB",,"{'id': 9, 'code': 'IN', 'name': 'India'}","{'latitude': 30.233011, 'longitude': 74.907758}",30.233011,74.907758,1500,1500,Burning,Burning
6940,69.54,90.04,10.72,3.65,48.81,467.49,4,6940,"Kalal Majra, Khanna - PPCB",,"{'id': 9, 'code': 'IN', 'name': 'India'}","{'latitude': 30.736056, 'longitude': 76.209694}",30.736056,76.209694,1500,1500,Burning,Burning
6941,8.76,10.63,7.91,1.6,28.35,196.78,1,6941,"Railway Colony, Guwahati - APCB",,"{'id': 9, 'code': 'IN', 'name': 'India'}","{'latitude': 26.144499999999997, 'longitude': 91.7362}",26.144499999999997,91.7362,1500,1500,Other,Other
6942,2.7,7.28,3.19,1.36,32.05,115.76,1,6942,"Phase-4 GIDC, Vatva - GPCB",,"{'id': 9, 'code': 'IN', 'name': 'India'}","{'latitude': 22.969611, 'longitude': 72.6435}",22.969611,72.6435,1500,1500,Other,Other
6943,1.07,3.22,0.07,0.1,38.65,81.3,1,6943,"Mahape, Navi Mumbai - MPCB",,"{'id': 9, 'code': 'IN', 'name': 'India'}","{'latitude': 19.1135051, 'longitude': 73.008978}",19.1135051,73.008978,1500,1500,Other,Other
6944,55.33,83.18,12.06,1.7,59.53,431.41,4,6944,"H.B. Colony, Bhiwani - HSPCB",,"{'id': 9, 'code': 'IN', 'name': 'India'}","{'latitude': 28.806223, 'longitude': 76.141105}",28.806223,76.141105,1500,1500,Burning,Burning
6945,1.25,4.2,0.07,0.13,39.86,82.11,1,6945,"Kurla, Mumbai - MPCB",,"{'id': 9, 'code': 'IN', 'name': 'India'}","{'latitude': 19.0863, 'longitude': 72.8888}",19.0863,72.8888,1500,1500,Other,Other
6946,9.0,10.12,0.8,0.53,70.08,158.29,2,6946,"Belur Math, Howrah - WBPCB",,"{'id': 9, 'code': 'IN', 'name': 'India'}","{'latitude': 22.629801, 'longitude': 88.352017}",22.629801,88.352017,1500,1500,Other,Other
6947,58.9,77.99,16.21,2.83,46.73,564.11,4,6947,"General Hospital, Mandikhera - HSPCB",,"{'id': 9, 'code': 'IN', 'name': 'India'}","{'latitude': 27.9002, 'longitude': 76.9938}",27.9002,76.9938,1500,1500,Burning,Burning
6948,1.25,4.2,0.07,0.13,39.86,82.11,1,6948,"Chhatrapati Shivaji Intl. Airport (T2), Mumbai - MPCB",,"{'id': 9, 'code': 'IN', 'name': 'India'}","{'latitude': 19.10078, 'longitude': 72.87462}",19.10078,72.87462,1500,1500,Other,Other
6949,62.22,84.12,17.49,2.79,43.1,566.46,4,6949,"Municipal Corporation Office, Dharuhera -  HSPCB",,"{'id': 9, 'code': 'IN', 'name': 'India'}","{'latitude': 28.2068, 'longitude': 76.7997}",28.2068,76.7997,1500,1500,Burning,Burning
6950,9.02,10.56,0.66,0.41,70.8,153.33,2,6950,"Jadavpur, Kolkata - WBPCB",,"{'id': 9, 'code': 'IN', 'name': 'India'}","{'latitude': 22.49929, 'longitude': 88.36917}",22.49929,88.36917,1500,1500,Other,Other
6951,66.28,92.73,18.57,2.78,48.55,547.05,4,6951,"Murthal, Sonipat - HSPCB",,"{'id': 9, 'code': 'IN', 'name': 'India'}","{'latitude': 29.0272, 'longitude': 77.0621}",29.0272,77.0621,1500,1500,Burning,Burning
6952,44.29,88.81,8.81,1.67,66.65,346.86,3,6952,"F-Block, Sirsa - HSPCB",,"{'id': 9, 'code': 'IN', 'name': 'India'}","{'latitude': 29.5364, 'longitude': 75.0158}",29.5364,75.0158,1500,1500,Dust,Burning
6953,63.03,83.56,16.44,2.63,43.67,553.79,4,6953,"Sector-2 IMT, Manesar - HSPCB",,"{'id': 9, 'code': 'IN', 'name': 'India'}","{'latitude': 28.360699, 'longitude': 76.93609}",28.360699,76.93609,1500,1500,Burning,Burning
6954,5.95,10.04,11.39,1.86,10.72,236.87,1,6954,"Chikkaballapur Rural, Chikkaballapur - KSPCB",,"{'id': 9, 'code': 'IN', 'name': 'India'}","{'latitude': 13.428828, 'longitude': 77.731418}",13.428828,77.731418,1500,1500,Other,Other
6955,1.23,2.68,6.74,0.9,20.29,141.3,1,6955,"Lal Bahadur Shastri Nagar, Kalaburagi - KSPCB",,"{'id': 9, 'code': 'IN', 'name': 'India'}","{'latitude': 17.321993, 'longitude': 76.822628}",17.321993,76.822628,1500,1500,Other,Other
6956,1.25,4.2,0.07,0.13,39.86,82.11,1,6956,"Powai, Mumbai - MPCB",,"{'id': 9, 'code': 'IN', 'name': 'India'}","{'latitude': 19.1375, 'longitude': 72.915056}",19.1375,72.915056,1500,1500,Other,Other
6957,61.75,81.22,15.72,2.52,45.37,534.81,4,6957,"Jawaharlal Nehru Stadium, Delhi - DPCC",,"{'id': 9, 'code': 'IN', 'name': 'India'}","{'latitude': 28.58028, 'longitude': 77.233829}",28.58028,77.233829,1500,1500,Burning,Burning
6958,67.48,96.4,18.92,2.88,46.14,540.0,4,6958,"Sector-18, Panipat - HSPCB",,"{'id': 9, 'code': 'IN', 'name': 'India'}","{'latitude': 29.435587, 'longitude': 76.975531}",29.435587,76.975531,1500,1500,Burning,Burning
6959,1.25,4.2,0.07,0.13,39.86,82.11,1,6959,"Siddharth Nagar-Worli, Mumbai - IITM",,"{'id': 9, 'code': 'IN', 'name': 'India'}","{'latitude': 19.000083, 'longitude': 72.813993}",19.000083,72.813993,1500,1500,Other,Other
6960,64.12,85.27,15.77,2.5,46.84,528.63,4,6960,"Patparganj, Delhi - DPCC",,"{'id': 9, 'code': 'IN', 'name': 'India'}","{'latitude': 28.623748, 'longitude': 77.287205}",28.623748,77.287205,1500,1500,Burning,Burning
6961,11.36,12.53,1.73,0.85,65.65,366.42,2,6961,"Shrivastav Colony, Damoh - MPPCB",,"{'id': 9, 'code': 'IN', 'name': 'India'}","{'latitude': 23.81748678, 'longitude': 79.446246}",23.81748678,79.446246,1500,1500,Other,Other
6962,2.48,6.6,1.8,3.29,36.35,90.78,1,6962,"GIDC, Ankleshwar - GPCB",,"{'id': 9, 'code': 'IN', 'name': 'India'}","{'latitude': 21.613267, 'longitude': 73.010555}",21.613267,73.010555,1500,1500,Other,Other
6963,59.45,91.79,12.45,1.93,62.47,446.38,4,6963,"Police Lines, Jind - HSPCB",,"{'id': 9, 'code': 'IN', 'name': 'India'}","{'latitude': 29.307814, 'longitude': 76.337619}",29.307814,76.337619,1500,1500,Burning,Burning
6964,67.04,90.67,11.81,3.66,57.04,471.29,4,6964,"Patti Mehar, Ambala - HSPCB",,"{'id': 9, 'code': 'IN', 'name': 'India'}","{'latitude': 30.379589, 'longitude': 76.778328}",30.379589,76.778328,1500,1500,Burning,Burning
6965,1.25,4.19,0.14,0.26,39.92,82.4,1,6965,"Borivali East, Mumbai - MPCB",,"{'id': 9, 'code': 'IN', 'name': 'India'}","{'latitude': 19.227474, 'longitude': 72.864394}",19.227474,72.864394,1500,1500,Other,Other
6966,0.5,0.74,0.27,0.08,34.92,77.54,1,6966,"Udyogamandal, Eloor - Kerala PCB",,"{'id': 9, 'code': 'IN', 'name': 'India'}","{'latitude': 10.073232, 'longitude': 76.302765}",10.073232,76.302765,1500,1500,Other,Other
6967,1.25,4.2,0.07,0.13,39.86,82.11,1,6967,"Sion, Mumbai - MPCB",,"{'id': 9, 'code': 'IN', 'name': 'India'}","{'latitude': 19.047, 'longitude': 72.8746}",19.047,72.8746,1500,1500,Other,Other
6968,5.68,14.51,4.51,4.09,33.29,188.36,1,6968,"Phase-1 GIDC, Vapi - GPCB",,"{'id': 9, 'code': 'IN', 'name': 'India'}","{'latitude': 20.362421, 'longitude': 72.918013}",20.362421,72.918013,1500,1500,Other,Other
6969,48.37,86.63,8.03,1.62,76.67,351.94,3,6969,"Huda Sector, Fatehabad - HSPCB",,"{'id': 9, 'code': 'IN', 'name': 'India'}","{'latitude': 29.503664, 'longitude': 75.467934}",29.503664,75.467934,1500,1500,Burning,Burning
6970,53.95,78.01,19.95,2.91,43.4,596.58,4,6970,"Shastri Nagar, Narnaul - HSPCB",,"{'id': 9, 'code': 'IN', 'name': 'India'}","{'latitude': 28.060249, 'longitude': 76.113115}",28.060249,76.113115,1500,1500,Burning,Burning
6971,64.76,95.18,14.02,3.27,61.65,463.14,4,6971,"Rishi Nagar, Kaithal - HSPCB",,"{'id': 9, 'code': 'IN', 'name': 'India'}","{'latitude': 29.8006, 'longitude': 76.4155}",29.8006,76.4155,1500,1500,Burning,Burning
6972,59.38,77.16,15.67,2.53,43.9,540.99,4,6972,"Nathu Colony, Ballabgarh - HSPCB",,"{'id': 9, 'code': 'IN', 'name': 'India'}","{'latitude': 28.3419248, 'longitude': 77.319699}",28.3419248,77.319699,1500,1500,Burning,Burning
6973,11.46,17.73,13.95,3.34,16.88,281.58,2,6973,"Jayanagar 5th Block, Bengaluru - KSPCB",,"{'id': 9, 'code': 'IN', 'name': 'India'}","{'latitude': 12.920984, 'longitude': 77.584908}",12.920984,77.584908,1500,1500,Other,Other
6974,11.46,17.73,13.95,3.34,16.88,281.58,2,6974,"Bapuji Nagar, Bengaluru - KSPCB",,"{'id': 9, 'code': 'IN', 'name': 'India'}","{'latitude': 12.951913, 'longitude': 77.539784}",12.951913,77.539784,1500,1500,Other,Other
6975,9.59,14.87,12.37,2.74,16.43,260.35,1,6975,"Silk Board, Bengaluru - KSPCB",,"{'id': 9, 'code': 'IN', 'name': 'India'}","{'latitude': 12.917348, 'longitude': 77.622813}",12.917348,77.622813,1500,1500,Other,Other
6976,67.93,91.57,19.12,3.48,45.81,608.5,4,6976,"Jai Bhim Nagar, Meerut - UPPCB",,"{'id': 9, 'code': 'IN', 'name': 'India'}","{'latitude': 28.9535882, 'longitude': 77.7622941}",28.9535882,77.7622941,1500,1500,Burning,Burning
6978,61.23,79.72,16.42,2.58,42.68,548.98,4,6978,"Knowledge Park - III, Greater Noida - UPPCB",,"{'id': 9, 'code': 'IN', 'name': 'India'}","{'latitude': 28.47272, 'longitude': 77.482}",28.47272,77.482,1500,1500,Burning,Burning
6979,65.44,88.86,17.62,2.76,47.89,553.16,4,6979,"New Collectorate, Baghpat - UPPCB",,"{'id': 9, 'code': 'IN', 'name': 'India'}","{'latitude': 28.974801000000003, 'longitude': 77.21335699999999}",28.974801000000003,77.21335699999999,1500,1500,Burning,Burning
6980,61.75,81.22,15.72,2.52,45.37,534.81,4,6980,"Sector-1, Noida - UPPCB",,"{'id': 9, 'code': 'IN', 'name': 'India'}","{'latitude': 28.589247, 'longitude': 77.321962}",28.589247,77.321962,1500,1500,Burning,Burning
6981,9.02,10.56,0.66,0.41,70.8,153.33,2,6981,"Fort William, Kolkata - WBPCB",,"{'id': 9, 'code': 'IN', 'name': 'India'}","{'latitude': 22.55664, 'longitude': 88.342674}",22.55664,88.342674,1500,1500,Other,Other
6982,1.37,3.15,2.0,0.4,27.43,107.21,1,6982,"Deshpande Nagar, Hubballi - KSPCB",,"{'id': 9, 'code': 'IN', 'name': 'India'}","{'latitude': 15.351773, 'longitude': 75.140726}",15.351773,75.140726,1500,1500,Other,Other
6983,11.46,17.73,13.95,3.34,16.88,281.58,2,6983,"Hombegowda Nagar, Bengaluru - KSPCB",,"{'id': 9, 'code': 'IN', 'name': 'India'}","{'latitude': 12.938539, 'longitude': 77.5901}",12.938539,77.5901,1500,1500,Other,Other
6984,5.97,9.88,8.17,1.69,17.16,200.08,1,6984,"Hebbal, Bengaluru - KSPCB",,"{'id': 9, 'code': 'IN', 'name': 'India'}","{'latitude': 13.029152, 'longitude': 77.585901}",13.029152,77.585901,1500,1500,Other,Other
6985,65.04,85.55,18.18,3.18,41.65,596.25,4,6985,"Yamunapuram, Bulandshahr - UPPCB",,"{'id': 9, 'code': 'IN', 'name': 'India'}","{'latitude': 28.406963, 'longitude': 77.849831}",28.406963,77.849831,1500,1500,Burning,Burning
6986,61.23,79.72,16.42,2.58,42.68,548.98,4,6986,"Knowledge Park - V, Greater Noida - UPPCB",,"{'id': 9, 'code': 'IN', 'name': 'India'}","{'latitude': 28.557054, 'longitude': 77.453663}",28.557054,77.453663,1500,1500,Burning,Burning
6987,1.25,4.2,0.07,0.13,39.86,82.11,1,6987,"Vile Parle West, Mumbai - MPCB",,"{'id': 9, 'code': 'IN', 'name': 'India'}","{'latitude': 19.10861, 'longitude': 72.83622}",19.10861,72.83622,1500,1500,Other,Other
6988,61.75,81.22,15.72,2.52,45.37,534.81,4,6988,"Sector-116, Noida - UPPCB",,"{'id': 9, 'code': 'IN', 'name': 'India'}","{'latitude': 28.56923, 'longitude': 77.393848}",28.56923,77.393848,1500,1500,Burning,Burning
7005,64.12,85.27,15.77,2.5,46.84,528.63,4,7005,"Loni, Ghaziabad - UPPCB",,"{'id': 9, 'code': 'IN', 'name': 'India'}","{'latitude': 28.757294, 'longitude': 77.278792}",28.757294,77.278792,1500,1500,Burning,Burning
7044,62.28,82.71,15.03,2.45,48.04,520.72,4,7044,"R K Puram, Delhi - DPCC",,"{'id': 9, 'code': 'IN', 'name': 'India'}","{'latitude': 28.563262000000005, 'longitude': 77.186937}",28.563262000000005,77.186937,1500,1500,Burning,Burning
7140,17.73,27.76,9.61,1.62,19.99,370.08,2,7140,"Gomti Nagar, Lucknow - UPPCB",,"{'id': 9, 'code': 'IN', 'name': 'India'}","{'latitude': 26.86812, 'longitude': 81.005119}",26.86812,81.005119,1500,1500,Other,Other
7153,2.19,4.61,0.62,0.13,25.36,131.1,1,7153,Rangoon,,"{'id': 127, 'code': 'MM', 'name': 'Myanmar'}","{'latitude': 16.8256, 'longitude': 96.1445}",16.8256,96.1445,1500,1500,Other,Other
7280,57.01,73.11,15.61,2.55,42.42,547.16,4,7280,"Shyam Nagar, Palwal - HSPCB",,"{'id': 9, 'code': 'IN', 'name': 'India'}","{'latitude': 28.1485564, 'longitude': 77.3320667}",28.1485564,77.3320667,1500,1500,Burning,Burning
7281,57.01,73.11,15.61,2.55,42.42,547.16,4,7281,"Shyam Nagar, Palwal - HSPCB",,"{'id': 9, 'code': 'IN', 'name': 'India'}","{'latitude': 28.1485564, 'longitude': 77.3320667}",28.1485564,77.3320667,1500,1500,Burning,Burning
7282,67.56,95.03,15.91,3.2,51.72,529.74,4,7282,"Sector-7, Kurukshetra - HSPCB",,"{'id': 9, 'code': 'IN', 'name': 'India'}","{'latitude': 29.966942, 'longitude': 76.875879}",29.966942,76.875879,1500,1500,Burning,Burning
7283,62.38,88.09,14.44,2.17,53.07,475.73,4,7283,"MD University, Rohtak - HSPCB",,"{'id': 9, 'code': 'IN', 'name': 'India'}","{'latitude': 28.87793, 'longitude': 76.620825}",28.87793,76.620825,1500,1500,Burning,Burning
7289,3.48,6.96,4.06,1.79,30.89,156.57,1,7289,"Hebbal 1st Stage, Mysuru - KSPCB",,"{'id': 9, 'code': 'IN', 'name': 'India'}","{'latitude': 12.21041, 'longitude': 76.37376}",12.21041,76.37376,1500,1500,Other,Other
7292,14.0,16.07,5.39,2.92,35.25,165.26,2,7292,"Chhoti Gwaltoli, Indore - MPPCB",,"{'id': 9, 'code': 'IN', 'name': 'India'}","{'latitude': 22.431, 'longitude': 75.5213}",22.431,75.5213,1500,1500,Other,Other
7299,15.06,17.36,2.39,0.81,44.2,313.54,2,7299,"Gole Bazar, Katni - MPPCB",,"{'id': 9, 'code': 'IN', 'name': 'India'}","{'latitude': 23.833778, 'longitude': 80.39122199999998}",23.833778,80.39122199999998,1500,1500,Other,Other
7434,64.12,85.27,15.77,2.5,46.84,528.63,4,7434,"East Arjun Nagar, Delhi - CPCB",,"{'id': 9, 'code': 'IN', 'name': 'India'}","{'latitude': 28.655601699999995, 'longitude': 77.2859318}",28.655601699999995,77.2859318,1500,1500,Burning,Burning
7494,14.68,16.16,16.12,3.67,0.47,388.85,2,7494,"SFTI Kusdihra, Gaya - BSPCB",,"{'id': 9, 'code': 'IN', 'name': 'India'}","{'latitude': 24.762518, 'longitude': 84.982348}",24.762518,84.982348,1500,1500,Other,Other
7495,13.59,16.33,14.43,3.41,10.23,345.79,2,7495,"DRM Office Danapur, Patna - BSPCB",,"{'id': 9, 'code': 'IN', 'name': 'India'}","{'latitude': 25.586562, 'longitude': 85.043586}",25.586562,85.043586,1500,1500,Other,Other
7583,2.05,4.27,7.87,2.26,20.38,158.83,1,7583,"ICRISAT Patancheru, Hyderabad - TSPCB",,"{'id': 9, 'code': 'IN', 'name': 'India'}","{'latitude': 17.305178, 'longitude': 78.162863}",17.305178,78.162863,1500,1500,Other,Other
7641,0.5,0.5,0.09,0.0,27.88,78.9,1,7641,昌都地区昌都坝,,"{'id': 10, 'code': 'CN', 'name': 'China'}","{'latitude': 31.125400000000003, 'longitude': 97.1809}",31.125400000000003,97.1809,1500,1500,Other,Other
7646,0.62,0.66,1.51,0.07,29.0,78.69,1,7646,那曲监测站,,"{'id': 10, 'code': 'CN', 'name': 'China'}","{'latitude': 31.4846, 'longitude': 92.0657}",31.4846,92.0657,1500,1500,Other,Other
7647,0.62,0.66,1.51,0.07,29.0,78.69,1,7647,那曲会议中心,,"{'id': 10, 'code': 'CN', 'name': 'China'}","{'latitude': 31.479700000000005, 'longitude': 92.05060000000002}",31.479700000000005,92.05060000000002,1500,1500,Other,Other
7672,0.5,0.58,0.25,0.09,47.4,100.05,1,7672,日喀则鸿达公司,,"{'id': 10, 'code': 'CN', 'name': 'China'}","{'latitude': 29.236500000000003, 'longitude': 88.8931}",29.236500000000003,88.8931,1500,1500,Other,Other
7720,68.54,94.26,19.93,4.05,51.25,626.55,4,7720,"Pallavpuram Phase 2, Meerut - UPPCB",,"{'id': 9, 'code': 'IN', 'name': 'India'}","{'latitude': 29.06351, 'longitude': 77.709723}",29.06351,77.709723,1500,1500,Burning,Burning
7752,1.12,3.32,0.22,0.38,38.77,82.05,1,7752,"Khadakpada, Kalyan - MPCB",,"{'id': 9, 'code': 'IN', 'name': 'India'}","{'latitude': 19.25292, 'longitude': 73.142019}",19.25292,73.142019,1500,1500,Other,Other
7777,1.23,2.68,6.74,0.9,20.29,141.3,1,7777,"Lal Bahadur Shastri Nagar, Kalaburagi - KSPCB",,"{'id': 9, 'code': 'IN', 'name': 'India'}","{'latitude': 17.321993, 'longitude': 76.822628}",17.321993,76.822628,1500,1500,Other,Other
7833,67.93,91.57,19.12,3.48,45.81,608.5,4,7833,"Ganga Nagar, Meerut - UPPCB",,"{'id': 9, 'code': 'IN', 'name': 'India'}","{'latitude': 28.999264, 'longitude': 77.7590354}",28.999264,77.7590354,1500,1500,Burning,Burning
7850,1.25,4.2,0.07,0.13,39.86,82.11,1,7850,"Bandra, Mumbai - MPCB",,"{'id': 9, 'code': 'IN', 'name': 'India'}","{'latitude': 19.0627, 'longitude': 72.84614}",19.0627,72.84614,1500,1500,Other,Other
7880,3.3,6.08,3.7,0.72,16.93,145.21,1,7880,"Sikulpuikawn, Aizawl - Mizoram PCB",,"{'id': 9, 'code': 'IN', 'name': 'India'}","{'latitude': 23.7176342, 'longitude': 92.7192841}",23.7176342,92.7192841,1500,1500,Other,Other
7901,0.5,0.71,0.35,0.12,34.65,77.6,1,7901,"Corporation Ground, Thrissur- Kerala PCB",,"{'id': 9, 'code': 'IN', 'name': 'India'}","{'latitude': 10.522198, 'longitude': 76.24085}",10.522198,76.24085,1500,1500,Other,Other
7979,9.48,11.03,2.05,1.08,66.18,349.59,2,7979,"Deen Dayal Nagar, Sagar - MPPCB",,"{'id': 9, 'code': 'IN', 'name': 'India'}","{'latitude': 23.8640158, 'longitude': 78.80289321}",23.8640158,78.80289321,1500,1500,Other,Other
8035,1.22,2.58,5.18,0.83,19.39,130.06,1,8035,"Ibrahimpur, Vijayapura - KSPCB",,"{'id': 9, 'code': 'IN', 'name': 'India'}","{'latitude': 16.802639, 'longitude': 75.722694}",16.802639,75.722694,1500,1500,Other,Other
8039,1.25,4.2,0.07,0.13,39.86,82.11,1,8039,Mumbai,,"{'id': 9, 'code': 'IN', 'name': 'India'}","{'latitude': 19.07283, 'longitude': 72.88261}",19.07283,72.88261,1500,1500,Other,Other
8088,50.73,92.56,5.14,1.49,85.62,408.67,4,8088,Peshawar,,"{'id': 109, 'code': 'PK', 'name': 'Pakistan'}","{'latitude': 34.005852, 'longitude': 71.53775}",34.005852,71.53775,1500,1500,Burning,Burning
8092,64.12,85.27,15.77,2.5,46.84,528.63,4,8092,"East Arjun Nagar, Delhi - CPCB",,"{'id': 9, 'code': 'IN', 'name': 'India'}","{'latitude': 28.655935, 'longitude': 77.294904}",28.655935,77.294904,1500,1500,Burning,Burning
8118,64.12,85.27,15.77,2.5,46.84,528.63,4,8118,New Delhi,,"{'id': 9, 'code': 'IN', 'name': 'India'}","{'latitude': 28.63576, 'longitude': 77.22445}",28.63576,77.22445,1500,1500,Burning,Burning
8153,4.39,8.57,5.32,1.56,25.14,176.91,1,8153,"Urban, Chamarajanagar - KSPCB",,"{'id': 9, 'code': 'IN', 'name': 'India'}","{'latitude': 11.55358, 'longitude': 76.55521}",11.55358,76.55521,1500,1500,Other,Other
8171,3.71,8.39,4.95,7.68,32.72,110.49,1,8171,"GIDC, Nandesari - Nandesari Ind. Association",,"{'id': 9, 'code': 'IN', 'name': 'India'}","{'latitude': 22.410802, 'longitude': 73.097923}",22.410802,73.097923,1500,1500,Other,Other
8172,9.02,10.56,0.66,0.41,70.8,153.33,2,8172,US Diplomatic Post: Kolkata,,"{'id': 9, 'code': 'IN', 'name': 'India'}","{'latitude': 22.56263, 'longitude': 88.36304}",22.56263,88.36304,1500,1500,Other,Other
8190,0.57,1.77,1.01,0.44,31.9,78.01,1,8190,"Kariavattom, Thiruvananthapuram - Kerala PCB",,"{'id': 9, 'code': 'IN', 'name': 'India'}","{'latitude': 8.5637, 'longitude': 76.8865}",8.5637,76.8865,1500,1500,Other,Other
8235,63.35,85.06,14.0,2.33,52.29,494.06,4,8235,"Jahangirpuri, Delhi - DPCC",,"{'id': 9, 'code': 'IN', 'name': 'India'}","{'latitude': 28.73282, 'longitude': 77.170633}",28.73282,77.170633,1500,1500,Burning,Burning
8239,61.75,81.22,15.72,2.52,45.37,534.81,4,8239,"Okhla Phase-2, Delhi - DPCC",,"{'id': 9, 'code': 'IN', 'name': 'India'}","{'latitude': 28.530785, 'longitude': 77.271255}",28.530785,77.271255,1500,1500,Burning,Burning
8245,13.1,15.61,3.31,0.85,36.07,343.08,2,8245,"Gole Bazar, Katni - MPPCB",,"{'id': 9, 'code': 'IN', 'name': 'India'}","{'latitude': 23.50016, 'longitude': 80.23284}",23.50016,80.23284,1500,1500,Other,Other
8319,67.32,88.89,18.31,2.91,40.36,590.41,4,8319,"Anand Vihar, Hapur - UPPCB",,"{'id': 9, 'code': 'IN', 'name': 'India'}","{'latitude': 28.725645, 'longitude': 77.749675}",28.725645,77.749675,1500,1500,Burning,Burning
8365,61.75,81.22,15.72,2.52,45.37,534.81,4,8365,"Nehru Nagar, Delhi - DPCC",,"{'id': 9, 'code': 'IN', 'name': 'India'}","{'latitude': 28.56789, 'longitude': 77.250515}",28.56789,77.250515,1500,1500,Burning,Burning
8415,7.14,11.85,1.81,0.68,38.48,140.28,1,8415,Dhaka,,"{'id': 128, 'code': 'BD', 'name': 'Bangladesh'}","{'latitude': 23.796374, 'longitude': 90.424614}",23.796374,90.424614,1500,1500,Other,Other
8472,63.35,85.06,14.0,2.33,52.29,494.06,4,8472,"Bawana, Delhi - DPCC",,"{'id': 9, 'code': 'IN', 'name': 'India'}","{'latitude': 28.7762, 'longitude': 77.051074}",28.7762,77.051074,1500,1500,Burning,Burning
8475,64.12,85.27,15.77,2.5,46.84,528.63,4,8475,"Sonia Vihar, Delhi - DPCC",,"{'id': 9, 'code': 'IN', 'name': 'India'}","{'latitude': 28.710508, 'longitude': 77.249485}",28.710508,77.249485,1500,1500,Burning,Burning
8556,9.43,18.9,1.81,0.55,88.62,190.93,2,8556,Kabul,,"{'id': 130, 'code': 'AF', 'name': 'Afghanistan'}","{'latitude': 34.554384, 'longitude': 69.204597}",34.554384,69.204597,1500,1500,Other,Other
8557,3.6,6.56,9.21,4.77,18.94,159.81,1,8557,Hyderabad,,"{'id': 9, 'code': 'IN', 'name': 'India'}","{'latitude': 17.38405, 'longitude': 78.45636}",17.38405,78.45636,1500,1500,Other,Other
8558,43.2,51.92,14.01,3.26,47.23,426.57,3,8558,Chennai,,"{'id': 9, 'code': 'IN', 'name': 'India'}","{'latitude': 13.08784, 'longitude': 80.278475}",13.08784,80.278475,1500,1500,Burning,Burning
8634,73.57,105.42,15.96,3.28,76.19,685.51,4,8634,US Diplomatic Post: Islamabad,,"{'id': 109, 'code': 'PK', 'name': 'Pakistan'}","{'latitude': 33.7235, 'longitude': 73.11822}",33.7235,73.11822,1500,1500,Burning,Burning
8664,69.85,94.66,8.34,2.06,52.63,560.67,4,8664,US Diplomatic Post: Lahore,,"{'id': 109, 'code': 'PK', 'name': 'Pakistan'}","{'latitude': 31.560078, 'longitude': 74.33589}",31.560078,74.33589,1500,1500,Burning,Burning
8895,0.6,0.62,0.13,0.02,38.95,83.31,1,8895,区辐射站,,"{'id': 10, 'code': 'CN', 'name': 'China'}","{'latitude': 29.658799999999996, 'longitude': 90.9798}",29.658799999999996,90.9798,1500,1500,Other,Other
8914,5.36,10.39,9.3,2.88,22.0,211.84,1,8914,"SIDCO Kurichi, Coimbatore - TNPCB",,"{'id': 9, 'code': 'IN', 'name': 'India'}","{'latitude': 10.942451, 'longitude': 76.978996}",10.942451,76.978996,1500,1500,Other,Other
8915,63.35,85.06,14.0,2.33,52.29,494.06,4,8915,"Wazirpur, Delhi - DPCC",,"{'id': 9, 'code': 'IN', 'name': 'India'}","{'latitude': 28.699793, 'longitude': 77.165453}",28.699793,77.165453,1500,1500,Burning,Burning
8916,0.5,0.89,0.29,0.09,34.93,77.65,1,8916,"Vyttila, Kochi - Kerala PCB",,"{'id': 9, 'code': 'IN', 'name': 'India'}","{'latitude': 9.969447, 'longitude': 76.321186}",9.969447,76.321186,1500,1500,Other,Other
8917,63.35,85.06,14.0,2.33,52.29,494.06,4,8917,"Ashok Vihar, Delhi - DPCC",,"{'id': 9, 'code': 'IN', 'name': 'India'}","{'latitude': 28.695381, 'longitude': 77.181665}",28.695381,77.181665,1500,1500,Burning,Burning
8933,0.5,0.58,0.25,0.09,47.4,100.05,1,8933,日喀则监测站,,"{'id': 10, 'code': 'CN', 'name': 'China'}","{'latitude': 29.271799999999995, 'longitude': 88.8876}",29.271799999999995,88.8876,1500,1500,Other,Other
8938,0.5,0.5,0.09,0.0,27.88,78.9,1,8938,昌都会议中心,,"{'id': 10, 'code': 'CN', 'name': 'China'}","{'latitude': 31.140600000000003, 'longitude': 97.1714}",31.140600000000003,97.1714,1500,1500,Other,Other
8939,0.5,0.5,0.09,0.0,27.88,78.9,1,8939,昌都监测站,,"{'id': 10, 'code': 'CN', 'name': 'China'}","{'latitude': 31.1273, 'longitude': 97.18060000000001}",31.1273,97.18060000000001,1500,1500,Other,Other
8971,0.5,0.58,0.25,0.09,47.4,100.05,1,8971,林业技术推广中心,,"{'id': 10, 'code': 'CN', 'name': 'China'}","{'latitude': 29.2426, 'longitude': 88.8781}",29.2426,88.8781,1500,1500,Other,Other
8975,1.55,1.65,0.51,0.04,12.46,122.29,1,8975,林芝人民医院,,"{'id': 10, 'code': 'CN', 'name': 'China'}","{'latitude': 29.661599999999996, 'longitude': 94.3616}",29.661599999999996,94.3616,1500,1500,Other,Other
8976,1.55,1.65,0.51,0.04,12.46,122.29,1,8976,林芝监测站,,"{'id': 10, 'code': 'CN', 'name': 'China'}","{'latitude': 29.637599999999996, 'longitude': 94.36810000000001}",29.637599999999996,94.36810000000001,1500,1500,Other,Other
9149,0.54,0.57,0.15,0.04,26.34,99.56,1,9149,玉树县结古镇,,"{'id': 10, 'code': 'CN', 'name': 'China'}","{'latitude': 33.0014, 'longitude': 97.0}",33.0014,97.0,1500,1500,Other,Other
9552,0.71,0.74,0.18,0.02,37.2,86.44,1,9552,西藏大学,,"{'id': 10, 'code': 'CN', 'name': 'China'}","{'latitude': 29.6541, 'longitude': 91.1774}",29.6541,91.1774,1500,1500,Other,Other
9708,6.0,7.06,0.25,0.33,73.64,71.79,2,9708,阿里藏医院,,"{'id': 10, 'code': 'CN', 'name': 'China'}","{'latitude': 32.5028, 'longitude': 80.0903}",32.5028,80.0903,1500,1500,Other,Other
9709,6.0,7.06,0.25,0.33,73.64,71.79,2,9709,阿里监测站,,"{'id': 10, 'code': 'CN', 'name': 'China'}","{'latitude': 32.5, 'longitude': 80.1161}",32.5,80.1161,1500,1500,Other,Other
9922,0.71,0.74,0.18,0.02,37.2,86.44,1,9922,八廓街,,"{'id': 10, 'code': 'CN', 'name': 'China'}","{'latitude': 29.6514, 'longitude': 91.13189999999999}",29.6514,91.13189999999999,1500,1500,Other,Other
9985,0.71,0.74,0.18,0.02,37.2,86.44,1,9985,区监测站,,"{'id': 10, 'code': 'CN', 'name': 'China'}","{'latitude': 29.647500000000004, 'longitude': 91.0874}",29.647500000000004,91.0874,1500,1500,Other,Other
10091,3.77,4.89,0.15,0.44,77.76,82.07,2,10091,地区环保局,,"{'id': 10, 'code': 'CN', 'name': 'China'}","{'latitude': 37.08769999999999, 'longitude': 79.92399999999999}",37.08769999999999,79.92399999999999,1500,1500,Other,Other
10202,0.82,0.9,0.31,0.02,29.59,109.97,1,10202,山南人民医院,,"{'id': 10, 'code': 'CN', 'name': 'China'}","{'latitude': 29.243600000000004, 'longitude': 91.7706}",29.243600000000004,91.7706,1500,1500,Other,Other
10203,0.82,0.9,0.31,0.02,29.59,109.97,1,10203,山南监测站,,"{'id': 10, 'code': 'CN', 'name': 'China'}","{'latitude': 29.2313, 'longitude': 91.7608}",29.2313,91.7608,1500,1500,Other,Other
10306,0.71,0.74,0.18,0.02,37.2,86.44,1,10306,市环保局,,"{'id': 10, 'code': 'CN', 'name': 'China'}","{'latitude': 29.6747, 'longitude': 91.1221}",29.6747,91.1221,1500,1500,Other,Other
10438,0.71,0.74,0.18,0.02,37.2,86.44,1,10438,拉萨火车站,,"{'id': 10, 'code': 'CN', 'name': 'China'}","{'latitude': 29.6292, 'longitude': 91.0834}",29.6292,91.0834,1500,1500,Other,Other
10482,9.47,19.09,1.7,0.59,88.9,171.14,2,10482,US Diplomatic Post: Kabul,,"{'id': 130, 'code': 'AF', 'name': 'Afghanistan'}","{'latitude': 34.535812, 'longitude': 69.190514}",34.535812,69.190514,1500,1500,Other,Other
10484,62.28,82.71,15.03,2.45,48.04,520.72,4,10484,"Sri Aurobindo Marg, Delhi - DPCC",,"{'id': 9, 'code': 'IN', 'name': 'India'}","{'latitude': 28.531346, 'longitude': 77.190156}",28.531346,77.190156,1500,1500,Burning,Burning
10485,64.82,88.89,16.28,2.55,50.42,520.52,4,10485,"Narela, Delhi - DPCC",,"{'id': 9, 'code': 'IN', 'name': 'India'}","{'latitude': 28.822836, 'longitude': 77.101981}",28.822836,77.101981,1500,1500,Burning,Burning
10486,63.35,85.06,14.0,2.33,52.29,494.06,4,10486,"Mundka, Delhi - DPCC",,"{'id': 9, 'code': 'IN', 'name': 'India'}","{'latitude': 28.684678, 'longitude': 77.076574}",28.684678,77.076574,1500,1500,Burning,Burning
10487,64.12,85.27,15.77,2.5,46.84,528.63,4,10487,"Anand Vihar, Delhi - DPCC",,"{'id': 9, 'code': 'IN', 'name': 'India'}","{'latitude': 28.646835, 'longitude': 77.316032}",28.646835,77.316032,1500,1500,Burning,Burning
10488,62.81,84.2,14.34,2.39,50.69,506.72,4,10488,"Najafgarh, Delhi - DPCC",,"{'id': 9, 'code': 'IN', 'name': 'India'}","{'latitude': 28.570173, 'longitude': 76.933762}",28.570173,76.933762,1500,1500,Burning,Burning
10489,64.12,85.27,15.77,2.5,46.84,528.63,4,10489,"ITO, Delhi - CPCB",,"{'id': 9, 'code': 'IN', 'name': 'India'}","{'latitude': 28.628624, 'longitude': 77.24106}",28.628624,77.24106,1500,1500,Burning,Burning
10537,1.23,2.41,2.76,0.34,19.02,106.43,1,10537,"Vidayagiri, Bagalkot - KSPCB",,"{'id': 9, 'code': 'IN', 'name': 'India'}","{'latitude': 16.172806, 'longitude': 75.659694}",16.172806,75.659694,1500,1500,Other,Other
10545,14.15,19.31,4.41,0.75,52.96,224.7,2,10545,"Civil Lines, Ajmer - RSPCB",,"{'id': 9, 'code': 'IN', 'name': 'India'}","{'latitude': 26.470859, 'longitude': 74.646594}",26.470859,74.646594,1500,1500,Other,Other
10599,13.59,16.33,14.43,3.41,10.23,345.79,2,10599,"Rajbansi Nagar, Patna - BSPCB",,"{'id': 9, 'code': 'IN', 'name': 'India'}","{'latitude': 25.599486, 'longitude': 85.113666}",25.599486,85.113666,1500,1500,Other,Other
10609,3.48,6.96,4.06,1.79,30.89,156.57,1,10609,"Hebbal 1st Stage, Mysuru - KSPCB",,"{'id': 9, 'code': 'IN', 'name': 'India'}","{'latitude': 12.210409999999998, 'longitude': 76.37376}",12.210409999999998,76.37376,1500,1500,Other,Other
10630,13.46,16.0,14.63,2.36,7.16,364.68,2,10630,"Govt. High School Shikarpur, Patna - BSPCB",,"{'id': 9, 'code': 'IN', 'name': 'India'}","{'latitude': 25.592539, 'longitude': 85.227158}",25.592539,85.227158,1500,1500,Other,Other
10633,9.02,10.56,0.66,0.41,70.8,153.33,2,10633,"Victoria, Kolkata - WBPCB",,"{'id': 9, 'code': 'IN', 'name': 'India'}","{'latitude': 22.5448082, 'longitude': 88.3403691}",22.5448082,88.3403691,1500,1500,Other,Other
10645,12.87,15.83,12.49,2.37,10.71,343.23,2,10645,"Industrial Area, Hajipur - BSPCB",,"{'id': 9, 'code': 'IN', 'name': 'India'}","{'latitude': 25.697189, 'longitude': 85.2459}",25.697189,85.2459,1500,1500,Other,Other
10670,12.33,15.45,10.97,2.77,15.01,321.41,2,10670,"Muradpur, Patna - BSPCB",,"{'id': 9, 'code': 'IN', 'name': 'India'}","{'latitude': 25.619651, 'longitude': 85.147382}",25.619651,85.147382,1500,1500,Other,Other
10695,65.3,92.45,13.07,3.49,58.72,460.12,4,10695,"Ratanpura, Rupnagar - Ambuja Cements",,"{'id': 9, 'code': 'IN', 'name': 'India'}","{'latitude': 30.032545399999997, 'longitude': 76.5623046}",30.032545399999997,76.5623046,1500,1500,Burning,Burning
10697,13.59,16.33,14.43,3.41,10.23,345.79,2,10697,"Samanpura, Patna - BSPCB",,"{'id': 9, 'code': 'IN', 'name': 'India'}","{'latitude': 25.596727, 'longitude': 85.085624}",25.596727,85.085624,1500,1500,Other,Other
10725,59.48,84.48,16.74,2.45,45.4,522.5,4,10725,"Mini Secretariat, Charkhi Dadri - HSPCB",,"{'id': 9, 'code': 'IN', 'name': 'India'}","{'latitude': 28.593883, 'longitude': 76.270653}",28.593883,76.270653,1500,1500,Burning,Burning
10747,0.51,1.16,0.23,0.1,37.33,80.71,1,10747,"Thavakkara, Kannur - Kerala PCB",,"{'id': 9, 'code': 'IN', 'name': 'India'}","{'latitude': 11.875, 'longitude': 75.3732}",11.875,75.3732,1500,1500,Other,Other
10780,43.2,51.92,14.01,3.26,47.23,426.57,3,10780,"Manali Village, Chennai - TNPCB",,"{'id': 9, 'code': 'IN', 'name': 'India'}","{'latitude': 13.1662, 'longitude': 80.2584}",13.1662,80.2584,1500,1500,Burning,Burning
10820,61.75,81.22,15.72,2.52,45.37,534.81,4,10820,"Sector 30, Faridabad - HSPCB",,"{'id': 9, 'code': 'IN', 'name': 'India'}","{'latitude': 28.4417, 'longitude': 77.3217}",28.4417,77.3217,1500,1500,Burning,Burning
10823,11.28,14.46,9.77,2.65,17.72,335.27,2,10823,"Buddha Colony, Muzaffarpur - BSPCB",,"{'id': 9, 'code': 'IN', 'name': 'India'}","{'latitude': 26.11442, 'longitude': 85.39813}",26.11442,85.39813,1500,1500,Other,Other
10825,62.28,82.71,15.03,2.45,48.04,520.72,4,10825,"Sector-51, Gurugram - HSPCB",,"{'id': 9, 'code': 'IN', 'name': 'India'}","{'latitude': 28.4227, 'longitude': 77.0667}",28.4227,77.0667,1500,1500,Burning,Burning
10831,63.35,85.06,14.0,2.33,52.29,494.06,4,10831,"Rohini, Delhi - DPCC",,"{'id': 9, 'code': 'IN', 'name': 'India'}","{'latitude': 28.732528, 'longitude': 77.11992}",28.732528,77.11992,1500,1500,Burning,Burning
10844,9.0,10.12,0.8,0.53,70.08,158.29,2,10844,"Ghusuri, Howrah - WBPCB",,"{'id': 9, 'code': 'IN', 'name': 'India'}","{'latitude': 22.611968, 'longitude': 88.347422}",22.611968,88.347422,1500,1500,Other,Other
10851,8.52,10.36,0.57,0.34,69.3,145.29,2,10851,"Bidhannagar, Kolkata - WBPCB",,"{'id': 9, 'code': 'IN', 'name': 'India'}","{'latitude': 22.58157048, 'longitude': 88.41002457}",22.58157048,88.41002457,1500,1500,Other,Other
10895,7.63,11.6,7.39,1.19,24.28,211.83,1,10895,"Lumpyngngad, Shillong - Meghalaya PCB",,"{'id': 9, 'code': 'IN', 'name': 'India'}","{'latitude': 25.5586, 'longitude': 91.8985}",25.5586,91.8985,1500,1500,Other,Other
10896,14.0,16.07,5.39,2.92,35.25,165.26,2,10896,"Chhoti Gwaltoli, Indore - MPPCB",,"{'id': 9, 'code': 'IN', 'name': 'India'}","{'latitude': 22.431, 'longitude': 75.5213}",22.431,75.5213,1500,1500,Other,Other
10897,3.12,6.17,8.99,2.85,17.43,171.1,1,10897,"ICRISAT Patancheru, Hyderabad - TSPCB",,"{'id': 9, 'code': 'IN', 'name': 'India'}","{'latitude': 17.5184, 'longitude': 78.278777}",17.5184,78.278777,1500,1500,Other,Other
10898,0.5,1.07,0.42,0.19,36.72,79.61,1,10898,"Palayam, Kozhikode - Kerala PCB",,"{'id': 9, 'code': 'IN', 'name': 'India'}","{'latitude': 11.249077, 'longitude': 75.78437099999998}",11.249077,75.78437099999998,1500,1500,Other,Other
10900,62.28,82.71,15.03,2.45,48.04,520.72,4,10900,"Teri Gram, Gurugram - HSPCB",,"{'id': 9, 'code': 'IN', 'name': 'India'}","{'latitude': 28.4275, 'longitude': 77.1465}",28.4275,77.1465,1500,1500,Burning,Burning
10901,4.76,6.4,2.47,0.49,4.8,162.63,1,10901,"PWD Juction, Kohima - NPCB",,"{'id': 9, 'code': 'IN', 'name': 'India'}","{'latitude': 25.6635413, 'longitude': 94.0989878}",25.6635413,94.0989878,1500,1500,Other,Other
10902,2.19,4.74,4.34,0.74,25.95,138.65,1,10902,"Kalyana Nagara, Chikkamagaluru - KSPCB",,"{'id': 9, 'code': 'IN', 'name': 'India'}","{'latitude': 13.328028, 'longitude': 75.797056}",13.328028,75.797056,1500,1500,Other,Other
10903,8.76,10.63,7.91,1.6,28.35,196.78,1,10903,"Railway Colony, Guwahati - APCB",,"{'id': 9, 'code': 'IN', 'name': 'India'}","{'latitude': 26.181742, 'longitude': 91.78063}",26.181742,91.78063,1500,1500,Other,Other
10904,9.02,10.56,0.66,0.41,70.8,153.33,2,10904,"Rabindra Sarobar, Kolkata - WBPCB",,"{'id': 9, 'code': 'IN', 'name': 'India'}","{'latitude': 22.51106, 'longitude': 88.35142}",22.51106,88.35142,1500,1500,Other,Other
10905,64.76,95.18,14.02,3.27,61.65,463.14,4,10905,"Rishi Nagar, Kaithal - HSPCB",,"{'id': 9, 'code': 'IN', 'name': 'India'}","{'latitude': 29.8006, 'longitude': 76.4155}",29.8006,76.4155,1500,1500,Burning,Burning
10906,66.28,92.73,18.57,2.78,48.55,547.05,4,10906,"Murthal, Sonipat - HSPCB",,"{'id': 9, 'code': 'IN', 'name': 'India'}","{'latitude': 29.027199999999997, 'longitude': 77.0621}",29.027199999999997,77.0621,1500,1500,Burning,Burning
10907,15.55,19.42,4.64,1.38,41.72,314.9,2,10907,"City Center, Gwalior - MPPCB",,"{'id': 9, 'code': 'IN', 'name': 'India'}","{'latitude': 26.203442, 'longitude': 78.193251}",26.203442,78.193251,1500,1500,Other,Other
10908,59.38,77.16,15.67,2.53,43.9,540.99,4,10908,"Sector 11, Faridabad - HSPCB",,"{'id': 9, 'code': 'IN', 'name': 'India'}","{'latitude': 28.376058, 'longitude': 77.315741}",28.376058,77.315741,1500,1500,Burning,Burning
10909,16.68,25.88,20.2,5.42,15.38,378.79,2,10909,"Vijay Nagar, Ramanagara - KSPCB",,"{'id': 9, 'code': 'IN', 'name': 'India'}","{'latitude': 12.733409, 'longitude': 77.298051}",12.733409,77.298051,1500,1500,Other,Other
10910,69.01,97.64,18.55,3.87,49.91,583.31,4,10910,"Sector-12, Karnal - HSPCB",,"{'id': 9, 'code': 'IN', 'name': 'India'}","{'latitude': 29.6953, 'longitude': 77.0027}",29.6953,77.0027,1500,1500,Burning,Burning
10911,14.11,16.21,2.16,1.48,48.91,377.46,2,10911,"Marhatal, Jabalpur - MPPCB",,"{'id': 9, 'code': 'IN', 'name': 'India'}","{'latitude': 23.168606, 'longitude': 79.932247}",23.168606,79.932247,1500,1500,Other,Other
10912,15.55,19.42,4.64,1.38,41.72,314.9,2,10912,"Phool Bagh, Gwalior - Mondelez Ind. Food",,"{'id': 9, 'code': 'IN', 'name': 'India'}","{'latitude': 26.210536, 'longitude': 78.171}",26.210536,78.171,1500,1500,Other,Other
10913,6.22,7.75,3.29,0.84,41.7,178.78,1,10913,"T T Nagar, Bhopal - MPPCB",,"{'id': 9, 'code': 'IN', 'name': 'India'}","{'latitude': 23.233584, 'longitude': 77.400574}",23.233584,77.400574,1500,1500,Other,Other
10914,71.77,92.94,8.98,4.06,61.71,473.33,4,10914,"Sector-25, Chandigarh - CPCC",,"{'id': 9, 'code': 'IN', 'name': 'India'}","{'latitude': 30.751462, 'longitude': 76.762879}",30.751462,76.762879,1500,1500,Burning,Burning
10915,0.77,2.38,0.94,0.42,33.52,78.22,1,10915,"Polayathode, Kollam - Kerala PCB",,"{'id': 9, 'code': 'IN', 'name': 'India'}","{'latitude': 8.8787, 'longitude': 76.6073}",8.8787,76.6073,1500,1500,Other,Other
10916,0.5,0.89,0.29,0.09,34.93,77.65,1,10916,"Kacheripady, Ernakulam - Kerala PCB",,"{'id': 9, 'code': 'IN', 'name': 'India'}","{'latitude': 9.985653, 'longitude': 76.281342}",9.985653,76.281342,1500,1500,Other,Other
10917,20.93,26.25,5.63,1.88,27.5,330.31,2,10917,"Sahilara, Maihar - KJS Cements",,"{'id': 9, 'code': 'IN', 'name': 'India'}","{'latitude': 24.2613009, 'longitude': 80.7231783}",24.2613009,80.7231783,1500,1500,Other,Other
10918,9.02,10.56,0.66,0.41,70.8,153.33,2,10918,"Ballygunge, Kolkata - WBPCB",,"{'id': 9, 'code': 'IN', 'name': 'India'}","{'latitude': 22.5367507, 'longitude': 88.3638022}",22.5367507,88.3638022,1500,1500,Other,Other
10919,64.9,85.49,17.56,2.68,41.34,563.47,4,10919,"Sanjay Nagar, Ghaziabad - UPPCB",,"{'id': 9, 'code': 'IN', 'name': 'India'}","{'latitude': 28.685382, 'longitude': 77.453839}",28.685382,77.453839,1500,1500,Burning,Burning
10920,59.38,77.16,15.67,2.53,43.9,540.99,4,10920,"New Industrial Town, Faridabad - HSPCB",,"{'id': 9, 'code': 'IN', 'name': 'India'}","{'latitude': 28.39072, 'longitude': 77.30059}",28.39072,77.30059,1500,1500,Burning,Burning
10921,62.28,82.71,15.03,2.45,48.04,520.72,4,10921,"NISE Gwal Pahari, Gurugram - IMD",,"{'id': 9, 'code': 'IN', 'name': 'India'}","{'latitude': 28.422681, 'longitude': 77.148944}",28.422681,77.148944,1500,1500,Burning,Burning
11577,3.08,7.09,5.66,0.89,20.24,167.27,1,11577,"Vinoba Nagara, Shivamogga - KSPCB",,"{'id': 9, 'code': 'IN', 'name': 'India'}","{'latitude': 13.94, 'longitude': 75.555917}",13.94,75.555917,1500,1500,Other,Other
11578,43.2,51.92,14.01,3.26,47.23,426.57,3,11578,"Royapuram, Chennai - TNPCB",,"{'id': 9, 'code': 'IN', 'name': 'India'}","{'latitude': 13.1036, 'longitude': 80.2909}",13.1036,80.2909,1500,1500,Burning,Burning
11579,43.2,51.92,14.01,3.26,47.23,426.57,3,11579,"Kodungaiyur, Chennai - TNPCB",,"{'id': 9, 'code': 'IN', 'name': 'India'}","{'latitude': 13.1278, 'longitude': 80.2642}",13.1278,80.2642,1500,1500,Burning,Burning
11580,1.79,5.19,2.24,1.07,30.65,108.31,1,11580,"Meelavittan, Thoothukudi - TNPCB",,"{'id': 9, 'code': 'IN', 'name': 'India'}","{'latitude': 8.816428, 'longitude': 78.099039}",8.816428,78.099039,1500,1500,Other,Other
11581,43.2,51.92,14.01,3.26,47.23,426.57,3,11581,"Arumbakkam, Chennai - TNPCB",,"{'id': 9, 'code': 'IN', 'name': 'India'}","{'latitude': 13.0664, 'longitude': 80.2112}",13.0664,80.2112,1500,1500,Burning,Burning
11582,0.65,1.78,0.25,0.17,35.29,78.13,1,11582,"Stuart Hill, Madikeri - KSPCB",,"{'id': 9, 'code': 'IN', 'name': 'India'}","{'latitude': 12.415911, 'longitude': 75.73505}",12.415911,75.73505,1500,1500,Other,Other
11583,4.11,8.45,1.43,0.58,36.06,138.31,1,11583,"Kunjaban, Agartala - Tripura SPCB",,"{'id': 9, 'code': 'IN', 'name': 'India'}","{'latitude': 23.8628276, 'longitude': 91.2887362}",23.8628276,91.2887362,1500,1500,Other,Other
11602,1.25,4.2,0.07,0.13,39.86,82.11,1,11602,"Bandra Kurla Complex, Mumbai - IITM",,"{'id': 9, 'code': 'IN', 'name': 'India'}","{'latitude': 19.053536000000005, 'longitude': 72.84643}",19.053536000000005,72.84643,1500,1500,Other,Other
11603,64.12,85.27,15.77,2.5,46.84,528.63,4,11603,"Chandni Chowk, Delhi - IITM",,"{'id': 9, 'code': 'IN', 'name': 'India'}","{'latitude': 28.656756, 'longitude': 77.227234}",28.656756,77.227234,1500,1500,Burning,Burning
11604,1.25,4.2,0.07,0.13,39.86,82.11,1,11604,"Deonar, Mumbai - IITM",,"{'id': 9, 'code': 'IN', 'name': 'India'}","{'latitude': 19.04946, 'longitude': 72.923}",19.04946,72.923,1500,1500,Other,Other
11606,1.25,4.19,0.14,0.26,39.92,82.4,1,11606,"Borivali East, Mumbai - IITM",,"{'id': 9, 'code': 'IN', 'name': 'India'}","{'latitude': 19.23241, 'longitude': 72.86895}",19.23241,72.86895,1500,1500,Other,Other
11607,61.75,81.22,15.72,2.52,45.37,534.81,4,11607,"Lodhi Road, Delhi - IITM",,"{'id': 9, 'code': 'IN', 'name': 'India'}","{'latitude': 28.588333, 'longitude': 77.221667}",28.588333,77.221667,1500,1500,Burning,Burning
11608,1.64,3.09,1.47,0.4,26.98,102.68,1,11608,"Bhosari, Pune - IITM",,"{'id': 9, 'code': 'IN', 'name': 'India'}","{'latitude': 18.640051, 'longitude': 73.848956}",18.640051,73.848956,1500,1500,Other,Other
11609,1.26,2.16,0.83,0.22,35.48,87.81,1,11609,"Mhada Colony, Pune - IITM",,"{'id': 9, 'code': 'IN', 'name': 'India'}","{'latitude': 18.57304, 'longitude': 73.927715}",18.57304,73.927715,1500,1500,Other,Other
11610,1.57,3.38,1.02,0.32,29.85,95.27,1,11610,"Transport Nagar-Nigdi, Pune - IITM",,"{'id': 9, 'code': 'IN', 'name': 'India'}","{'latitude': 18.664282, 'longitude': 73.763966}",18.664282,73.763966,1500,1500,Other,Other
11611,1.25,4.2,0.07,0.13,39.86,82.11,1,11611,"Malad West, Mumbai - IITM",,"{'id': 9, 'code': 'IN', 'name': 'India'}","{'latitude': 19.19709, 'longitude': 72.82204}",19.19709,72.82204,1500,1500,Other,Other
11612,1.07,3.22,0.07,0.1,38.65,81.3,1,11612,"Sector-19A Nerul, Navi Mumbai - IITM",,"{'id': 9, 'code': 'IN', 'name': 'India'}","{'latitude': 19.044, 'longitude': 73.03250000000001}",19.044,73.03250000000001,1500,1500,Other,Other
11613,1.26,2.16,0.83,0.22,35.48,87.81,1,11613,"Revenue Colony-Shivajinagar, Pune - IITM",,"{'id': 9, 'code': 'IN', 'name': 'India'}","{'latitude': 18.530085, 'longitude': 73.849598}",18.530085,73.849598,1500,1500,Other,Other
12024,1.25,4.2,0.07,0.13,39.86,82.11,1,12024,"Chakala-Andheri East, Mumbai - IITM",,"{'id': 9, 'code': 'IN', 'name': 'India'}","{'latitude': 19.11074, 'longitude': 72.86084}",19.11074,72.86084,1500,1500,Other,Other
12039,1.25,4.2,0.07,0.13,39.86,82.11,1,12039,"Khindipada-Bhandup West, Mumbai - IITM",,"{'id': 9, 'code': 'IN', 'name': 'India'}","{'latitude': 19.164394, 'longitude': 72.928297}",19.164394,72.928297,1500,1500,Other,Other
12040,1.25,4.2,0.07,0.13,39.86,82.11,1,12040,"Mulund West, Mumbai - MPCB",,"{'id': 9, 'code': 'IN', 'name': 'India'}","{'latitude': 19.175, 'longitude': 72.9419}",19.175,72.9419,1500,1500,Other,Other
12041,1.24,2.61,3.77,0.46,21.74,118.26,1,12041,"Diwator Nagar, Koppal - KSPCB",,"{'id': 9, 'code': 'IN', 'name': 'India'}","{'latitude': 15.34763, 'longitude': 76.181767}",15.34763,76.181767,1500,1500,Other,Other
12042,1.64,3.09,1.47,0.4,26.98,102.68,1,12042,"Alandi, Pune - IITM",,"{'id': 9, 'code': 'IN', 'name': 'India'}","{'latitude': 18.675076, 'longitude': 73.892743}",18.675076,73.892743,1500,1500,Other,Other
12043,1.47,3.17,7.3,2.53,20.57,141.9,1,12043,"Haji Colony, Raichur - KSPCB",,"{'id': 9, 'code': 'IN', 'name': 'India'}","{'latitude': 16.208139, 'longitude': 77.348417}",16.208139,77.348417,1500,1500,Other,Other
12044,1.25,4.19,0.14,0.26,39.92,82.4,1,12044,"Kandivali East, Mumbai - MPCB",,"{'id': 9, 'code': 'IN', 'name': 'India'}","{'latitude': 19.2058, 'longitude': 72.8682}",19.2058,72.8682,1500,1500,Other,Other
12045,15.68,22.5,6.29,1.31,27.61,308.03,2,12045,"IITK, Kanpur - IITK",,"{'id': 9, 'code': 'IN', 'name': 'India'}","{'latitude': 26.511738999999995, 'longitude': 80.235136}",26.511738999999995,80.235136,1500,1500,Other,Other
12046,44.64,52.56,13.22,3.98,53.59,393.89,3,12046,"Perungudi, Chennai - TNPCB",,"{'id': 9, 'code': 'IN', 'name': 'India'}","{'latitude': 12.9533, 'longitude': 80.2357}",12.9533,80.2357,1500,1500,Burning,Burning
42240,8.76,10.63,7.91,1.6,28.35,196.78,1,42240,"Pan Bazaar, Guwahati - APCB",,"{'id': 9, 'code': 'IN', 'name': 'India'}","{'latitude': 26.1875, 'longitude': 91.744194}",26.1875,91.744194,1500,1500,Other,Other
44513,0.84,2.92,0.14,0.11,38.62,82.57,1,44513,"Kadri, Mangalore - KSPCB",,"{'id': 9, 'code': 'IN', 'name': 'India'}","{'latitude': 12.88925, 'longitude': 74.853}",12.88925,74.853,1500,1500,Other,Other
44514,1.67,3.46,7.06,1.57,18.13,146.03,1,44514,"Naubad, Bidar - KSPCB",,"{'id': 9, 'code': 'IN', 'name': 'India'}","{'latitude': 17.930306, 'longitude': 77.482194}",17.930306,77.482194,1500,1500,Other,Other
44515,0.96,1.88,2.29,0.2,24.41,104.36,1,44515,"Panchal Nagar, Gadag - KSPCB",,"{'id': 9, 'code': 'IN', 'name': 'India'}","{'latitude': 15.411456, 'longitude': 75.638133}",15.411456,75.638133,1500,1500,Other,Other
45008,31.59,43.16,20.09,2.77,16.04,498.54,3,45008,"Anthoni Pillai Nagar, Gummidipoondi - TNPCB",,"{'id': 9, 'code': 'IN', 'name': 'India'}","{'latitude': 13.4127, 'longitude': 80.1081}",13.4127,80.1081,1500,1500,Other,Other
60656,5.37,8.97,9.44,0.86,8.72,219.07,1,60656,"Tamaka Ind. Area, Kolar - KSPCB",,"{'id': 9, 'code': 'IN', 'name': 'India'}","{'latitude': 13.1276288, 'longitude': 78.1570122}",13.1276288,78.1570122,1500,1500,Other,Other
60657,2.71,5.09,5.75,0.8,12.46,164.75,1,60657,"Devaraj Urs Badavane, Davanagere - KSPCB",,"{'id': 9, 'code': 'IN', 'name': 'India'}","{'latitude': 14.4758, 'longitude': 75.9052}",14.4758,75.9052,1500,1500,Other,Other
60658,1.26,2.16,0.83,0.22,35.48,87.81,1,60658,"Hadapsar, Pune - IITM",,"{'id': 9, 'code': 'IN', 'name': 'India'}","{'latitude': 18.501793, 'longitude': 73.927532}",18.501793,73.927532,1500,1500,Other,Other
60659,31.59,39.94,17.83,2.69,19.73,452.54,3,60659,"Jawahar Nagar, Puducherry - PPCC",,"{'id': 9, 'code': 'IN', 'name': 'India'}","{'latitude': 11.9309, 'longitude': 79.8027}",11.9309,79.8027,1500,1500,Other,Other
60660,1.26,2.16,0.83,0.22,35.48,87.81,1,60660,"MIT-Kothrud, Pune - IITM",,"{'id': 9, 'code': 'IN', 'name': 'India'}","{'latitude': 18.517754, 'longitude': 73.8214883}",18.517754,73.8214883,1500,1500,Other,Other
60661,1.25,4.2,0.07,0.13,39.86,82.11,1,60661,"Siddharth Nagar-Worli, Mumbai - IITM",,"{'id': 9, 'code': 'IN', 'name': 'India'}","{'latitude': 19.000083, 'longitude': 72.813993}",19.000083,72.813993,1500,1500,Other,Other
220265,39.16,64.51,12.59,1.96,62.84,444.61,3,220265,"Rajbagh, Srinagar - JKSPCB",,"{'id': 9, 'code': 'IN', 'name': 'India'}","{'latitude': 34.06621, 'longitude': 74.81982}",34.06621,74.81982,1500,1500,Burning,Burning
220353,0.93,3.53,0.12,0.11,38.82,83.11,1,220353,"Brahmagiri, Udupi - KSPCB",,"{'id': 9, 'code': 'IN', 'name': 'India'}","{'latitude': 13.34194, 'longitude': 74.74694}",13.34194,74.74694,1500,1500,Other,Other
223145,7.36,11.81,8.91,2.5,14.15,248.58,1,223145,"B.Katihalli, Hassan - KSPCB",,"{'id': 9, 'code': 'IN', 'name': 'India'}","{'latitude': 13.008556, 'longitude': 76.12525800000002}",13.008556,76.12525800000002,1500,1500,Other,Other
223146,8.43,11.67,3.71,0.81,11.47,223.29,1,223146,"Naharlagun, Naharlagun - APSPCB",,"{'id': 9, 'code': 'IN', 'name': 'India'}","{'latitude': 27.103358, 'longitude': 93.679645}",27.103358,93.679645,1500,1500,Other,Other
227384,12.51,16.15,6.79,1.49,22.13,315.7,2,227384,"Jhunsi, Prayagraj - UPPCB",,"{'id': 9, 'code': 'IN', 'name': 'India'}","{'latitude': 25.425602, 'longitude': 81.917152}",25.425602,81.917152,1500,1500,Other,Other
227386,17.43,25.47,8.3,1.34,22.51,340.59,2,227386,"B R Ambedkar University, Lucknow - UPPCB",,"{'id': 9, 'code': 'IN', 'name': 'India'}","{'latitude': 26.766433, 'longitude': 80.927299}",26.766433,80.927299,1500,1500,Other,Other
227387,12.51,16.15,6.79,1.49,22.13,315.7,2,227387,"Motilal Nehru NIT, Prayagraj - UPPCB",,"{'id': 9, 'code': 'IN', 'name': 'India'}","{'latitude': 25.494, 'longitude': 81.863}",25.494,81.863,1500,1500,Other,Other
227533,2.8,7.78,4.03,1.4,32.59,123.21,1,227533,"Rakhial, Ahmedabad - IITM",,"{'id': 9, 'code': 'IN', 'name': 'India'}","{'latitude': 23.016834, 'longitude': 72.625775}",23.016834,72.625775,1500,1500,Other,Other
227534,2.9,7.23,3.34,1.37,30.32,118.19,1,227534,"Gyaspur, Ahmedabad - IITM",,"{'id': 9, 'code': 'IN', 'name': 'India'}","{'latitude': 22.977134, 'longitude': 72.553024}",22.977134,72.553024,1500,1500,Other,Other
227535,33.28,39.63,6.93,1.02,51.29,413.48,3,227535,"Manoharpur, Agra - UPPCB",,"{'id': 9, 'code': 'IN', 'name': 'India'}","{'latitude': 27.23711, 'longitude': 78.01936}",27.23711,78.01936,1500,1500,Other,Other
227536,3.0,7.57,3.95,1.36,30.74,125.66,1,227536,"Chandkheda, Ahmedabad - IITM",,"{'id': 9, 'code': 'IN', 'name': 'India'}","{'latitude': 23.107969, 'longitude': 72.574648}",23.107969,72.574648,1500,1500,Other,Other
227931,30.35,36.33,6.13,1.01,57.17,396.1,3,227931,"Sector-3B Avas Vikas Colony, Agra - UPPCB",,"{'id': 9, 'code': 'IN', 'name': 'India'}","{'latitude': 27.19412, 'longitude': 77.96237}",27.19412,77.96237,1500,1500,Other,Other
228297,2.8,7.78,4.03,1.4,32.59,123.21,1,228297,"SVPI Airport Hansol, Ahmedabad - IITM",,"{'id': 9, 'code': 'IN', 'name': 'India'}","{'latitude': 23.076793, 'longitude': 72.627874}",23.076793,72.627874,1500,1500,Other,Other
228298,3.0,7.57,3.95,1.36,30.74,125.66,1,228298,"Sardar Vallabhbhai Patel Stadium, Ahmedabad - IITM",,"{'id': 9, 'code': 'IN', 'name': 'India'}","{'latitude': 23.04307, 'longitude': 72.562968}",23.04307,72.562968,1500,1500,Other,Other
228299,2.8,7.78,4.03,1.4,32.59,123.21,1,228299,"GIFT City, Gandhinagar - IITM",,"{'id': 9, 'code': 'IN', 'name': 'India'}","{'latitude': 23.163798, 'longitude': 72.677768}",23.163798,72.677768,1500,1500,Other,Other
228300,3.0,7.57,3.95,1.36,30.74,125.66,1,228300,"SAC ISRO Satellite, Ahmedabad - IITM",,"{'id': 9, 'code': 'IN', 'name': 'India'}","{'latitude': 23.023389, 'longitude': 72.515201}",23.023389,72.515201,1500,1500,Other,Other
228301,2.91,8.27,4.86,1.44,33.13,130.68,1,228301,"IIPHG Lekawada, Gandhinagar - IITM",,"{'id': 9, 'code': 'IN', 'name': 'India'}","{'latitude': 23.243639, 'longitude': 72.68994}",23.243639,72.68994,1500,1500,Other,Other
228303,3.0,7.57,3.95,1.36,30.74,125.66,1,228303,"SAC ISRO Bopal, Ahmedabad - IITM",,"{'id': 9, 'code': 'IN', 'name': 'India'}","{'latitude': 23.041137, 'longitude': 72.456691}",23.041137,72.456691,1500,1500,Other,Other
228352,30.35,36.33,6.13,1.01,57.17,396.1,3,228352,"Shastripuram, Agra - UPPCB",,"{'id': 9, 'code': 'IN', 'name': 'India'}","{'latitude': 27.19862, 'longitude': 77.92066}",27.19862,77.92066,1500,1500,Other,Other
228397,15.46,19.18,6.32,0.93,13.99,351.98,2,228397,"IESD Banaras Hindu University, Varanasi - UPPCB",,"{'id': 9, 'code': 'IN', 'name': 'India'}","{'latitude': 25.262326, 'longitude': 82.995408}",25.262326,82.995408,1500,1500,Other,Other
228403,15.46,19.18,6.32,0.93,13.99,351.98,2,228403,"Bhelupur, Varanasi - UPPCB",,"{'id': 9, 'code': 'IN', 'name': 'India'}","{'latitude': 25.301778, 'longitude': 82.996789}",25.301778,82.996789,1500,1500,Other,Other
228840,16.5,24.29,9.37,4.16,30.32,426.5,2,228840,"Madan Mohan Malaviya University of Technology, Gorakhpur - UPPCB",,"{'id': 9, 'code': 'IN', 'name': 'India'}","{'latitude': 26.730136, 'longitude': 83.433859}",26.730136,83.433859,1500,1500,Other,Other
229195,15.46,19.18,6.32,0.93,13.99,351.98,2,229195,"Maldahiya, Varanasi - UPPCB",,"{'id': 9, 'code': 'IN', 'name': 'India'}","{'latitude': 25.32393, 'longitude': 82.99687}",25.32393,82.99687,1500,1500,Other,Other
229252,15.68,22.5,6.29,1.31,27.61,308.03,2,229252,"NSI Kalyanpur, Kanpur - UPPCB",,"{'id': 9, 'code': 'IN', 'name': 'India'}","{'latitude': 26.509954, 'longitude': 80.249612}",26.509954,80.249612,1500,1500,Other,Other
229404,17.34,26.82,9.45,1.51,21.35,356.85,2,229404,"Kukrail Picnic Spot-1, Lucknow - UPPCB",,"{'id': 9, 'code': 'IN', 'name': 'India'}","{'latitude': 26.90723, 'longitude': 80.98579}",26.90723,80.98579,1500,1500,Other,Other
229473,5.77,9.58,8.59,1.42,14.39,206.34,1,229473,blore_India_07_14_official,,"{'id': 9, 'code': 'IN', 'name': 'India'}","{'latitude': 13.003347077, 'longitude': 77.628012188}",13.003347077,77.628012188,1500,1500,Other,Other
229728,11.25,16.43,10.83,3.9,17.89,401.12,2,229728,"Kamalnath Nagar, Bettiah - BSPCB",,"{'id': 9, 'code': 'IN', 'name': 'India'}","{'latitude': 26.80365, 'longitude': 84.51954}",26.80365,84.51954,1500,1500,Other,Other
229729,25.33,31.06,5.56,1.01,46.3,357.19,3,229729,"Nagla Bhau, Firozabad - UPPCB",,"{'id': 9, 'code': 'IN', 'name': 'India'}","{'latitude': 27.168897, 'longitude': 78.37696}",27.168897,78.37696,1500,1500,Other,Other
229730,14.7,18.9,18.02,3.9,0.25,451.79,2,229730,"Town Hall - Lal Bagh, Darbhanga - BSPCB",,"{'id': 9, 'code': 'IN', 'name': 'India'}","{'latitude': 26.151459999999997, 'longitude': 85.89342}",26.151459999999997,85.89342,1500,1500,Other,Other
229731,10.68,14.24,10.48,3.62,17.92,375.44,2,229731,"Gandak Colony, Motihari - BSPCB",,"{'id': 9, 'code': 'IN', 'name': 'India'}","{'latitude': 26.63086, 'longitude': 84.90051}",26.63086,84.90051,1500,1500,Other,Other
229985,14.22,16.36,17.31,2.61,2.43,401.96,2,229985,"D M Colony, Bihar Sharif - BSPCB",,"{'id': 9, 'code': 'IN', 'name': 'India'}","{'latitude': 25.204762, 'longitude': 85.51496}",25.204762,85.51496,1500,1500,Other,Other
229987,11.28,14.46,9.77,2.65,17.72,335.27,2,229987,"MIT-Daudpur Kothi, Muzaffarpur - BSPCB",,"{'id': 9, 'code': 'IN', 'name': 'India'}","{'latitude': 26.1403345, 'longitude': 85.3650192}",26.1403345,85.3650192,1500,1500,Other,Other
233414,40.51,50.02,8.73,1.69,55.59,459.48,3,233414,"Omex Eternity, Vrindavan - UPPCB",,"{'id': 9, 'code': 'IN', 'name': 'India'}","{'latitude': 27.571409, 'longitude': 77.655757}",27.571409,77.655757,1500,1500,Burning,Burning
233415,71.77,92.94,8.98,4.06,61.71,473.33,4,233415,"Sector 22, Chandigarh - CPCC",,"{'id': 9, 'code': 'IN', 'name': 'India'}","{'latitude': 30.735567, 'longitude': 76.775714}",30.735567,76.775714,1500,1500,Burning,Burning
233416,12.51,16.15,6.79,1.49,22.13,315.7,2,233416,"Nagar Nigam, Prayagraj - UPPCB",,"{'id': 9, 'code': 'IN', 'name': 'India'}","{'latitude': 25.44919916, 'longitude': 81.82735986}",25.44919916,81.82735986,1500,1500,Other,Other
233470,73.57,105.42,15.96,3.28,76.19,685.51,4,233470,Islamabad,,"{'id': 109, 'code': 'PK', 'name': 'Pakistan'}","{'latitude': 33.725614, 'longitude': 73.11602}",33.725614,73.11602,1500,1500,Burning,Burning
234568,15.68,22.5,6.29,1.31,27.61,308.03,2,234568,"FTI Kidwai Nagar, Kanpur - UPPCB",,"{'id': 9, 'code': 'IN', 'name': 'India'}","{'latitude': 26.428282, 'longitude': 80.327067}",26.428282,80.327067,1500,1500,Other,Other
234997,28.71,33.87,5.4,0.87,53.26,374.39,3,234997,"Dharmapuri, Agra - UPPCB",,"{'id': 9, 'code': 'IN', 'name': 'India'}","{'latitude': 27.169338, 'longitude': 78.03582}",27.169338,78.03582,1500,1500,Other,Other
236406,17.33,18.75,14.46,14.0,20.11,427.2,2,236406,"Mangala, Bilaspur - CECB",,"{'id': 9, 'code': 'IN', 'name': 'India'}","{'latitude': 22.08815, 'longitude': 82.13737}",22.08815,82.13737,1500,1500,Other,Other
270697,93.45,119.15,19.0,6.25,53.82,760.01,5,270697,"Employment Office, Moradabad - UPPCB",,"{'id': 9, 'code': 'IN', 'name': 'India'}","{'latitude': 28.88528, 'longitude': 78.7388}",28.88528,78.7388,1500,1500,Burning,Burning
270703,20.64,23.3,27.74,15.05,0.7,361.42,2,270703,"Dada Peer, Sasaram - BSPCB",,"{'id': 9, 'code': 'IN', 'name': 'India'}","{'latitude': 24.952822, 'longitude': 84.002396}",24.952822,84.002396,1500,1500,Other,Other
270704,15.51,18.78,16.5,4.57,2.44,471.58,2,270704,"Town Hall, Munger - BSPCB",,"{'id': 9, 'code': 'IN', 'name': 'India'}","{'latitude': 25.376776, 'longitude': 86.471523}",25.376776,86.471523,1500,1500,Other,Other
270708,18.26,19.14,5.31,1.48,9.03,202.54,2,270708,"Civic Center, Bhilai - Bhilai Steel Plant",,"{'id': 9, 'code': 'IN', 'name': 'India'}","{'latitude': 21.185571, 'longitude': 81.343175}",21.185571,81.343175,1500,1500,Other,Other
270720,24.67,28.31,21.55,18.67,11.58,421.45,2,270720,"Mirchaibari, Katihar - BSPCB",,"{'id': 9, 'code': 'IN', 'name': 'India'}","{'latitude': 25.560083, 'longitude': 87.553265}",25.560083,87.553265,1500,1500,Other,Other
270721,36.8,43.28,34.52,37.94,4.89,669.6,3,270721,"Mayaganj, Bhagalpur - BSPCB",,"{'id': 9, 'code': 'IN', 'name': 'India'}","{'latitude': 25.265194, 'longitude': 87.012947}",25.265194,87.012947,1500,1500,Other,Other
270722,14.47,17.43,13.8,7.76,19.62,305.04,2,270722,"Central Jail, Buxar - BSPCB",,"{'id': 9, 'code': 'IN', 'name': 'India'}","{'latitude': 25.555605, 'longitude': 83.950942}",25.555605,83.950942,1500,1500,Other,Other
270723,29.7,35.12,28.47,26.74,4.07,603.17,3,270723,"DM Office_Kachari Chowk, Bhagalpur - BSPCB",,"{'id': 9, 'code': 'IN', 'name': 'India'}","{'latitude': 25.251013, 'longitude': 86.989001}",25.251013,86.989001,1500,1500,Other,Other
270724,14.68,16.16,16.12,3.67,0.47,388.85,2,270724,"Kareemganj, Gaya - BSPCB",,"{'id': 9, 'code': 'IN', 'name': 'India'}","{'latitude': 24.792403, 'longitude': 84.992416}",24.792403,84.992416,1500,1500,Other,Other
270725,23.86,27.06,19.76,13.62,12.31,391.67,2,270725,"Mariam Nagar, Purnia - BSPCB",,"{'id': 9, 'code': 'IN', 'name': 'India'}","{'latitude': 25.765657, 'longitude': 87.466829}",25.765657,87.466829,1500,1500,Other,Other
270726,10.6,15.03,7.21,3.27,26.96,350.28,2,270726,"Chitragupta Nagar, Siwan - BSPCB",,"{'id': 9, 'code': 'IN', 'name': 'India'}","{'latitude': 26.2271665, 'longitude': 84.3570427}",26.2271665,84.3570427,1500,1500,Other,Other
270727,17.15,19.21,15.41,10.23,14.21,295.67,2,270727,"SDM Office_Khagra, Kishanganj - BSPCB",,"{'id': 9, 'code': 'IN', 'name': 'India'}","{'latitude': 26.0881305, 'longitude': 87.93840336}",26.0881305,87.93840336,1500,1500,Other,Other
270728,15.61,18.01,19.58,5.12,0.23,488.05,2,270728,"Police Line, Saharsa - BSPCB",,"{'id': 9, 'code': 'IN', 'name': 'India'}","{'latitude': 25.892357, 'longitude': 86.590325}",25.892357,86.590325,1500,1500,Other,Other
270729,11.26,14.69,7.92,3.58,23.64,277.56,2,270729,"Darshan Nagar, Chhapra - BSPCB",,"{'id': 9, 'code': 'IN', 'name': 'India'}","{'latitude': 25.7808257, 'longitude': 84.7446768}",25.7808257,84.7446768,1500,1500,Other,Other
270730,14.61,16.43,18.56,2.56,0.11,415.68,2,270730,"Dangi Tola, Rajgir - BSPCB",,"{'id': 9, 'code': 'IN', 'name': 'India'}","{'latitude': 25.0328, 'longitude': 85.41948}",25.0328,85.41948,1500,1500,Other,Other
270737,9.76,13.5,8.68,3.28,24.65,369.96,1,270737,"Forest Rest House, Manguraha - BSPCB",,"{'id': 9, 'code': 'IN', 'name': 'India'}","{'latitude': 27.307773, 'longitude': 84.529114}",27.307773,84.529114,1500,1500,Other,Other
270771,93.45,119.15,19.0,6.25,53.82,760.01,5,270771,"Buddhi Vihar, Moradabad - UPPCB",,"{'id': 9, 'code': 'IN', 'name': 'India'}","{'latitude': 28.83526, 'longitude': 78.7446}",28.83526,78.7446,1500,1500,Burning,Burning
270774,13.86,16.98,14.02,5.5,16.4,307.79,2,270774,"New DM Office, Arrah - BSPCB",,"{'id': 9, 'code': 'IN', 'name': 'India'}","{'latitude': 25.5626095, 'longitude': 84.663264}",25.5626095,84.663264,1500,1500,Other,Other
270775,21.48,23.71,18.9,11.52,10.92,364.69,2,270775,"Kharahiya Basti, Araria - BSPCB",,"{'id': 9, 'code': 'IN', 'name': 'India'}","{'latitude': 26.146529, 'longitude': 87.454184}",26.146529,87.454184,1500,1500,Other,Other
270777,93.45,119.15,19.0,6.25,53.82,760.01,5,270777,"Jigar Colony, Moradabad - UPPCB",,"{'id': 9, 'code': 'IN', 'name': 'India'}","{'latitude': 28.856664, 'longitude': 78.772638}",28.856664,78.772638,1500,1500,Burning,Burning
270877,93.45,119.15,19.0,6.25,53.82,760.01,5,270877,"Eco Herbal Park, Moradabad - UPPCB",,"{'id': 9, 'code': 'IN', 'name': 'India'}","{'latitude': 28.840739, 'longitude': 78.697531}",28.840739,78.697531,1500,1500,Burning,Burning
278159,28.71,33.87,5.4,0.87,53.26,374.39,3,278159,"Rohta, Agra - UPPCB",,"{'id': 9, 'code': 'IN', 'name': 'India'}","{'latitude': 27.106972, 'longitude': 78.000111}",27.106972,78.000111,1500,1500,Other,Other
278418,71.77,92.94,8.98,4.06,61.71,473.33,4,278418,"Sector-53, Chandigarh - CPCC",,"{'id': 9, 'code': 'IN', 'name': 'India'}","{'latitude': 30.719859, 'longitude': 76.738637}",30.719859,76.738637,1500,1500,Burning,Burning
278671,10.95,15.09,7.24,0.79,33.76,325.77,2,278671,"Shivaji Nagar, Jhansi - UPPCB",,"{'id': 9, 'code': 'IN', 'name': 'India'}","{'latitude': 25.4547, 'longitude': 78.6039}",25.4547,78.6039,1500,1500,Other,Other
301387,3.0,7.57,3.95,1.36,30.74,125.66,1,301387,"Raikhad, Ahmedabad - IITM",,"{'id': 9, 'code': 'IN', 'name': 'India'}","{'latitude': 23.020509, 'longitude': 72.579261}",23.020509,72.579261,1500,1500,Other,Other
301388,65.44,88.86,17.62,2.76,47.89,553.16,4,301388,"Sardar Patel Inter College, Baghpat - UPPCB",,"{'id': 9, 'code': 'IN', 'name': 'India'}","{'latitude': 28.964949, 'longitude': 77.278761}",28.964949,77.278761,1500,1500,Burning,Burning
301389,77.19,98.86,6.92,4.71,74.72,489.12,5,301389,"HIMUDA Complex Phase-1, Baddi - HPPCB",,"{'id': 9, 'code': 'IN', 'name': 'India'}","{'latitude': 30.943887, 'longitude': 76.801991}",30.943887,76.801991,1500,1500,Burning,Burning
301390,4.11,8.45,1.43,0.58,36.06,138.31,1,301390,"Bardowali, Agartala - Tripura SPCB",,"{'id': 9, 'code': 'IN', 'name': 'India'}","{'latitude': 23.8175497, 'longitude': 91.2726974}",23.8175497,91.2726974,1500,1500,Other,Other
301391,13.78,17.0,16.12,3.26,4.85,408.55,2,301391,"DM Office_Kasipur, Samastipur - BSPCB",,"{'id': 9, 'code': 'IN', 'name': 'India'}","{'latitude': 25.859655, 'longitude': 85.77944}",25.859655,85.77944,1500,1500,Other,Other
301670,1.35,2.94,7.23,0.77,19.22,144.47,1,301670,"Collector Office, Yadgir - KSPCB",,"{'id': 9, 'code': 'IN', 'name': 'India'}","{'latitude': 16.7602, 'longitude': 77.1428}",16.7602,77.1428,1500,1500,Other,Other
304956,17.27,19.05,20.51,7.95,0.46,379.88,2,304956,"Gurdeo Nagar, Aurangabad - BSPCB",,"{'id': 9, 'code': 'IN', 'name': 'India'}","{'latitude': 24.75746, 'longitude': 84.366208}",24.75746,84.366208,1500,1500,Other,Other
306252,14.75,17.15,18.54,3.74,0.48,447.08,2,306252,"DRCC Anandpur, Begusarai - BSPCB",,"{'id': 9, 'code': 'IN', 'name': 'India'}","{'latitude': 25.444266, 'longitude': 86.140169}",25.444266,86.140169,1500,1500,Other,Other
307463,8.27,10.29,7.11,1.15,17.0,290.8,1,307463,"Zero Point GICI, Gangtok - SSPCB",,"{'id': 9, 'code': 'IN', 'name': 'India'}","{'latitude': 27.338529999999995, 'longitude': 88.614099}",27.338529999999995,88.614099,1500,1500,Other,Other
309803,1.58,3.83,2.33,0.43,28.28,113.31,1,309803,"Ashwini Nagar, Haveri - KSPCB",,"{'id': 9, 'code': 'IN', 'name': 'India'}","{'latitude': 14.7918, 'longitude': 75.38959999999999}",14.7918,75.38959999999999,1500,1500,Other,Other
313410,0.85,1.52,2.2,0.13,6.57,107.16,1,313410,"DM College of Science, Imphal - Manipur PCB",,"{'id': 9, 'code': 'IN', 'name': 'India'}","{'latitude': 24.8207389, 'longitude': 93.94230849999998}",24.8207389,93.94230849999998,1500,1500,Other,Other
313411,7.63,11.6,7.39,1.19,24.28,211.83,1,313411,"JN Stadium, Shillong - Meghalaya PCB",,"{'id': 9, 'code': 'IN', 'name': 'India'}","{'latitude': 25.5803419, 'longitude': 91.8942571}",25.5803419,91.8942571,1500,1500,Other,Other
313923,0.84,1.43,2.54,0.13,8.38,110.92,1,313923,"Manipur University, Imphal - Manipur PCB",,"{'id': 9, 'code': 'IN', 'name': 'India'}","{'latitude': 24.7524239, 'longitude': 93.92862179999999}",24.7524239,93.92862179999999,1500,1500,Other,Other
317035,70.62,101.08,16.17,9.87,58.37,618.4,4,317035,"Doon University, Dehradun - UKPCB",,"{'id': 9, 'code': 'IN', 'name': 'India'}","{'latitude': 30.269444, 'longitude': 78.044167}",30.269444,78.044167,1500,1500,Burning,Burning
323564,4.42,7.54,1.24,0.3,38.97,149.3,1,323564,White Springs Plant,,"{'id': 10, 'code': 'CN', 'name': 'China'}","{'latitude': 30.426029, 'longitude': 82.795356}",30.426029,82.795356,1500,1500,Other,Other
330021,25.33,31.06,5.56,1.01,46.3,357.19,3,330021,"Vibhab Nagar, Firozabad - UPPCB",,"{'id': 9, 'code': 'IN', 'name': 'India'}","{'latitude': 27.1594, 'longitude': 78.3953}",27.1594,78.3953,1500,1500,Other,Other
344103,3.81,7.4,9.14,3.66,16.95,173.45,1,344103,"ECIL Kapra, Hyderabad - TSPCB",,"{'id': 9, 'code': 'IN', 'name': 'India'}","{'latitude': 17.470431, 'longitude': 78.566959}",17.470431,78.566959,1500,1500,Other,Other
344104,3.81,7.4,9.14,3.66,16.95,173.45,1,344104,"Kompally Municipal Office, Hyderabad - TSPCB",,"{'id': 9, 'code': 'IN', 'name': 'India'}","{'latitude': 17.544899, 'longitude': 78.486949}",17.544899,78.486949,1500,1500,Other,Other
344140,3.81,7.4,9.14,3.66,16.95,173.45,1,344140,"Somajiguda, Hyderabad - TSPCB",,"{'id': 9, 'code': 'IN', 'name': 'India'}","{'latitude': 17.417094, 'longitude': 78.457437}",17.417094,78.457437,1500,1500,Other,Other
344142,3.81,7.4,9.14,3.66,16.95,173.45,1,344142,"Nacharam_TSIIC IALA, Hyderabad - TSPCB",,"{'id': 9, 'code': 'IN', 'name': 'India'}","{'latitude': 17.429398, 'longitude': 78.569354}",17.429398,78.569354,1500,1500,Other,Other
344144,2.43,4.94,8.83,2.05,17.9,168.76,1,344144,"IITH Kandi, Hyderabad - TSPCB",,"{'id': 9, 'code': 'IN', 'name': 'India'}","{'latitude': 17.585705, 'longitude': 78.126199}",17.585705,78.126199,1500,1500,Other,Other
346257,3.12,6.17,8.99,2.85,17.43,171.1,1,346257,"Ramachandrapuram, Hyderabad - TSPCB",,"{'id': 9, 'code': 'IN', 'name': 'India'}","{'latitude': 17.528544, 'longitude': 78.286195}",17.528544,78.286195,1500,1500,Other,Other
346258,2.82,5.42,8.54,3.51,19.66,159.32,1,346258,"Kokapet, Hyderabad - TSPCB",,"{'id': 9, 'code': 'IN', 'name': 'India'}","{'latitude': 17.393559, 'longitude': 78.339194}",17.393559,78.339194,1500,1500,Other,Other
346438,52.85,70.37,13.12,3.69,36.42,595.08,4,346438,"Rajendra Nagar, Bareilly - UPPCB",,"{'id': 9, 'code': 'IN', 'name': 'India'}","{'latitude': 28.38910936, 'longitude': 79.42963708}",28.38910936,79.42963708,1500,1500,Burning,Burning
346439,60.35,78.81,17.29,3.23,43.93,575.07,4,346439,"Kalindi Kunj, Khurja - UPPCB",,"{'id': 9, 'code': 'IN', 'name': 'India'}","{'latitude': 28.2348927, 'longitude': 77.8683002}",28.2348927,77.8683002,1500,1500,Burning,Burning
352465,3.6,6.56,9.21,4.77,18.94,159.81,1,352465,"New Malakpet, Hyderabad - TSPCB",,"{'id': 9, 'code': 'IN', 'name': 'India'}","{'latitude': 17.37206, 'longitude': 78.50864}",17.37206,78.50864,1500,1500,Other,Other
352777,93.45,119.15,19.0,6.25,53.82,760.01,5,352777,"Kashiram Nagar, Moradabad - UPPCB",,"{'id': 9, 'code': 'IN', 'name': 'India'}","{'latitude': 28.849399, 'longitude': 78.742362}",28.849399,78.742362,1500,1500,Burning,Burning
353715,93.45,119.15,19.0,6.25,53.82,760.01,5,353715,"Transport Nagar, Moradabad - UPPCB",,"{'id': 9, 'code': 'IN', 'name': 'India'}","{'latitude': 28.802625, 'longitude': 78.753728}",28.802625,78.753728,1500,1500,Burning,Burning
358448,9.94,17.09,8.15,2.16,5.08,306.3,1,358448,"Kumaran College, Tirupur - TNPCB",,"{'id': 9, 'code': 'IN', 'name': 'India'}","{'latitude': 11.0973603, 'longitude': 77.3228673}",11.0973603,77.3228673,1500,1500,Other,Other
358450,8.13,15.64,10.13,2.87,16.24,273.77,1,358450,"Bombay Castel, Ooty - TNPCB",,"{'id': 9, 'code': 'IN', 'name': 'India'}","{'latitude': 11.4068288, 'longitude': 76.7138973}",11.4068288,76.7138973,1500,1500,Other,Other
358451,19.3,28.36,15.53,3.77,5.69,371.14,2,358451,"Vasanthapuram, Vellore - TNPCB",,"{'id': 9, 'code': 'IN', 'name': 'India'}","{'latitude': 12.909494, 'longitude': 79.131861}",12.909494,79.131861,1500,1500,Other,Other
358452,6.8,10.98,7.04,1.25,31.23,175.68,1,358452,"Chalai Bazaar, Ramanathapuram - TNPCB",,"{'id': 9, 'code': 'IN', 'name': 'India'}","{'latitude': 9.36399, 'longitude': 78.831977}",9.36399,78.831977,1500,1500,Other,Other
358453,11.53,19.92,13.79,3.15,9.59,340.47,2,358453,"Mendonsa Colony, Dindigul - TNPCB",,"{'id': 9, 'code': 'IN', 'name': 'India'}","{'latitude': 10.358535, 'longitude': 77.984321}",10.358535,77.984321,1500,1500,Other,Other
358454,9.86,14.73,12.37,3.06,20.26,262.7,1,358454,"SIPCOT Phase-1, Hosur - TNPCB",,"{'id': 9, 'code': 'IN', 'name': 'India'}","{'latitude': 12.746998, 'longitude': 77.813811}",12.746998,77.813811,1500,1500,Other,Other
358455,9.25,14.19,17.21,3.82,16.31,309.74,1,358455,"Sona College of Technology, Salem - TNPCB",,"{'id': 9, 'code': 'IN', 'name': 'India'}","{'latitude': 11.679111, 'longitude': 78.125052}",11.679111,78.125052,1500,1500,Other,Other
358456,2.49,4.68,5.28,0.94,19.61,147.66,1,358456,"Gulzarpet, Anantapur - APPCB",,"{'id': 9, 'code': 'IN', 'name': 'India'}","{'latitude': 14.675886, 'longitude': 77.593027}",14.675886,77.593027,1500,1500,Other,Other
358457,9.13,16.72,10.57,2.88,9.75,299.03,1,358457,"PSG College of Arts and Science, Coimbatore - TNPCB",,"{'id': 9, 'code': 'IN', 'name': 'India'}","{'latitude': 11.0328, 'longitude': 77.0349}",11.0328,77.0349,1500,1500,Other,Other
358467,52.85,70.37,13.12,3.69,36.42,595.08,4,358467,"Civil Lines, Bareilly - UPPCB",,"{'id': 9, 'code': 'IN', 'name': 'India'}","{'latitude': 28.359581, 'longitude': 79.414455}",28.359581,79.414455,1500,1500,Burning,Burning
358627,40.02,48.64,17.16,4.64,36.2,435.12,3,358627,"Crescent University, Chengalpattu - TNPCB",,"{'id': 9, 'code': 'IN', 'name': 'India'}","{'latitude': 12.8777316, 'longitude': 80.0834807}",12.8777316,80.0834807,1500,1500,Other,Other
358665,1.32,2.22,0.41,0.18,35.14,85.16,1,358665,"Ramteerth Nagar, Belgaum - KSPCB",,"{'id': 9, 'code': 'IN', 'name': 'India'}","{'latitude': 15.888653, 'longitude': 74.541751}",15.888653,74.541751,1500,1500,Other,Other
361378,6.22,7.75,3.29,0.84,41.7,178.78,1,361378,"Paryavaran Parisar, Bhopal - MPPCB",,"{'id': 9, 'code': 'IN', 'name': 'India'}","{'latitude': 23.210494, 'longitude': 77.425409}",23.210494,77.425409,1500,1500,Other,Other
361411,8.4,9.21,7.19,1.37,30.99,179.38,1,361411,"IITG, Guwahati - PCBA",,"{'id': 9, 'code': 'IN', 'name': 'India'}","{'latitude': 26.2028636, 'longitude': 91.70046436}",26.2028636,91.70046436,1500,1500,Other,Other
363601,3.67,5.47,2.8,0.33,2.82,159.56,1,363601,"Girls College, Sivasagar - PCBA",,"{'id': 9, 'code': 'IN', 'name': 'India'}","{'latitude': 26.987634, 'longitude': 94.636574}",26.987634,94.636574,1500,1500,Other,Other
1236017,10.92,12.6,16.83,4.82,8.63,402.29,2,1236017,"Dhathutole, Handigaun",,"{'id': 145, 'code': 'NP', 'name': 'Nepal'}","{'latitude': 27.727502, 'longitude': 85.330135}",27.727502,85.330135,1500,1500,Other,Other
1236037,8.48,10.73,0.48,0.26,69.74,141.5,2,1236037,Dhopagachi,,"{'id': 9, 'code': 'IN', 'name': 'India'}","{'latitude': 22.3743, 'longitude': 88.415}",22.3743,88.415,1500,1500,Other,Other
1285342,7.49,12.21,1.94,0.77,39.49,141.03,1,1285342,SPARTAN - Dhaka University,,"{'id': 128, 'code': 'BD', 'name': 'Bangladesh'}","{'latitude': 23.7284, 'longitude': 90.3982}",23.7284,90.3982,1500,1500,Other,Other
1285345,15.68,22.5,6.29,1.31,27.61,308.03,2,1285345,SPARTAN - IIT Kanpur,,"{'id': 9, 'code': 'IN', 'name': 'India'}","{'latitude': 26.5128, 'longitude': 80.2316}",26.5128,80.2316,1500,1500,Other,Other
1894641,69.85,94.66,8.34,2.06,52.63,560.67,4,1894641,Lahore,,"{'id': 109, 'code': 'PK', 'name': 'Pakistan'}","{'latitude': 31.54815, 'longitude': 74.34396}",31.54815,74.34396,1500,1500,Burning,Burning
2498781,11.46,17.73,13.95,3.34,16.88,281.58,2,2498781,SiriJaya,,"{'id': 9, 'code': 'IN', 'name': 'India'}","{'latitude': 12.909153635368195, 'longitude': 77.52476183092863}",12.909153635368195,77.52476183092863,1500,1500,Other,Other
2655791,1.59,1.92,0.04,0.07,66.09,54.27,2,2655791,Near Martin Luther King Blvd,,"{'id': 10, 'code': 'CN', 'name': 'China'}","{'latitude': 35.04242, 'longitude': 85.29419}",35.04242,85.29419,1500,1500,Other,Other
2689464,1.59,1.92,0.04,0.07,66.09,54.27,2,2689464,,,"{'id': 10, 'code': 'CN', 'name': 'China'}","{'latitude': 35.0424, 'longitude': 85.29417}",35.0424,85.29417,1500,1500,Other,Other
2812757,17.93,21.13,1.02,0.93,67.71,154.78,2,2812757,Jaffna,,"{'id': 184, 'code': 'LK', 'name': 'Sri Lanka'}","{'latitude': 9.66831, 'longitude': 80.02299}",9.66831,80.02299,1500,1500,Other,Other
2848864,10.92,12.6,16.83,4.82,8.63,402.29,2,2848864,"Dabali, Handigaun",,"{'id': 145, 'code': 'NP', 'name': 'Nepal'}","{'latitude': 27.68189114, 'longitude': 85.28707804}",27.68189114,85.28707804,1500,1500,Other,Other
2860223,61.75,81.22,15.72,2.52,45.37,534.81,4,2860223,GK1 (Oberoi Terrace),,"{'id': 9, 'code': 'IN', 'name': 'India'}","{'latitude': 28.5500047, 'longitude': 77.2431058}",28.5500047,77.2431058,1500,1500,Burning,Burning
3024966,63.03,83.56,16.44,2.63,43.67,553.79,4,3024966,NASA GSFC Rutgers Calib. N8,,"{'id': 9, 'code': 'IN', 'name': 'India'}","{'latitude': 28.31733, 'longitude': 76.91603}",28.31733,76.91603,1500,1500,Burning,Burning
3174188,10.83,12.72,4.82,1.74,34.07,160.83,2,3174188,Malav,,"{'id': 9, 'code': 'IN', 'name': 'India'}","{'latitude': 22.70763, 'longitude': 75.85257}",22.70763,75.85257,1500,1500,Other,Other
3174189,10.83,12.72,4.82,1.74,34.07,160.83,2,3174189,Bicholi Hapsi,,"{'id': 9, 'code': 'IN', 'name': 'India'}","{'latitude': 22.71771, 'longitude': 75.93739}",22.71771,75.93739,1500,1500,Other,Other
3174190,10.83,12.72,4.82,1.74,34.07,160.83,2,3174190,Musakhedi,,"{'id': 9, 'code': 'IN', 'name': 'India'}","{'latitude': 22.6967, 'longitude': 75.89488}",22.6967,75.89488,1500,1500,Other,Other
3194367,7.1,11.27,2.6,1.0,34.68,151.46,1,3194367,"Dept. of Public Health and Informatics, Jahangirnagar University",,"{'id': 128, 'code': 'BD', 'name': 'Bangladesh'}","{'latitude': 23.888280501941725, 'longitude': 90.26536993068466}",23.888280501941725,90.26536993068466,1500,1500,Other,Other
3292849,114.18,151.06,13.86,6.29,61.67,850.68,5,3292849,Farhan Shah Labs,,"{'id': 109, 'code': 'PK', 'name': 'Pakistan'}","{'latitude': 32.424312, 'longitude': 74.52885}",32.424312,74.52885,1500,1500,Burning,Burning
3409309,93.45,119.15,19.0,6.25,53.82,760.01,5,3409309,"Lajpat Nagar, Moradabad - UPPCB",,"{'id': 9, 'code': 'IN', 'name': 'India'}","{'latitude': 28.825341, 'longitude': 78.7213009}",28.825341,78.7213009,1500,1500,Burning,Burning
3409317,8.41,11.08,3.13,0.68,19.28,183.18,1,3409317,"Chauhan Colony, Chandrapur - MPCB",,"{'id': 9, 'code': 'IN', 'name': 'India'}","{'latitude': 19.9629, 'longitude': 79.298714}",19.9629,79.298714,1500,1500,Other,Other
3409318,17.34,26.82,9.45,1.51,21.35,356.85,2,3409318,"Central School, Lucknow - CPCB",,"{'id': 9, 'code': 'IN', 'name': 'India'}","{'latitude': 26.8821003, 'longitude': 80.9302753}",26.8821003,80.9302753,1500,1500,Other,Other
3409319,40.02,48.64,17.16,4.64,36.2,435.12,3,3409319,"Alandur Bus Depot, Chennai - CPCB",,"{'id': 9, 'code': 'IN', 'name': 'India'}","{'latitude': 12.9099161, 'longitude': 80.1076538}",12.9099161,80.1076538,1500,1500,Other,Other
3409320,9.0,10.12,0.8,0.53,70.08,158.29,2,3409320,"Rabindra Bharati University, Kolkata - WBPCB",,"{'id': 9, 'code': 'IN', 'name': 'India'}","{'latitude': 22.627875, 'longitude': 88.3804}",22.627875,88.3804,1500,1500,Other,Other
3409321,12.65,15.41,0.81,0.65,72.37,158.58,2,3409321,Haldia - WBSPCB,,"{'id': 9, 'code': 'IN', 'name': 'India'}","{'latitude': 22.06047, 'longitude': 88.109737}",22.06047,88.109737,1500,1500,Other,Other
3409322,1.25,4.2,0.07,0.13,39.86,82.11,1,3409322,"Pimpleshwar Mandir, Thane - MPCB",,"{'id': 9, 'code': 'IN', 'name': 'India'}","{'latitude': 19.192056, 'longitude': 72.9585188}",19.192056,72.9585188,1500,1500,Other,Other
3409323,1.42,4.79,0.08,0.15,39.38,82.18,1,3409323,"Worli, Mumbai - MPCB",,"{'id': 9, 'code': 'IN', 'name': 'India'}","{'latitude': 18.9936162, 'longitude': 72.8128113}",18.9936162,72.8128113,1500,1500,Other,Other
3409328,1.25,4.2,0.07,0.13,39.86,82.11,1,3409328,"Bandra Kurla Complex, Mumbai - IITM",,"{'id': 9, 'code': 'IN', 'name': 'India'}","{'latitude': 19.0627, 'longitude': 72.84614}",19.0627,72.84614,1500,1500,Other,Other
3409329,1.25,4.2,0.07,0.13,39.86,82.11,1,3409329,"Deonar, Mumbai - IITM",,"{'id': 9, 'code': 'IN', 'name': 'India'}","{'latitude': 19.04946, 'longitude': 72.923}",19.04946,72.923,1500,1500,Other,Other
3409330,1.07,3.22,0.07,0.1,38.65,81.3,1,3409330,"Sector-19A Nerul, Navi Mumbai - IITM",,"{'id': 9, 'code': 'IN', 'name': 'India'}","{'latitude': 19.044, 'longitude': 73.0325}",19.044,73.0325,1500,1500,Other,Other
3409331,1.64,3.09,1.47,0.4,26.98,102.68,1,3409331,"Bhosari, Pune - IITM",,"{'id': 9, 'code': 'IN', 'name': 'India'}","{'latitude': 18.640051, 'longitude': 73.848956}",18.640051,73.848956,1500,1500,Other,Other
3409334,1.58,3.83,2.33,0.43,28.28,113.31,1,3409334,"Ashwini Nagar, Haveri - KSPCB",,"{'id': 9, 'code': 'IN', 'name': 'India'}","{'latitude': 14.7918, 'longitude': 75.3896}",14.7918,75.3896,1500,1500,Other,Other
3409335,7.36,11.81,8.91,2.5,14.15,248.58,1,3409335,"B.Katihalli, Hassan - KSPCB",,"{'id': 9, 'code': 'IN', 'name': 'India'}","{'latitude': 13.008556, 'longitude': 76.125258}",13.008556,76.125258,1500,1500,Other,Other
3409336,2.8,7.78,4.03,1.4,32.59,123.21,1,3409336,"GIFT City, Gandhinagar - IITM",,"{'id': 9, 'code': 'IN', 'name': 'India'}","{'latitude': 23.163798, 'longitude': 72.677768}",23.163798,72.677768,1500,1500,Other,Other
3409338,14.75,17.15,18.54,3.74,0.48,447.08,2,3409338,"DRCC Anandpur, Begusarai - BSPCB",,"{'id': 9, 'code': 'IN', 'name': 'India'}","{'latitude': 25.444266, 'longitude': 86.140169}",25.444266,86.140169,1500,1500,Other,Other
3409339,14.47,17.43,13.8,7.76,19.62,305.04,2,3409339,"Central Jail, Buxar - BSPCB",,"{'id': 9, 'code': 'IN', 'name': 'India'}","{'latitude': 25.555605, 'longitude': 83.950942}",25.555605,83.950942,1500,1500,Other,Other
3409340,8.27,10.29,7.11,1.15,17.0,290.8,1,3409340,"Zero Point GICI, Gangtok - SSPCB",,"{'id': 9, 'code': 'IN', 'name': 'India'}","{'latitude': 27.33853, 'longitude': 88.614099}",27.33853,88.614099,1500,1500,Other,Other
3409341,0.84,1.43,2.54,0.13,8.38,110.92,1,3409341,"Manipur University, Imphal - Manipur PCB",,"{'id': 9, 'code': 'IN', 'name': 'India'}","{'latitude': 24.7524239, 'longitude': 93.9286218}",24.7524239,93.9286218,1500,1500,Other,Other
3409342,0.85,1.52,2.2,0.13,6.57,107.16,1,3409342,"DM College of Science, Imphal - Manipur PCB",,"{'id': 9, 'code': 'IN', 'name': 'India'}","{'latitude': 24.8207389, 'longitude': 93.9423085}",24.8207389,93.9423085,1500,1500,Other,Other
3409343,15.44,21.15,16.32,3.17,16.49,370.27,2,3409343,"Keelapalur, Ariyalur - TNPCB",,"{'id': 9, 'code': 'IN', 'name': 'India'}","{'latitude': 11.06825, 'longitude': 79.07033}",11.06825,79.07033,1500,1500,Other,Other
3409344,0.81,2.4,1.02,0.5,33.3,84.04,1,3409344,"Municipal Corporation Office, Tirunelveli - TNPCB",,"{'id': 9, 'code': 'IN', 'name': 'India'}","{'latitude': 8.728442, 'longitude': 77.6962}",8.728442,77.6962,1500,1500,Other,Other
3409345,18.09,25.64,21.62,4.53,19.69,401.31,2,3409345,"Parisutham Nagar, Thanjavur - TNPCB",,"{'id': 9, 'code': 'IN', 'name': 'India'}","{'latitude': 10.7654824, 'longitude': 79.1389968}",10.7654824,79.1389968,1500,1500,Other,Other
3409346,21.02,27.22,14.2,2.46,23.01,360.26,2,3409346,"Semmandalam, Cuddalore - TNPCB",,"{'id': 9, 'code': 'IN', 'name': 'India'}","{'latitude': 11.7637683, 'longitude': 79.7499835}",11.7637683,79.7499835,1500,1500,Other,Other
3409347,9.86,14.73,12.37,3.06,20.26,262.7,1,3409347,"SIPCOT Phase-1, Hosur - TNPCB",,"{'id': 9, 'code': 'IN', 'name': 'India'}","{'latitude': 12.746998, 'longitude': 77.813811}",12.746998,77.813811,1500,1500,Other,Other
3409348,7.11,12.3,10.51,2.21,14.04,250.38,1,3409348,"Uchapatti, Madurai - TNPCB",,"{'id': 9, 'code': 'IN', 'name': 'India'}","{'latitude': 9.865935, 'longitude': 78.022669}",9.865935,78.022669,1500,1500,Other,Other
3409349,19.3,28.36,15.53,3.77,5.69,371.14,2,3409349,"Vasanthapuram, Vellore - TNPCB",,"{'id': 9, 'code': 'IN', 'name': 'India'}","{'latitude': 12.909494, 'longitude': 79.131861}",12.909494,79.131861,1500,1500,Other,Other
3409350,11.04,13.92,1.5,0.4,56.92,147.28,2,3409350,"Velippalayam, Nagapattinam - TNPCB",,"{'id': 9, 'code': 'IN', 'name': 'India'}","{'latitude': 10.798548, 'longitude': 79.838212}",10.798548,79.838212,1500,1500,Other,Other
3409351,21.31,31.35,14.59,2.52,4.79,375.69,2,3409351,"VOC Nagar_SIPCOT, Ranipet - TNPCB",,"{'id': 9, 'code': 'IN', 'name': 'India'}","{'latitude': 12.952707, 'longitude': 79.30394}",12.952707,79.30394,1500,1500,Other,Other
3409353,30.7,40.27,18.87,4.35,14.08,442.03,3,3409353,"Kilambi, Kanchipuram - TNPCB",,"{'id': 9, 'code': 'IN', 'name': 'India'}","{'latitude': 12.864618, 'longitude': 79.659968}",12.864618,79.659968,1500,1500,Other,Other
3409354,21.02,27.22,14.2,2.46,23.01,360.26,2,3409354,"Kudikadu, Cuddalore - TNPCB",,"{'id': 9, 'code': 'IN', 'name': 'India'}","{'latitude': 11.6829898, 'longitude': 79.7532099}",11.6829898,79.7532099,1500,1500,Other,Other
3409355,9.25,14.19,17.21,3.82,16.31,309.74,1,3409355,"Sona College of Technology, Salem - TNPCB",,"{'id': 9, 'code': 'IN', 'name': 'India'}","{'latitude': 11.679111, 'longitude': 78.125052}",11.679111,78.125052,1500,1500,Other,Other
3409356,22.7,31.69,30.03,8.74,15.1,494.46,2,3409356,"Bharathidasan University, Palkalaiperur - TNPCB",,"{'id': 9, 'code': 'IN', 'name': 'India'}","{'latitude': 10.681158, 'longitude': 78.741746}",10.681158,78.741746,1500,1500,Other,Other
3409357,15.83,24.56,24.08,4.66,2.97,456.61,2,3409357,"Kamadenu Nagar, Karur - TNPCB",,"{'id': 9, 'code': 'IN', 'name': 'India'}","{'latitude': 10.96782, 'longitude': 78.080882}",10.96782,78.080882,1500,1500,Other,Other
3409358,21.86,30.71,26.48,7.13,11.05,490.88,2,3409358,"St Joseph College, Tiruchirappalli - TNPCB",,"{'id': 9, 'code': 'IN', 'name': 'India'}","{'latitude': 10.830158, 'longitude': 78.691849}",10.830158,78.691849,1500,1500,Other,Other
3409359,1.41,3.07,2.3,0.37,24.1,110.35,1,3409359,"Kalabhavan, Dharwad - KSPCB",,"{'id': 9, 'code': 'IN', 'name': 'India'}","{'latitude': 15.459706, 'longitude': 75.008381}",15.459706,75.008381,1500,1500,Other,Other
3409360,8.4,9.21,7.19,1.37,30.99,179.38,1,3409360,"IITG, Guwahati - PCBA",,"{'id': 9, 'code': 'IN', 'name': 'India'}","{'latitude': 26.2028636, 'longitude': 91.70046436}",26.2028636,91.70046436,1500,1500,Other,Other
3409361,16.57,17.35,5.44,1.59,13.36,212.25,2,3409361,"AIIMS, Raipur - CECB",,"{'id': 9, 'code': 'IN', 'name': 'India'}","{'latitude': 21.258815, 'longitude': 81.578979}",21.258815,81.578979,1500,1500,Other,Other
3409362,15.38,16.06,5.17,1.39,14.93,208.31,2,3409362,"Siltara Phase-II, Raipur - CECB",,"{'id': 9, 'code': 'IN', 'name': 'India'}","{'latitude': 21.371751, 'longitude': 81.664929}",21.371751,81.664929,1500,1500,Other,Other
3409363,15.38,16.06,5.17,1.39,14.93,208.31,2,3409363,"Krishak Nagar, Raipur - CECB",,"{'id': 9, 'code': 'IN', 'name': 'India'}","{'latitude': 21.237755, 'longitude': 81.705301}",21.237755,81.705301,1500,1500,Other,Other
3409364,15.38,16.06,5.17,1.39,14.93,208.31,2,3409364,"Bhatagaon New ISBT, Raipur - CECB",,"{'id': 9, 'code': 'IN', 'name': 'India'}","{'latitude': 21.219665, 'longitude': 81.630094}",21.219665,81.630094,1500,1500,Other,Other
3409365,17.17,19.25,11.23,7.53,19.28,412.96,2,3409365,"Rampur, Korba - CECB",,"{'id': 9, 'code': 'IN', 'name': 'India'}","{'latitude': 22.368195, 'longitude': 82.746431}",22.368195,82.746431,1500,1500,Other,Other
3409366,16.64,18.78,12.91,9.68,18.93,423.46,2,3409366,"Urja Nagar, Korba - CECB",,"{'id': 9, 'code': 'IN', 'name': 'India'}","{'latitude': 22.348441, 'longitude': 82.549611}",22.348441,82.549611,1500,1500,Other,Other
3409367,16.57,17.35,5.44,1.59,13.36,212.25,2,3409367,"Hathkhoj, Bhilai - CECB",,"{'id': 9, 'code': 'IN', 'name': 'India'}","{'latitude': 21.224231, 'longitude': 81.40835}",21.224231,81.40835,1500,1500,Other,Other
3409368,18.26,19.14,5.31,1.48,9.03,202.54,2,3409368,"32Bungalows, Bhilai - CECB",,"{'id': 9, 'code': 'IN', 'name': 'India'}","{'latitude': 21.194815, 'longitude': 81.31477}",21.194815,81.31477,1500,1500,Other,Other
3409369,15.55,19.42,4.64,1.38,41.72,314.9,2,3409369,"Maharaj Bada, Gwalior - MPPCB",,"{'id': 9, 'code': 'IN', 'name': 'India'}","{'latitude': 26.200388, 'longitude': 78.147714}",26.200388,78.147714,1500,1500,Other,Other
3409370,8.94,10.68,2.19,1.14,64.98,335.93,2,3409370,"Civil Lines, Sagar - MPPCB",,"{'id': 9, 'code': 'IN', 'name': 'India'}","{'latitude': 23.838586, 'longitude': 78.759431}",23.838586,78.759431,1500,1500,Other,Other
3409371,1.99,6.64,0.07,0.17,36.71,80.39,1,3409371,"Science Center, Surat - SMC",,"{'id': 9, 'code': 'IN', 'name': 'India'}","{'latitude': 21.170046, 'longitude': 72.795405}",21.170046,72.795405,1500,1500,Other,Other
3409372,16.72,25.69,13.38,2.5,5.69,351.27,2,3409372,"Gangineni Cheruvu, Chittoor - APPCB",,"{'id': 9, 'code': 'IN', 'name': 'India'}","{'latitude': 13.20488, 'longitude': 79.097889}",13.20488,79.097889,1500,1500,Other,Other
3409373,20.34,32.05,16.26,2.0,7.13,414.01,2,3409373,"Vaikuntapuram, Tirupathi - APPCB",,"{'id': 9, 'code': 'IN', 'name': 'India'}","{'latitude': 13.615387, 'longitude': 79.40923}",13.615387,79.40923,1500,1500,Other,Other
3409374,13.63,17.47,4.95,1.13,37.46,296.61,2,3409374,"Deen Dayal Nagar, Gwalior - MPPCB",,"{'id': 9, 'code': 'IN', 'name': 'India'}","{'latitude': 26.259242, 'longitude': 78.216432}",26.259242,78.216432,1500,1500,Other,Other
3409375,7.95,9.41,6.3,1.39,22.83,190.42,1,3409375,"Bata Chowk, Nalbari - PCBA",,"{'id': 9, 'code': 'IN', 'name': 'India'}","{'latitude': 26.446912, 'longitude': 91.439057}",26.446912,91.439057,1500,1500,Other,Other
3409376,7.97,9.56,7.45,1.03,32.02,183.22,1,3409376,"Central Academy for SFS, Byrnihat - PCBA",,"{'id': 9, 'code': 'IN', 'name': 'India'}","{'latitude': 26.071318, 'longitude': 91.87488}",26.071318,91.87488,1500,1500,Other,Other
3409377,27.08,35.03,6.54,2.65,24.06,397.64,3,3409377,"Meher Colony, Baripada - OSPCB",,"{'id': 9, 'code': 'IN', 'name': 'India'}","{'latitude': 21.941841, 'longitude': 86.728318}",21.941841,86.728318,1500,1500,Other,Other
3409378,6.58,8.97,3.07,0.79,13.6,291.15,1,3409378,"Jagamohanpur, Keonjhar - OSPCB",,"{'id': 9, 'code': 'IN', 'name': 'India'}","{'latitude': 21.6439, 'longitude': 85.599355}",21.6439,85.599355,1500,1500,Other,Other
3409379,13.97,17.55,5.99,3.3,15.39,363.03,2,3409379,"Divisional Forest Office, Rairangpur - OSPCB",,"{'id': 9, 'code': 'IN', 'name': 'India'}","{'latitude': 22.265816, 'longitude': 86.174829}",22.265816,86.174829,1500,1500,Other,Other
3409380,6.25,8.05,2.87,1.1,19.45,290.05,1,3409380,"Tata Township, Bileipada - OSPCB",,"{'id': 9, 'code': 'IN', 'name': 'India'}","{'latitude': 22.06156703, 'longitude': 85.47409613}",22.06156703,85.47409613,1500,1500,Other,Other
3409381,6.41,8.51,2.97,0.95,16.52,290.6,1,3409381,"Dabuna, Nayagarh - OSPCB",,"{'id': 9, 'code': 'IN', 'name': 'India'}","{'latitude': 21.847279, 'longitude': 85.416905}",21.847279,85.416905,1500,1500,Other,Other
3409382,8.25,9.97,2.81,1.17,19.44,287.19,1,3409382,"Raghunathpali, Rourkela - OSPCB",,"{'id': 9, 'code': 'IN', 'name': 'India'}","{'latitude': 22.220833, 'longitude': 84.809444}",22.220833,84.809444,1500,1500,Other,Other
3409383,6.58,8.97,3.07,0.79,13.6,291.15,1,3409383,"OMC Colony, Suakati - OSPCB",,"{'id': 9, 'code': 'IN', 'name': 'India'}","{'latitude': 21.606865, 'longitude': 85.510538}",21.606865,85.510538,1500,1500,Other,Other
3409384,5.04,6.51,1.97,0.42,19.78,243.2,1,3409384,"Barsua Iron Ore Mines, Tensa - OSPCB",,"{'id': 9, 'code': 'IN', 'name': 'India'}","{'latitude': 21.869985, 'longitude': 85.167016}",21.869985,85.167016,1500,1500,Other,Other
3409385,11.46,17.73,13.95,3.34,16.88,281.58,2,3409385,"RVCE-Mailasandra, Bengaluru - KSPCB",,"{'id': 9, 'code': 'IN', 'name': 'India'}","{'latitude': 12.921418, 'longitude': 77.502466}",12.921418,77.502466,1500,1500,Other,Other
3409386,1.23,2.68,6.74,0.9,20.29,141.3,1,3409386,"Mahatma Basaveswar Colony, Kalaburgi - KSPCB",,"{'id': 9, 'code': 'IN', 'name': 'India'}","{'latitude': 17.336318, 'longitude': 76.847397}",17.336318,76.847397,1500,1500,Other,Other
3409387,1.37,3.15,2.0,0.4,27.43,107.21,1,3409387,"Lingaraj Nagar, Hubballi - KSPCB",,"{'id': 9, 'code': 'IN', 'name': 'India'}","{'latitude': 15.3714823, 'longitude': 75.1160168}",15.3714823,75.1160168,1500,1500,Other,Other
3409388,5.77,9.58,8.59,1.42,14.39,206.34,1,3409388,"Kasturi Nagar, Bengaluru - KSPCB",,"{'id': 9, 'code': 'IN', 'name': 'India'}","{'latitude': 13.003872, 'longitude': 77.664217}",13.003872,77.664217,1500,1500,Other,Other
3409389,4.72,8.07,7.76,1.26,15.57,184.31,1,3409389,"Thimmalapura, Tumakuru - KSPCB",,"{'id': 9, 'code': 'IN', 'name': 'India'}","{'latitude': 13.377516, 'longitude': 77.099072}",13.377516,77.099072,1500,1500,Other,Other
3409390,9.56,11.7,8.37,2.18,24.67,210.39,1,3409390,"LGBI Airport, Guwahati - PCBA",,"{'id': 9, 'code': 'IN', 'name': 'India'}","{'latitude': 26.10887, 'longitude': 91.589544}",26.10887,91.589544,1500,1500,Other,Other
3409391,3.6,5.27,2.3,0.47,13.99,143.83,1,3409391,"Tarapur, Silchar - PCBA",,"{'id': 9, 'code': 'IN', 'name': 'India'}","{'latitude': 24.82827, 'longitude': 92.79525}",24.82827,92.79525,1500,1500,Other,Other
3409392,9.37,13.78,5.24,1.45,35.7,179.92,1,3409392,"Kanuru, Vijayawada - APPCB",,"{'id': 9, 'code': 'IN', 'name': 'India'}","{'latitude': 16.486692, 'longitude': 80.699436}",16.486692,80.699436,1500,1500,Other,Other
3409393,5.97,9.88,8.17,1.69,17.16,200.08,1,3409393,"Shivapura_Peenya, Bengaluru - KSPCB",,"{'id': 9, 'code': 'IN', 'name': 'India'}","{'latitude': 13.0246342, 'longitude': 77.5080115}",13.0246342,77.5080115,1500,1500,Other,Other
3409394,6.59,8.31,2.19,0.52,21.41,260.72,1,3409394,"Fertilizer Township, Rourkela - OSPCB",,"{'id': 9, 'code': 'IN', 'name': 'India'}","{'latitude': 22.18972222, 'longitude': 84.86277778}",22.18972222,84.86277778,1500,1500,Other,Other
3409395,8.25,9.97,2.81,1.17,19.44,287.19,1,3409395,"Sector-2, Rourkela - OSPCB",,"{'id': 9, 'code': 'IN', 'name': 'India'}","{'latitude': 22.245, 'longitude': 84.88111111}",22.245,84.88111111,1500,1500,Other,Other
3409396,17.23,18.5,7.81,3.9,23.55,379.22,2,3409396,"Nawapara SECL Colony, Chhal - CECB",,"{'id': 9, 'code': 'IN', 'name': 'India'}","{'latitude': 22.118125, 'longitude': 83.140608}",22.118125,83.140608,1500,1500,Other,Other
3409397,17.03,18.21,5.62,2.02,23.51,355.75,2,3409397,"OP Jindal School, Kunjemura - CECB",,"{'id': 9, 'code': 'IN', 'name': 'India'}","{'latitude': 22.12665, 'longitude': 83.483212}",22.12665,83.483212,1500,1500,Other,Other
3409398,17.03,18.21,5.62,2.02,23.51,355.75,2,3409398,"Govt. Higher Secondary School, Milupara - CECB",,"{'id': 9, 'code': 'IN', 'name': 'India'}","{'latitude': 22.1910172, 'longitude': 83.5197009}",22.1910172,83.5197009,1500,1500,Other,Other
3409399,17.13,18.35,6.72,2.96,23.53,367.49,2,3409399,"OP Jindal Industrial Park, Tumidih - CECB",,"{'id': 9, 'code': 'IN', 'name': 'India'}","{'latitude': 22.06631475, 'longitude': 83.33820077}",22.06631475,83.33820077,1500,1500,Other,Other
3409400,15.57,22.04,17.83,1.75,11.87,371.08,2,3409400,"Yerramukkapalli, Kadapa - APPCB",,"{'id': 9, 'code': 'IN', 'name': 'India'}","{'latitude': 14.465052, 'longitude': 78.824187}",14.465052,78.824187,1500,1500,Other,Other
3409401,10.18,26.74,3.49,0.53,49.37,156.24,2,3409401,"Samrat Ashok Udhyan, Jodhpur - RSPCB",,"{'id': 9, 'code': 'IN', 'name': 'India'}","{'latitude': 26.253384, 'longitude': 72.976571}",26.253384,72.976571,1500,1500,Other,Other
3409402,37.74,46.8,8.24,1.62,61.86,451.15,3,3409402,"Krishna Nagar, Bharatpur - RSPCB",,"{'id': 9, 'code': 'IN', 'name': 'India'}","{'latitude': 27.215415, 'longitude': 77.50873}",27.215415,77.50873,1500,1500,Other,Other
3409403,16.17,42.16,4.51,0.95,66.65,236.06,2,3409403,"MM Ground, Bikaner - RSPCB",,"{'id': 9, 'code': 'IN', 'name': 'India'}","{'latitude': 28.018792, 'longitude': 73.292658}",28.018792,73.292658,1500,1500,Other,Other
3409404,25.32,43.71,9.84,0.96,51.37,387.65,3,3409404,"Subash Chowk, Churu - RSPCB",,"{'id': 9, 'code': 'IN', 'name': 'India'}","{'latitude': 28.296139, 'longitude': 74.961696}",28.296139,74.961696,1500,1500,Other,Other
3409405,22.5,26.98,4.92,1.1,55.59,358.19,2,3409405,"Raja Ganj, Dholpur - RSPCB",,"{'id': 9, 'code': 'IN', 'name': 'India'}","{'latitude': 26.699557, 'longitude': 77.898881}",26.699557,77.898881,1500,1500,Other,Other
3409406,11.54,13.38,2.65,0.84,46.8,185.77,2,3409406,"Nayapura, Kota - RSPCB",,"{'id': 9, 'code': 'IN', 'name': 'India'}","{'latitude': 25.196024, 'longitude': 75.855668}",25.196024,75.855668,1500,1500,Other,Other
3409407,8.4,10.74,3.67,0.67,58.19,260.96,1,3409407,"Shastri Nagar, Tonk - RSPCB",,"{'id': 9, 'code': 'IN', 'name': 'India'}","{'latitude': 26.159933, 'longitude': 75.780517}",26.159933,75.780517,1500,1500,Other,Other
3409408,76.0,110.89,21.38,14.63,57.19,729.06,5,3409408,"Shivaji Nagar, Rishikesh - UKPCB",,"{'id': 9, 'code': 'IN', 'name': 'India'}","{'latitude': 30.075911, 'longitude': 78.2859547}",30.075911,78.2859547,1500,1500,Burning,Burning
3409409,110.16,137.19,18.57,9.47,55.92,810.26,5,3409409,"Govt. Girls Inter College, Kashipur - UKPCB",,"{'id': 9, 'code': 'IN', 'name': 'India'}","{'latitude': 29.2124114, 'longitude': 78.9611753}",29.2124114,78.9611753,1500,1500,Burning,Burning
3409410,11.62,27.93,10.88,2.4,26.29,265.61,2,3409410,"Vedhaynath Colony, Sirohi - RSPCB",,"{'id': 9, 'code': 'IN', 'name': 'India'}","{'latitude': 24.885261, 'longitude': 72.857549}",24.885261,72.857549,1500,1500,Other,Other
3409411,5.99,6.88,3.91,0.71,24.98,170.43,1,3409411,"Christianpatty, Nagaon - PCBA",,"{'id': 9, 'code': 'IN', 'name': 'India'}","{'latitude': 26.349082, 'longitude': 92.68449}",26.349082,92.68449,1500,1500,Other,Other
3409412,11.54,13.38,2.65,0.84,46.8,185.77,2,3409412,"Dhanmandi, Kota - RSPCB",,"{'id': 9, 'code': 'IN', 'name': 'India'}","{'latitude': 25.16409, 'longitude': 75.858137}",25.16409,75.858137,1500,1500,Other,Other
3409413,6.25,7.91,3.36,1.03,42.33,173.48,1,3409413,"Idgah Hills, Bhopal - MPPCB",,"{'id': 9, 'code': 'IN', 'name': 'India'}","{'latitude': 23.264759, 'longitude': 77.381568}",23.264759,77.381568,1500,1500,Other,Other
3409414,10.83,12.72,4.82,1.74,34.07,160.83,2,3409414,"Vijay Nagar Scheme-78, Indore - Glenmark",,"{'id': 9, 'code': 'IN', 'name': 'India'}","{'latitude': 22.76726, 'longitude': 75.8871}",22.76726,75.8871,1500,1500,Other,Other
3409415,15.9,19.28,10.3,5.63,15.01,413.58,2,3409415,"Sardar Patel Nagar, Dhanbad - JSPCB",,"{'id': 9, 'code': 'IN', 'name': 'India'}","{'latitude': 23.80569, 'longitude': 86.44268}",23.80569,86.44268,1500,1500,Other,Other
3409416,17.35,22.85,9.43,5.83,34.36,206.81,2,3409416,"Rati Talai, Banswara - RSPCB",,"{'id': 9, 'code': 'IN', 'name': 'India'}","{'latitude': 23.55519, 'longitude': 74.44001}",23.55519,74.44001,1500,1500,Other,Other
3409417,12.91,17.86,4.92,1.81,39.38,205.07,2,3409417,"Shastri Nagar, Chittorgarh - RSPCB",,"{'id': 9, 'code': 'IN', 'name': 'India'}","{'latitude': 24.892047, 'longitude': 74.623527}",24.892047,74.623527,1500,1500,Other,Other
3409418,24.63,31.93,4.41,1.09,82.54,387.22,2,3409418,"Khatikan Mohalla, Dausa - RSPCB",,"{'id': 9, 'code': 'IN', 'name': 'India'}","{'latitude': 26.895552, 'longitude': 76.334753}",26.895552,76.334753,1500,1500,Other,Other
3409419,12.9,57.21,1.14,0.78,54.56,108.73,3,3409419,"Railway Colony, Barmer - RSPCB",,"{'id': 9, 'code': 'IN', 'name': 'India'}","{'latitude': 25.747299, 'longitude': 71.393989}",25.747299,71.393989,1500,1500,Dust,Other
3409420,43.34,100.61,5.19,1.67,65.48,300.26,4,3409420,"Housing Board, Hanumangarh - RSPCB",,"{'id': 9, 'code': 'IN', 'name': 'India'}","{'latitude': 29.61075, 'longitude': 74.283608}",29.61075,74.283608,1500,1500,Dust,Dust
3409421,9.88,12.18,3.75,1.6,73.42,319.29,2,3409421,"Sahu Nagar, Sawai Madhopur - RSPCB",,"{'id': 9, 'code': 'IN', 'name': 'India'}","{'latitude': 26.031443, 'longitude': 76.359327}",26.031443,76.359327,1500,1500,Other,Other
3409422,28.15,46.42,12.31,1.04,50.82,425.56,3,3409422,"Indra Nagar, Jhunjhunu - RSPCB",,"{'id': 9, 'code': 'IN', 'name': 'India'}","{'latitude': 28.108988, 'longitude': 75.386577}",28.108988,75.386577,1500,1500,Other,Other
3409423,13.66,19.67,4.65,0.95,35.53,203.03,2,3409423,"Dhoinda, Rajsamand - RSPCB",,"{'id': 9, 'code': 'IN', 'name': 'India'}","{'latitude': 25.03636, 'longitude': 73.883502}",25.03636,73.883502,1500,1500,Other,Other
3409424,47.66,117.15,6.92,2.47,69.36,308.4,4,3409424,"Old City, Sri Ganganagar - RSPCB",,"{'id': 9, 'code': 'IN', 'name': 'India'}","{'latitude': 29.931624, 'longitude': 73.864511}",29.931624,73.864511,1500,1500,Dust,Dust
3409425,10.05,22.47,3.92,0.66,47.63,163.28,2,3409425,"Jhalamand, Jodhpur - RSPCB",,"{'id': 9, 'code': 'IN', 'name': 'India'}","{'latitude': 26.215415, 'longitude': 73.070156}",26.215415,73.070156,1500,1500,Other,Other
3409426,15.38,21.52,6.16,4.31,41.51,206.48,2,3409426,"Pragati Nagar, Pratapgarh - RSPCB",,"{'id': 9, 'code': 'IN', 'name': 'India'}","{'latitude': 24.041198, 'longitude': 74.780702}",24.041198,74.780702,1500,1500,Other,Other
3409427,17.99,29.27,6.74,1.43,62.93,341.11,2,3409427,"Radhakishan Pura, Sikar - RSPCB",,"{'id': 9, 'code': 'IN', 'name': 'India'}","{'latitude': 27.608912, 'longitude': 75.153302}",27.608912,75.153302,1500,1500,Other,Other
3409428,19.58,24.8,6.62,2.69,69.86,405.94,2,3409428,"Satyawati Vihar, Karauli - RSPCB",,"{'id': 9, 'code': 'IN', 'name': 'India'}","{'latitude': 26.506177, 'longitude': 77.025989}",26.506177,77.025989,1500,1500,Other,Other
3409429,10.15,12.24,3.81,1.25,41.92,182.91,2,3409429,"Rajlaxmi Nagar, Jhalawar - RSPCB",,"{'id': 9, 'code': 'IN', 'name': 'India'}","{'latitude': 24.588397, 'longitude': 76.172782}",24.588397,76.172782,1500,1500,Other,Other
3409430,12.12,16.83,4.09,0.93,71.98,315.68,2,3409430,"Mansarovar Sector-12, Jaipur - RSPCB",,"{'id': 9, 'code': 'IN', 'name': 'India'}","{'latitude': 26.843698, 'longitude': 75.766894}",26.843698,75.766894,1500,1500,Other,Other
3409431,10.05,22.47,3.92,0.66,47.63,163.28,2,3409431,"Digari Kalan, Jodhpur - RSPCB",,"{'id': 9, 'code': 'IN', 'name': 'India'}","{'latitude': 26.29581, 'longitude': 73.082283}",26.29581,73.082283,1500,1500,Other,Other
3409432,12.12,16.83,4.09,0.93,71.98,315.68,2,3409432,"Sector-2 Murlipura, Jaipur - RSPCB",,"{'id': 9, 'code': 'IN', 'name': 'India'}","{'latitude': 26.960669, 'longitude': 75.771817}",26.960669,75.771817,1500,1500,Other,Other
3409433,13.71,18.25,3.96,0.98,72.34,325.41,2,3409433,"RIICO Sitapura, Jaipur - RSPCB",,"{'id': 9, 'code': 'IN', 'name': 'India'}","{'latitude': 26.786682, 'longitude': 75.827928}",26.786682,75.827928,1500,1500,Other,Other
3409434,13.41,20.16,15.97,4.0,18.37,311.73,2,3409434,"Jigani, Bengaluru - KSPCB",,"{'id': 9, 'code': 'IN', 'name': 'India'}","{'latitude': 12.7816279, 'longitude': 77.6299145}",12.7816279,77.6299145,1500,1500,Other,Other
3409435,1.64,3.09,1.47,0.4,26.98,102.68,1,3409435,"Gavalinagar, Pimpri Chinchwad - MPCB",,"{'id': 9, 'code': 'IN', 'name': 'India'}","{'latitude': 18.63673, 'longitude': 73.82487}",18.63673,73.82487,1500,1500,Other,Other
3409436,1.4,3.05,0.6,0.21,35.21,85.33,1,3409436,"Park Street Wakad, Pimpri Chinchwad - MPCB",,"{'id': 9, 'code': 'IN', 'name': 'India'}","{'latitude': 18.59051, 'longitude': 73.77946}",18.59051,73.77946,1500,1500,Other,Other
3409437,1.57,3.38,1.02,0.32,29.85,95.27,1,3409437,"Thergaon, Pimpri Chinchwad - MPCB",,"{'id': 9, 'code': 'IN', 'name': 'India'}","{'latitude': 18.616318, 'longitude': 73.765797}",18.616318,73.765797,1500,1500,Other,Other
3409438,1.26,2.16,0.83,0.22,35.48,87.81,1,3409438,"Katraj Dairy, Pune - MPCB",,"{'id': 9, 'code': 'IN', 'name': 'India'}","{'latitude': 18.45445, 'longitude': 73.854155}",18.45445,73.854155,1500,1500,Other,Other
3409439,1.26,2.16,0.83,0.22,35.48,87.81,1,3409439,"Savitribai Phule Pune University, Pune - MPCB",,"{'id': 9, 'code': 'IN', 'name': 'India'}","{'latitude': 18.547056, 'longitude': 73.826908}",18.547056,73.826908,1500,1500,Other,Other
3409440,2.54,4.93,3.29,0.77,23.93,135.22,1,3409440,"Shivaji University, Kolhapur - MPCB",,"{'id': 9, 'code': 'IN', 'name': 'India'}","{'latitude': 16.6870449, 'longitude': 74.2505872}",16.6870449,74.2505872,1500,1500,Other,Other
3409441,2.54,4.93,3.29,0.77,23.93,135.22,1,3409441,"Sinchan Bhavan, Kolhapur - MPCB",,"{'id': 9, 'code': 'IN', 'name': 'India'}","{'latitude': 16.7143745, 'longitude': 74.2426398}",16.7143745,74.2426398,1500,1500,Other,Other
3409442,11.06,14.53,4.41,1.13,43.41,198.57,2,3409442,"Pratap Nagar, Bhilwara - RSPCB",,"{'id': 9, 'code': 'IN', 'name': 'India'}","{'latitude': 25.339605, 'longitude': 74.618883}",25.339605,74.618883,1500,1500,Other,Other
3409443,10.92,12.97,3.54,0.83,51.57,211.55,2,3409443,"New Colony, Bundi - RSPCB",,"{'id': 9, 'code': 'IN', 'name': 'India'}","{'latitude': 25.435774, 'longitude': 75.644272}",25.435774,75.644272,1500,1500,Other,Other
3409444,14.02,57.38,0.47,0.41,56.91,115.47,3,3409444,"Sadar Bazar, Jaisalmer - RSPCB",,"{'id': 9, 'code': 'IN', 'name': 'India'}","{'latitude': 26.912329, 'longitude': 70.909168}",26.912329,70.909168,1500,1500,Dust,Other
3409445,10.05,22.47,3.92,0.66,47.63,163.28,2,3409445,"Mandor, Jodhpur - RSPCB",,"{'id': 9, 'code': 'IN', 'name': 'India'}","{'latitude': 26.358805, 'longitude': 73.047444}",26.358805,73.047444,1500,1500,Other,Other
3409446,2.51,4.63,3.94,0.81,15.72,145.72,1,3409446,"Vijay Nagar, Sangli - MPCB",,"{'id': 9, 'code': 'IN', 'name': 'India'}","{'latitude': 16.843813, 'longitude': 74.615091}",16.843813,74.615091,1500,1500,Other,Other
3409447,9.39,11.28,3.44,1.32,49.28,235.36,1,3409447,"Bamboliya, Baran - RSPCB",,"{'id': 9, 'code': 'IN', 'name': 'India'}","{'latitude': 25.106006, 'longitude': 76.469948}",25.106006,76.469948,1500,1500,Other,Other
3409448,1.54,3.25,5.41,1.13,21.01,139.14,1,3409448,"Ratandeep Housing Society, Solapur - MPCB",,"{'id': 9, 'code': 'IN', 'name': 'India'}","{'latitude': 17.65439, 'longitude': 75.90649}",17.65439,75.90649,1500,1500,Other,Other
3409449,1.54,3.25,5.41,1.13,21.01,139.14,1,3409449,"Dnyaneshwar Nagar, Solapur - MPCB",,"{'id': 9, 'code': 'IN', 'name': 'India'}","{'latitude': 17.6336264, 'longitude': 75.9132495}",17.6336264,75.9132495,1500,1500,Other,Other
3409450,15.14,32.8,3.33,1.54,72.54,181.16,2,3409450,"Karni Colony, Nagaur - RSPCB",,"{'id': 9, 'code': 'IN', 'name': 'India'}","{'latitude': 27.213494, 'longitude': 73.734444}",27.213494,73.734444,1500,1500,Other,Other
3409451,8.19,15.07,8.9,5.49,15.58,244.59,1,3409451,"Pandav Nagari, Nashik - MPCB",,"{'id': 9, 'code': 'IN', 'name': 'India'}","{'latitude': 19.9591346, 'longitude': 73.7788008}",19.9591346,73.7788008,1500,1500,Other,Other
3409452,1.52,3.01,4.34,0.87,20.46,134.22,1,3409452,"Sawe Wadi, Latur - MPCB",,"{'id': 9, 'code': 'IN', 'name': 'India'}","{'latitude': 18.39963, 'longitude': 76.57452}",18.39963,76.57452,1500,1500,Other,Other
3409453,8.19,15.07,8.9,5.49,15.58,244.59,1,3409453,"MIDC Ambad, Nashik - MPCB",,"{'id': 9, 'code': 'IN', 'name': 'India'}","{'latitude': 19.95022, 'longitude': 73.73148}",19.95022,73.73148,1500,1500,Other,Other
3409454,13.42,22.34,14.82,8.0,8.52,337.68,2,3409454,"Hirawadi, Nashik - MPCB",,"{'id': 9, 'code': 'IN', 'name': 'India'}","{'latitude': 20.021503, 'longitude': 73.813844}",20.021503,73.813844,1500,1500,Other,Other
3409455,1.44,3.52,0.83,0.29,35.68,89.09,1,3409455,"Kamble Tarf Birwadi, Mahad - MPCB",,"{'id': 9, 'code': 'IN', 'name': 'India'}","{'latitude': 18.1023399, 'longitude': 73.4783687}",18.1023399,73.4783687,1500,1500,Other,Other
3409456,6.99,8.47,3.03,1.01,36.13,153.79,1,3409456,"Ramdaspeth, Akola - MPCB",,"{'id': 9, 'code': 'IN', 'name': 'India'}","{'latitude': 20.719516, 'longitude': 77.000253}",20.719516,77.000253,1500,1500,Other,Other
3409457,2.03,3.83,5.23,1.02,18.01,129.99,1,3409457,"Tarakpur, Ahmednagar - MPCB",,"{'id': 9, 'code': 'IN', 'name': 'India'}","{'latitude': 19.10122, 'longitude': 74.73339}",19.10122,74.73339,1500,1500,Other,Other
3409458,9.65,11.13,3.62,1.2,33.36,164.56,1,3409458,"Shivneri Colony, Amravati - MPCB",,"{'id': 9, 'code': 'IN', 'name': 'India'}","{'latitude': 20.9402359, 'longitude': 77.7895248}",20.9402359,77.7895248,1500,1500,Other,Other
3409459,9.65,11.13,3.62,1.2,33.36,164.56,1,3409459,"Shri Shivaji Science College, Amaravati - MPCB",,"{'id': 9, 'code': 'IN', 'name': 'India'}","{'latitude': 20.939198, 'longitude': 77.765701}",20.939198,77.765701,1500,1500,Other,Other
3409460,8.82,10.83,7.81,2.91,24.53,180.91,1,3409460,"MIDC Chilkalthana, Aurangabad - MPCB",,"{'id': 9, 'code': 'IN', 'name': 'India'}","{'latitude': 19.87562, 'longitude': 75.38731}",19.87562,75.38731,1500,1500,Other,Other
3409461,8.82,10.83,7.81,2.91,24.53,180.91,1,3409461,"Rachnakar Colony, Aurangabad - MPCB",,"{'id': 9, 'code': 'IN', 'name': 'India'}","{'latitude': 19.863756, 'longitude': 75.321188}",19.863756,75.321188,1500,1500,Other,Other
3409462,12.68,14.78,7.18,3.06,25.53,191.69,2,3409462,"Prabhat Colony, Jalgaon - MPCB",,"{'id': 9, 'code': 'IN', 'name': 'India'}","{'latitude': 21.001264, 'longitude': 75.565602}",21.001264,75.565602,1500,1500,Other,Other
3409463,7.39,8.79,4.01,1.26,31.64,151.17,1,3409463,"Old MIDC, Jalna - MPCB",,"{'id': 9, 'code': 'IN', 'name': 'India'}","{'latitude': 19.854616, 'longitude': 75.905894}",19.854616,75.905894,1500,1500,Other,Other
3409464,13.05,15.11,4.27,1.6,29.38,204.21,2,3409464,"Ambazari, Nagpur - MPCB",,"{'id': 9, 'code': 'IN', 'name': 'India'}","{'latitude': 21.121801, 'longitude': 79.04952}",21.121801,79.04952,1500,1500,Other,Other
3409465,13.05,15.11,4.27,1.6,29.38,204.21,2,3409465,"Ram Nagar, Nagpur - MPCB",,"{'id': 9, 'code': 'IN', 'name': 'India'}","{'latitude': 21.143383, 'longitude': 79.048912}",21.143383,79.048912,1500,1500,Other,Other
3409466,4.45,6.14,3.01,0.64,26.46,144.6,1,3409466,"Masoom Colony, Parbhani - MPCB",,"{'id': 9, 'code': 'IN', 'name': 'India'}","{'latitude': 19.265594, 'longitude': 76.761463}",19.265594,76.761463,1500,1500,Other,Other
3409467,4.65,6.81,4.4,0.88,20.58,165.18,1,3409467,"Sneh Nagar, Nanded - MPCB",,"{'id': 9, 'code': 'IN', 'name': 'India'}","{'latitude': 19.173852, 'longitude': 77.296291}",19.173852,77.296291,1500,1500,Other,Other
3409468,13.05,15.11,4.27,1.6,29.38,204.21,2,3409468,"Mahal, Nagpur - MPCB",,"{'id': 9, 'code': 'IN', 'name': 'India'}","{'latitude': 21.14472, 'longitude': 79.107595}",21.14472,79.107595,1500,1500,Other,Other
3409469,1.25,4.19,0.14,0.26,39.92,82.4,1,3409469,"Kasarvadavali, Thane - MPCB",,"{'id': 9, 'code': 'IN', 'name': 'India'}","{'latitude': 19.26777, 'longitude': 72.97182}",19.26777,72.97182,1500,1500,Other,Other
3409470,0.9,2.24,0.07,0.08,37.44,80.5,1,3409470,"Katrap, Badlapur - MPCB",,"{'id': 9, 'code': 'IN', 'name': 'India'}","{'latitude': 19.16485, 'longitude': 73.23409}",19.16485,73.23409,1500,1500,Other,Other
3409471,1.07,3.22,0.07,0.1,38.65,81.3,1,3409471,"Sector-2E Kalamboli, Navi Mumbai - MPCB",,"{'id': 9, 'code': 'IN', 'name': 'India'}","{'latitude': 19.02579, 'longitude': 73.10297}",19.02579,73.10297,1500,1500,Other,Other
3409472,1.25,4.19,0.14,0.26,39.92,82.4,1,3409472,"Upvan Fort, Thane - MPCB",,"{'id': 9, 'code': 'IN', 'name': 'India'}","{'latitude': 19.222279, 'longitude': 72.957979}",19.222279,72.957979,1500,1500,Other,Other
3409473,26.55,29.95,13.11,7.67,32.78,255.43,3,3409473,"Deopur, Dhule - MPCB",,"{'id': 9, 'code': 'IN', 'name': 'India'}","{'latitude': 20.918946, 'longitude': 74.776388}",20.918946,74.776388,1500,1500,Other,Other
3409474,15.46,17.96,12.33,6.67,25.99,218.16,2,3409474,"Mahesh Nagar, Malegaon - MPCB",,"{'id': 9, 'code': 'IN', 'name': 'India'}","{'latitude': 20.555712, 'longitude': 74.529236}",20.555712,74.529236,1500,1500,Other,Other
3409475,1.07,3.22,0.07,0.1,38.65,81.3,1,3409475,"Tondare-Taloja, Navi Mumbai - MPCB",,"{'id': 9, 'code': 'IN', 'name': 'India'}","{'latitude': 19.063, 'longitude': 73.1209}",19.063,73.1209,1500,1500,Other,Other
3409476,1.07,3.22,0.07,0.1,38.65,81.3,1,3409476,"CBD Belapur, Belapur - MPCB",,"{'id': 9, 'code': 'IN', 'name': 'India'}","{'latitude': 19.0243902, 'longitude': 73.0406721}",19.0243902,73.0406721,1500,1500,Other,Other
3409477,1.07,3.22,0.07,0.1,38.65,81.3,1,3409477,"Kopripada-Vashi, Navi Mumbai - MPCB",,"{'id': 9, 'code': 'IN', 'name': 'India'}","{'latitude': 19.090337, 'longitude': 73.014232}",19.090337,73.014232,1500,1500,Other,Other
3409478,1.25,4.19,0.14,0.26,39.92,82.4,1,3409478,"Bhayandar West, Mira-Bhayandar - MPCB",,"{'id': 9, 'code': 'IN', 'name': 'India'}","{'latitude': 19.296481, 'longitude': 72.840923}",19.296481,72.840923,1500,1500,Other,Other
3409479,1.25,4.2,0.07,0.13,39.86,82.11,1,3409479,"Mindspace-Malad West, Mumbai - MPCB",,"{'id': 9, 'code': 'IN', 'name': 'India'}","{'latitude': 19.1878657, 'longitude': 72.8304069}",19.1878657,72.8304069,1500,1500,Other,Other
3409480,1.35,4.95,0.06,0.14,41.07,82.57,1,3409480,"Bolinj, Virar - MPCB",,"{'id': 9, 'code': 'IN', 'name': 'India'}","{'latitude': 19.445821, 'longitude': 72.7988231}",19.445821,72.7988231,1500,1500,Other,Other
3409481,1.31,4.84,0.06,0.14,41.07,82.4,1,3409481,"Khaira, Boisar - MPCB",,"{'id': 9, 'code': 'IN', 'name': 'India'}","{'latitude': 19.786089, 'longitude': 72.757971}",19.786089,72.757971,1500,1500,Other,Other
3409482,1.25,4.2,0.07,0.13,39.86,82.11,1,3409482,"Bandra Kurla Complex, Mumbai - MPCB",,"{'id': 9, 'code': 'IN', 'name': 'India'}","{'latitude': 19.065931, 'longitude': 72.862131}",19.065931,72.862131,1500,1500,Other,Other
3409483,1.25,4.2,0.07,0.13,39.86,82.11,1,3409483,"Chembur, Mumbai - MPCB",,"{'id': 9, 'code': 'IN', 'name': 'India'}","{'latitude': 19.0364585, 'longitude': 72.8954371}",19.0364585,72.8954371,1500,1500,Other,Other
3409484,1.12,3.32,0.22,0.38,38.77,82.05,1,3409484,"Sidhi Vinayak Nagar, Ulhasnagar - MPCB",,"{'id': 9, 'code': 'IN', 'name': 'India'}","{'latitude': 19.235581, 'longitude': 73.159121}",19.235581,73.159121,1500,1500,Other,Other
3409485,1.12,3.32,0.22,0.38,38.77,82.05,1,3409485,"Gokul Nagar, Bhiwandi - MPCB",,"{'id': 9, 'code': 'IN', 'name': 'India'}","{'latitude': 19.309073, 'longitude': 73.057223}",19.309073,73.057223,1500,1500,Other,Other
3409486,1.25,4.2,0.07,0.13,39.86,82.11,1,3409486,"Kherwadi_Bandra East, Mumbai - MPCB",,"{'id': 9, 'code': 'IN', 'name': 'India'}","{'latitude': 19.0632143, 'longitude': 72.8456324}",19.0632143,72.8456324,1500,1500,Other,Other
3409487,1.07,3.22,0.07,0.1,38.65,81.3,1,3409487,"Sanpada, Navi Mumbai - MPCB",,"{'id': 9, 'code': 'IN', 'name': 'India'}","{'latitude': 19.0575752, 'longitude': 73.0151367}",19.0575752,73.0151367,1500,1500,Other,Other
3409488,14.27,16.15,2.18,1.35,52.33,386.22,2,3409488,"Suhagi, Jabalpur - JMC",,"{'id': 9, 'code': 'IN', 'name': 'India'}","{'latitude': 23.218135, 'longitude': 79.95777}",23.218135,79.95777,1500,1500,Other,Other
3409489,14.11,16.21,2.16,1.48,48.91,377.46,2,3409489,"Gupteshwar, Jabalpur - JMC",,"{'id': 9, 'code': 'IN', 'name': 'India'}","{'latitude': 23.142888, 'longitude': 79.916147}",23.142888,79.916147,1500,1500,Other,Other
3409492,5.85,9.91,6.16,1.44,25.78,182.3,1,3409492,"HB Colony, Vijayawada - APPCB",,"{'id': 9, 'code': 'IN', 'name': 'India'}","{'latitude': 16.536107, 'longitude': 80.594233}",16.536107,80.594233,1500,1500,Other,Other
3409493,9.37,13.78,5.24,1.45,35.7,179.92,1,3409493,"Rajiv Gandhi Park, Vijayawada - APPCB",,"{'id': 9, 'code': 'IN', 'name': 'India'}","{'latitude': 16.509717, 'longitude': 80.612222}",16.509717,80.612222,1500,1500,Other,Other
3409494,8.72,15.13,8.8,5.89,35.03,213.27,1,3409494,"Bhoiwada, Dungarpur - RSPCB",,"{'id': 9, 'code': 'IN', 'name': 'India'}","{'latitude': 23.837789, 'longitude': 73.714926}",23.837789,73.714926,1500,1500,Other,Other
3409495,11.93,31.09,10.93,1.94,29.42,257.74,2,3409495,"Mudtra Sili, Jalore - RSPCB",,"{'id': 9, 'code': 'IN', 'name': 'India'}","{'latitude': 25.344694, 'longitude': 72.626208}",25.344694,72.626208,1500,1500,Other,Other
3409497,0.78,2.61,0.11,0.12,37.36,82.43,1,3409497,"KHB Colony, Karwar - KSPCB",,"{'id': 9, 'code': 'IN', 'name': 'India'}","{'latitude': 14.816666, 'longitude': 74.141003}",14.816666,74.141003,1500,1500,Other,Other
3409498,10.83,12.72,4.82,1.74,34.07,160.83,2,3409498,"Residency Area, Indore - IMC",,"{'id': 9, 'code': 'IN', 'name': 'India'}","{'latitude': 22.7084, 'longitude': 75.8815}",22.7084,75.8815,1500,1500,Other,Other
3409499,10.83,12.72,4.82,1.74,34.07,160.83,2,3409499,"Regional Park, Indore - MPPCB",,"{'id': 9, 'code': 'IN', 'name': 'India'}","{'latitude': 22.678, 'longitude': 75.8559}",22.678,75.8559,1500,1500,Other,Other
3409500,10.83,12.72,4.82,1.74,34.07,160.83,2,3409500,"Maguda Nagar, Indore - IMC",,"{'id': 9, 'code': 'IN', 'name': 'India'}","{'latitude': 22.7524, 'longitude': 75.8872}",22.7524,75.8872,1500,1500,Other,Other
3409501,10.83,12.72,4.82,1.74,34.07,160.83,2,3409501,"Airport Area, Indore - IMC",,"{'id': 9, 'code': 'IN', 'name': 'India'}","{'latitude': 22.7289, 'longitude': 75.8076}",22.7289,75.8076,1500,1500,Other,Other
3409502,35.03,43.17,5.35,3.34,56.9,309.45,3,3409502,"Kalidaspur, Balasore - OSPCB",,"{'id': 9, 'code': 'IN', 'name': 'India'}","{'latitude': 21.51161, 'longitude': 86.89088}",21.51161,86.89088,1500,1500,Other,Other
3409503,4.0,4.99,1.67,0.33,21.65,243.59,1,3409503,"Forest Office, Barbil - OSPCB",,"{'id': 9, 'code': 'IN', 'name': 'India'}","{'latitude': 22.1166054, 'longitude': 85.3945546}",22.1166054,85.3945546,1500,1500,Other,Other
3409504,10.34,14.36,3.64,0.98,13.79,266.61,2,3409504,"Hakimapada, Angul - OSPCB",,"{'id': 9, 'code': 'IN', 'name': 'India'}","{'latitude': 20.832874, 'longitude': 85.104082}",20.832874,85.104082,1500,1500,Other,Other
3409505,31.4,34.89,3.7,4.14,58.9,238.82,3,3409505,"Lingraj Mandir, Bhubaneswar - OSPCB",,"{'id': 9, 'code': 'IN', 'name': 'India'}","{'latitude': 20.24079, 'longitude': 85.836784}",20.24079,85.836784,1500,1500,Other,Other
3409506,33.53,38.2,3.99,3.42,47.43,262.36,3,3409506,"CDA Area, Cuttack - OSPCB",,"{'id': 9, 'code': 'IN', 'name': 'India'}","{'latitude': 20.48891, 'longitude': 85.84768}",20.48891,85.84768,1500,1500,Other,Other
3409507,36.99,42.87,3.75,2.08,39.68,281.72,3,3409507,"Ferro Chrome Colony, Byasanagar - OSPCB",,"{'id': 9, 'code': 'IN', 'name': 'India'}","{'latitude': 20.94185, 'longitude': 86.1151}",20.94185,86.1151,1500,1500,Other,Other
3409508,31.4,34.89,3.7,4.14,58.9,238.82,3,3409508,"Patia, Bhubaneswar - OSPCB",,"{'id': 9, 'code': 'IN', 'name': 'India'}","{'latitude': 20.34652, 'longitude': 85.8163}",20.34652,85.8163,1500,1500,Other,Other
3409509,9.0,10.12,0.8,0.53,70.08,158.29,2,3409509,"SVSPA Campus, Barrackpore - WBPCB",,"{'id': 9, 'code': 'IN', 'name': 'India'}","{'latitude': 22.7605581, 'longitude': 88.3617589}",22.7605581,88.3617589,1500,1500,Other,Other
3409510,1.42,4.79,0.08,0.15,39.38,82.18,1,3409510,"Byculla, Mumbai - BMC",,"{'id': 9, 'code': 'IN', 'name': 'India'}","{'latitude': 18.9767, 'longitude': 72.838}",18.9767,72.838,1500,1500,Other,Other
3409511,1.25,4.2,0.07,0.13,39.86,82.11,1,3409511,"Shivaji Nagar, Mumbai - BMC",,"{'id': 9, 'code': 'IN', 'name': 'India'}","{'latitude': 19.060498, 'longitude': 72.923356}",19.060498,72.923356,1500,1500,Other,Other
3409512,1.25,4.19,0.14,0.26,39.92,82.4,1,3409512,"Kandivali West, Mumbai - BMC",,"{'id': 9, 'code': 'IN', 'name': 'India'}","{'latitude': 19.215859, 'longitude': 72.831718}",19.215859,72.831718,1500,1500,Other,Other
3409513,1.25,4.2,0.07,0.13,39.86,82.11,1,3409513,"Sewri, Mumbai - BMC",,"{'id': 9, 'code': 'IN', 'name': 'India'}","{'latitude': 19.000084, 'longitude': 72.85673}",19.000084,72.85673,1500,1500,Other,Other
3409514,1.25,4.2,0.07,0.13,39.86,82.11,1,3409514,"Ghatkopar, Mumbai - BMC",,"{'id': 9, 'code': 'IN', 'name': 'India'}","{'latitude': 19.083694, 'longitude': 72.920967}",19.083694,72.920967,1500,1500,Other,Other
3409515,14.11,16.21,2.16,1.48,48.91,377.46,2,3409515,"Govindh Bhavan Colony, Jabalpur - MPPCB",,"{'id': 9, 'code': 'IN', 'name': 'India'}","{'latitude': 23.163174, 'longitude': 79.973061}",23.163174,79.973061,1500,1500,Other,Other
3409516,19.85,27.64,25.35,7.6,19.67,417.33,2,3409516,"SIPCOT Nathampannai, Pudukottai - TNPCB",,"{'id': 9, 'code': 'IN', 'name': 'India'}","{'latitude': 10.423417, 'longitude': 78.784889}",10.423417,78.784889,1500,1500,Other,Other
3409517,6.14,10.41,5.97,1.86,16.88,208.35,1,3409517,"Collectorate Office, Virudhunagar - TNPCB",,"{'id': 9, 'code': 'IN', 'name': 'India'}","{'latitude': 9.559382, 'longitude': 77.948828}",9.559382,77.948828,1500,1500,Other,Other
3409518,9.37,13.78,5.24,1.45,35.7,179.92,1,3409518,"Rajiv Nagar, Vijayawada - APPCB",,"{'id': 9, 'code': 'IN', 'name': 'India'}","{'latitude': 16.554731, 'longitude': 80.64911}",16.554731,80.64911,1500,1500,Other,Other
3409519,63.03,83.56,16.44,2.63,43.67,553.79,4,3409519,"Vasundhara Nagar_UIT, Bhiwadi - RSPCB",,"{'id': 9, 'code': 'IN', 'name': 'India'}","{'latitude': 28.207266, 'longitude': 76.829265}",28.207266,76.829265,1500,1500,Burning,Burning
3409520,20.04,24.39,9.22,6.55,15.76,367.37,2,3409520,"PCBL Residential Complex, Durgapur - WBPCB",,"{'id': 9, 'code': 'IN', 'name': 'India'}","{'latitude': 23.508764, 'longitude': 87.35444}",23.508764,87.35444,1500,1500,Other,Other
3409521,21.76,26.56,13.2,8.01,10.66,434.34,2,3409521,"Evelyn Lodge, Asansol - WBPCB",,"{'id': 9, 'code': 'IN', 'name': 'India'}","{'latitude': 23.697936, 'longitude': 86.944395}",23.697936,86.944395,1500,1500,Other,Other
3409522,24.67,30.43,14.59,8.82,7.08,458.92,2,3409522,"Mahabir Colliery, Asansol - WBPCB",,"{'id': 9, 'code': 'IN', 'name': 'India'}","{'latitude': 23.618183, 'longitude': 87.105718}",23.618183,87.105718,1500,1500,Other,Other
3409523,1.57,3.38,1.02,0.32,29.85,95.27,1,3409523,"Bhumkar Nagar, Pune - IITM",,"{'id': 9, 'code': 'IN', 'name': 'India'}","{'latitude': 18.60577, 'longitude': 73.749976}",18.60577,73.749976,1500,1500,Other,Other
3409524,9.02,10.56,0.66,0.41,70.8,153.33,2,3409524,"Botanical Garden, Howrah - WBPCB",,"{'id': 9, 'code': 'IN', 'name': 'India'}","{'latitude': 22.554954, 'longitude': 88.292568}",22.554954,88.292568,1500,1500,Other,Other
3409525,24.67,30.43,14.59,8.82,7.08,458.92,2,3409525,"Trivenidevi Bhalotia College, Asansol - WBPCB",,"{'id': 9, 'code': 'IN', 'name': 'India'}","{'latitude': 23.616515, 'longitude': 87.119133}",23.616515,87.119133,1500,1500,Other,Other
3409526,1.26,2.16,0.83,0.22,35.48,87.81,1,3409526,"Panchawati_Pashan, Pune - IITM",,"{'id': 9, 'code': 'IN', 'name': 'India'}","{'latitude': 18.536457, 'longitude': 73.805454}",18.536457,73.805454,1500,1500,Other,Other
3409527,8.77,13.63,4.44,1.0,0.67,257.35,1,3409527,"SIPCOT Industrial Park, Perundurai - TNPCB",,"{'id': 9, 'code': 'IN', 'name': 'India'}","{'latitude': 11.258242, 'longitude': 77.552761}",11.258242,77.552761,1500,1500,Other,Other
3409528,1.57,3.38,1.02,0.32,29.85,95.27,1,3409528,"Savta Mali Nagar, Pimpri-Chinchwad - IITM",,"{'id': 9, 'code': 'IN', 'name': 'India'}","{'latitude': 18.614767, 'longitude': 73.799516}",18.614767,73.799516,1500,1500,Other,Other
3409529,20.04,24.39,9.22,6.55,15.76,367.37,2,3409529,"Mahishkapur Road_B-Zone, Durgapur - WBPCB",,"{'id': 9, 'code': 'IN', 'name': 'India'}","{'latitude': 23.567923, 'longitude': 87.306843}",23.567923,87.306843,1500,1500,Other,Other
3409530,9.0,10.12,0.8,0.53,70.08,158.29,2,3409530,"Dasnagar, Howrah - WBPCB",,"{'id': 9, 'code': 'IN', 'name': 'India'}","{'latitude': 22.6025571, 'longitude': 88.3105664}",22.6025571,88.3105664,1500,1500,Other,Other
3410003,0.53,1.26,0.07,0.03,32.75,78.81,1,3410003,"Police Line, Sri Vijaya Puram - ANPCC",,"{'id': 9, 'code': 'IN', 'name': 'India'}","{'latitude': 11.654054, 'longitude': 92.734055}",11.654054,92.734055,1500,1500,Other,Other
3410004,63.03,83.56,16.44,2.63,43.67,553.79,4,3410004,"Amity University, Panchgaon - IITM",,"{'id': 9, 'code': 'IN', 'name': 'India'}","{'latitude': 28.3153, 'longitude': 76.9143}",28.3153,76.9143,1500,1500,Burning,Burning
3410005,1.26,2.16,0.83,0.22,35.48,87.81,1,3410005,"Dhankawadi, Pune - IITM",,"{'id': 9, 'code': 'IN', 'name': 'India'}","{'latitude': 18.459883, 'longitude': 73.852193}",18.459883,73.852193,1500,1500,Other,Other
3774726,14.81,23.2,32.67,4.99,3.93,506.34,2,3774726,"Ponnusamy Nagar, Namakkal - TNPCB",,"{'id': 9, 'code': 'IN', 'name': 'India'}","{'latitude': 11.273992, 'longitude': 78.163545}",11.273992,78.163545,1500,1500,Other,Other
4296966,73.57,105.42,15.96,3.28,76.19,685.51,4,4296966,Buraq integrated solutions,,"{'id': 109, 'code': 'PK', 'name': 'Pakistan'}","{'latitude': 33.643208, 'longitude': 73.068119}",33.643208,73.068119,1500,1500,Burning,Burning
4512170,42.83,71.84,14.96,2.51,66.1,498.65,3,4512170,"Altair's Home - Bemina, Srinagar",,"{'id': 9, 'code': 'IN', 'name': 'India'}","{'latitude': 34.0702669, 'longitude': 74.7754688}",34.0702669,74.7754688,1500,1500,Burning,Burning
4515157,70.87,96.33,9.09,1.77,41.95,581.93,4,4515157,"Barki, Lahore",,"{'id': 109, 'code': 'PK', 'name': 'Pakistan'}","{'latitude': 31.4591591, 'longitude': 74.5396309}",31.4591591,74.5396309,1500,1500,Burning,Burning
4527035,69.85,94.66,8.34,2.06,52.63,560.67,4,4527035,"BAM,  Civil Secretariat",,"{'id': 109, 'code': 'PK', 'name': 'Pakistan'}","{'latitude': 31.565942, 'longitude': 74.2993626}",31.565942,74.2993626,1500,1500,Burning,Burning
4527173,70.87,96.33,9.09,1.77,41.95,581.93,4,4527173,Learning Alliance International ,,"{'id': 109, 'code': 'PK', 'name': 'Pakistan'}","{'latitude': 31.525621, 'longitude': 74.436078}",31.525621,74.436078,1500,1500,Burning,Burning
4527306,70.87,96.33,9.09,1.77,41.95,581.93,4,4527306,G3 Engineering Consultants,,"{'id': 109, 'code': 'PK', 'name': 'Pakistan'}","{'latitude': 31.5046343, 'longitude': 74.4302545}",31.5046343,74.4302545,1500,1500,Burning,Burning
4527402,70.87,96.33,9.09,1.77,41.95,581.93,4,4527402,"Hussainy House, HBFC Society",,"{'id': 109, 'code': 'PK', 'name': 'Pakistan'}","{'latitude': 31.4571645, 'longitude': 74.4106586}",31.4571645,74.4106586,1500,1500,Burning,Burning
4535267,69.85,94.66,8.34,2.06,52.63,560.67,4,4535267,EPA Hockey Stadium (DG) ,,"{'id': 109, 'code': 'PK', 'name': 'Pakistan'}","{'latitude': 31.511995, 'longitude': 74.335551}",31.511995,74.335551,1500,1500,Burning,Burning
4554236,73.57,105.42,15.96,3.28,76.19,685.51,4,4554236,Rawalpindi Women University,,"{'id': 109, 'code': 'PK', 'name': 'Pakistan'}","{'latitude': 33.6452478, 'longitude': 73.0646181}",33.6452478,73.0646181,1500,1500,Burning,Burning
4554729,69.85,94.66,8.34,2.06,52.63,560.67,4,4554729,Wild Life & Parks Sandha Road,,"{'id': 109, 'code': 'PK', 'name': 'Pakistan'}","{'latitude': 31.562302, 'longitude': 74.3027031}",31.562302,74.3027031,1500,1500,Burning,Burning
4555745,74.2,99.85,7.57,2.19,50.67,592.01,4,4555745,"Forest Department, Ravi Road",,"{'id': 109, 'code': 'PK', 'name': 'Pakistan'}","{'latitude': 31.602875, 'longitude': 74.300927}",31.602875,74.300927,1500,1500,Burning,Burning
4556719,73.57,105.42,15.96,3.28,76.19,685.51,4,4556719,"Wasa 3, OHR Office ",,"{'id': 109, 'code': 'PK', 'name': 'Pakistan'}","{'latitude': 33.650973, 'longitude': 73.0788731}",33.650973,73.0788731,1500,1500,Burning,Burning
4557686,70.87,96.33,9.09,1.77,41.95,581.93,4,4557686,"Ac Office Shalimar Complex, Wahga",,"{'id': 109, 'code': 'PK', 'name': 'Pakistan'}","{'latitude': 31.574289, 'longitude': 74.447898}",31.574289,74.447898,1500,1500,Burning,Burning
4565419,73.57,105.42,15.96,3.28,76.19,685.51,4,4565419,Social Welfare Department,,"{'id': 109, 'code': 'PK', 'name': 'Pakistan'}","{'latitude': 33.6278837, 'longitude': 73.0924564}",33.6278837,73.0924564,1500,1500,Burning,Burning
4565932,73.57,105.42,15.96,3.28,76.19,685.51,4,4565932,WASA Head Office 1,,"{'id': 109, 'code': 'PK', 'name': 'Pakistan'}","{'latitude': 33.6022915, 'longitude': 73.0560117}",33.6022915,73.0560117,1500,1500,Burning,Burning
4565933,69.85,94.66,8.34,2.06,52.63,560.67,4,4565933,"IEEE, Punjab University, LHR",,"{'id': 109, 'code': 'PK', 'name': 'Pakistan'}","{'latitude': 31.495322, 'longitude': 74.295056}",31.495322,74.295056,1500,1500,Burning,Burning
4566426,73.57,105.42,15.96,3.28,76.19,685.51,4,4566426,Punjab Food Authority,,"{'id': 109, 'code': 'PK', 'name': 'Pakistan'}","{'latitude': 33.6304566, 'longitude': 73.0729694}",33.6304566,73.0729694,1500,1500,Burning,Burning
4566427,69.85,94.66,8.34,2.06,52.63,560.67,4,4566427,"Abdullah Khokhar, House Johar Town",,"{'id': 109, 'code': 'PK', 'name': 'Pakistan'}","{'latitude': 31.460056, 'longitude': 74.280672}",31.460056,74.280672,1500,1500,Burning,Burning
4567363,73.57,105.42,15.96,3.28,76.19,685.51,4,4567363,Public Health Engineering,,"{'id': 109, 'code': 'PK', 'name': 'Pakistan'}","{'latitude': 33.6335684, 'longitude': 73.0614477}",33.6335684,73.0614477,1500,1500,Burning,Burning
4567364,86.02,116.02,13.69,3.95,84.9,707.56,5,4567364,"Conservator of Forest, North zone",,"{'id': 109, 'code': 'PK', 'name': 'Pakistan'}","{'latitude': 33.540583, 'longitude': 73.116917}",33.540583,73.116917,1500,1500,Burning,Burning
4567932,73.57,105.42,15.96,3.28,76.19,685.51,4,4567932,PHA Head Office,,"{'id': 109, 'code': 'PK', 'name': 'Pakistan'}","{'latitude': 33.6055187, 'longitude': 73.0611438}",33.6055187,73.0611438,1500,1500,Burning,Burning
4568423,69.85,94.66,8.34,2.06,52.63,560.67,4,4568423,"Model Town, CD Ground",,"{'id': 109, 'code': 'PK', 'name': 'Pakistan'}","{'latitude': 31.491676, 'longitude': 74.313288}",31.491676,74.313288,1500,1500,Burning,Burning
4568424,68.75,100.5,10.61,2.62,80.7,583.6,4,4568424,Raja Rehan E11/4,,"{'id': 109, 'code': 'PK', 'name': 'Pakistan'}","{'latitude': 33.698979, 'longitude': 72.981907}",33.698979,72.981907,1500,1500,Burning,Burning
4579733,73.57,105.42,15.96,3.28,76.19,685.51,4,4579733,WASA 2 (Sufaid tanki),,"{'id': 109, 'code': 'PK', 'name': 'Pakistan'}","{'latitude': 33.6386254, 'longitude': 73.069351}",33.6386254,73.069351,1500,1500,Burning,Burning
4600078,50.73,92.56,5.14,1.49,85.62,408.67,4,4600078,Abasyn University,,"{'id': 109, 'code': 'PK', 'name': 'Pakistan'}","{'latitude': 34.0321798, 'longitude': 71.5864122}",34.0321798,71.5864122,1500,1500,Burning,Burning
4605118,54.15,94.98,4.8,1.41,82.05,417.89,4,4605118,Small industrial development board(SIDB),,"{'id': 109, 'code': 'PK', 'name': 'Pakistan'}","{'latitude': 33.9817904, 'longitude': 71.5567563}",33.9817904,71.5567563,1500,1500,Burning,Burning
4605119,69.85,94.66,8.34,2.06,52.63,560.67,4,4605119,Sensor Smog Gun (EDU),,"{'id': 109, 'code': 'PK', 'name': 'Pakistan'}","{'latitude': 31.454026, 'longitude': 74.29979}",31.454026,74.29979,1500,1500,Burning,Burning
4605120,54.15,94.98,4.8,1.41,82.05,417.89,4,4605120,Hayatabad phase 7,,"{'id': 109, 'code': 'PK', 'name': 'Pakistan'}","{'latitude': 33.9687263, 'longitude': 71.4147126}",33.9687263,71.4147126,1500,1500,Burning,Burning
4607067,50.73,92.56,5.14,1.49,85.62,408.67,4,4607067,Shaheed Benazir Women University,,"{'id': 109, 'code': 'PK', 'name': 'Pakistan'}","{'latitude': 34.0559766, 'longitude': 71.5646276}",34.0559766,71.5646276,1500,1500,Burning,Burning
4607068,54.15,94.98,4.8,1.41,82.05,417.89,4,4607068,NIUIP,,"{'id': 109, 'code': 'PK', 'name': 'Pakistan'}","{'latitude': 33.9935232, 'longitude': 71.4440704}",33.9935232,71.4440704,1500,1500,Burning,Burning
4608419,54.75,96.56,5.03,1.6,85.96,404.48,4,4608419,IMSciences Institute Peshwar,,"{'id': 109, 'code': 'PK', 'name': 'Pakistan'}","{'latitude': 33.9581864, 'longitude': 71.3343512}",33.9581864,71.3343512,1500,1500,Burning,Burning
4608421,69.85,94.66,8.34,2.06,52.63,560.67,4,4608421,"Assistant Commissioner Office, Allama Iqbal ",,"{'id': 109, 'code': 'PK', 'name': 'Pakistan'}","{'latitude': 31.47188, 'longitude': 74.239512}",31.47188,74.239512,1500,1500,Burning,Burning
4608422,73.57,105.42,15.96,3.28,76.19,685.51,4,4608422,House # 1 Park Road F-8/1 Sector,,"{'id': 109, 'code': 'PK', 'name': 'Pakistan'}","{'latitude': 33.7102628, 'longitude': 73.0312832}",33.7102628,73.0312832,1500,1500,Burning,Burning
4608423,54.15,94.98,4.8,1.41,82.05,417.89,4,4608423,WWF Office ,,"{'id': 109, 'code': 'PK', 'name': 'Pakistan'}","{'latitude': 33.9905988, 'longitude': 71.4996196}",33.9905988,71.4996196,1500,1500,Burning,Burning
4609261,65.51,89.48,9.1,1.92,54.59,529.38,4,4609261,Ac Office Raiwind,,"{'id': 109, 'code': 'PK', 'name': 'Pakistan'}","{'latitude': 31.299695, 'longitude': 74.22505}",31.299695,74.22505,1500,1500,Burning,Burning
4609262,54.15,94.98,4.8,1.41,82.05,417.89,4,4609262,Directorate General Local Gov ,,"{'id': 109, 'code': 'PK', 'name': 'Pakistan'}","{'latitude': 33.9916663, 'longitude': 71.435054}",33.9916663,71.435054,1500,1500,Burning,Burning
4609307,54.15,94.98,4.8,1.41,82.05,417.89,4,4609307,Khyber Medical University ,,"{'id': 109, 'code': 'PK', 'name': 'Pakistan'}","{'latitude': 33.989115, 'longitude': 71.4359101}",33.989115,71.4359101,1500,1500,Burning,Burning
4609353,65.51,89.48,9.1,1.92,54.59,529.38,4,4609353,"AC OFFICE NISHTAR, GAJUMATA",,"{'id': 109, 'code': 'PK', 'name': 'Pakistan'}","{'latitude': 31.377378, 'longitude': 74.350574}",31.377378,74.350574,1500,1500,Burning,Burning
4609354,50.73,92.56,5.14,1.49,85.62,408.67,4,4609354,Ashrafia Colony,,"{'id': 109, 'code': 'PK', 'name': 'Pakistan'}","{'latitude': 34.0268637, 'longitude': 71.5772755}",34.0268637,71.5772755,1500,1500,Burning,Burning
4614770,54.15,94.98,4.8,1.41,82.05,417.89,4,4614770,EPA Office,,"{'id': 109, 'code': 'PK', 'name': 'Pakistan'}","{'latitude': 33.977293, 'longitude': 71.5654702}",33.977293,71.5654702,1500,1500,Burning,Burning
4616262,73.57,105.42,15.96,3.28,76.19,685.51,4,4616262,District Health Authority,,"{'id': 109, 'code': 'PK', 'name': 'Pakistan'}","{'latitude': 33.6333084, 'longitude': 73.0488857}",33.6333084,73.0488857,1500,1500,Burning,Burning
4618315,63.58,95.71,24.66,3.12,60.08,769.21,4,4618315,DC Office Murree,,"{'id': 109, 'code': 'PK', 'name': 'Pakistan'}","{'latitude': 33.9065558, 'longitude': 73.3980069}",33.9065558,73.3980069,1500,1500,Burning,Burning
4618814,69.85,94.66,8.34,2.06,52.63,560.67,4,4618814,"The Bank of Punjab, Head Office, BOP Tower, Gulberg III.",,"{'id': 109, 'code': 'PK', 'name': 'Pakistan'}","{'latitude': 31.508051, 'longitude': 74.337544}",31.508051,74.337544,1500,1500,Burning,Burning
4629400,114.18,151.06,13.86,6.29,61.67,850.68,5,4629400,"Muncipal Corporation, Sialkot",,"{'id': 109, 'code': 'PK', 'name': 'Pakistan'}","{'latitude': 32.494596, 'longitude': 74.541963}",32.494596,74.541963,1500,1500,Burning,Burning
4629401,114.18,151.06,13.86,6.29,61.67,850.68,5,4629401,SCCI ,,"{'id': 109, 'code': 'PK', 'name': 'Pakistan'}","{'latitude': 32.507924, 'longitude': 74.537957}",32.507924,74.537957,1500,1500,Burning,Burning
4630451,114.18,151.06,13.86,6.29,61.67,850.68,5,4630451,Dc Office Sialkot,,"{'id': 109, 'code': 'PK', 'name': 'Pakistan'}","{'latitude': 32.505286, 'longitude': 74.532952}",32.505286,74.532952,1500,1500,Burning,Burning
4645154,54.15,94.98,4.8,1.41,82.05,417.89,4,4645154,Urban Policy Unit,,"{'id': 109, 'code': 'PK', 'name': 'Pakistan'}","{'latitude': 33.9899378, 'longitude': 71.4991258}",33.9899378,71.4991258,1500,1500,Burning,Burning
4663956,62.28,82.71,15.03,2.45,48.04,520.72,4,4663956,"Santushti Apartments, Vasant Kunj",,"{'id': 9, 'code': 'IN', 'name': 'India'}","{'latitude': 28.5266, 'longitude': 77.1493}",28.5266,77.1493,1500,1500,Burning,Burning
4698865,69.85,94.66,8.34,2.06,52.63,560.67,4,4698865,AC Saddar/Cantt ,,"{'id': 109, 'code': 'PK', 'name': 'Pakistan'}","{'latitude': 31.545217, 'longitude': 74.380569}",31.545217,74.380569,1500,1500,Burning,Burning
4699919,69.85,94.66,8.34,2.06,52.63,560.67,4,4699919,Pak Arab Housing Society phase 2 ,,"{'id': 109, 'code': 'PK', 'name': 'Pakistan'}","{'latitude': 31.418387, 'longitude': 74.345283}",31.418387,74.345283,1500,1500,Burning,Burning
4700982,69.85,94.66,8.34,2.06,52.63,560.67,4,4700982,Samanabad,,"{'id': 109, 'code': 'PK', 'name': 'Pakistan'}","{'latitude': 31.541983, 'longitude': 74.298065}",31.541983,74.298065,1500,1500,Burning,Burning
4708999,114.18,151.06,13.86,6.29,61.67,850.68,5,4708999,WWF,,"{'id': 109, 'code': 'PK', 'name': 'Pakistan'}","{'latitude': 32.4598818, 'longitude': 74.5130851}",32.4598818,74.5130851,1500,1500,Burning,Burning
4710567,114.18,151.06,13.86,6.29,61.67,850.68,5,4710567,Regional Ombudsman Office,,"{'id': 109, 'code': 'PK', 'name': 'Pakistan'}","{'latitude': 32.48209, 'longitude': 74.52664}",32.48209,74.52664,1500,1500,Burning,Burning
4712030,114.18,151.06,13.86,6.29,61.67,850.68,5,4712030,PSGMEA,,"{'id': 109, 'code': 'PK', 'name': 'Pakistan'}","{'latitude': 32.487371, 'longitude': 74.512444}",32.487371,74.512444,1500,1500,Burning,Burning
4712608,114.18,151.06,13.86,6.29,61.67,850.68,5,4712608,"Craftive  Apparels, Defence Road",,"{'id': 109, 'code': 'PK', 'name': 'Pakistan'}","{'latitude': 32.49447, 'longitude': 74.498977}",32.49447,74.498977,1500,1500,Burning,Burning
4720578,3.81,7.4,9.14,3.66,16.95,173.45,1,4720578,Hyderabad,,"{'id': 9, 'code': 'IN', 'name': 'India'}","{'latitude': 17.492676, 'longitude': 78.405394}",17.492676,78.405394,1500,1500,Other,Other
4721112,114.18,151.06,13.86,6.29,61.67,850.68,5,4721112,Agriculture  Office Emnabad Road,,"{'id': 109, 'code': 'PK', 'name': 'Pakistan'}","{'latitude': 32.465555, 'longitude': 74.523957}",32.465555,74.523957,1500,1500,Burning,Burning
4721113,114.18,151.06,13.86,6.29,61.67,850.68,5,4721113,SWMC,,"{'id': 109, 'code': 'PK', 'name': 'Pakistan'}","{'latitude': 32.516512, 'longitude': 74.51071}",32.516512,74.51071,1500,1500,Burning,Burning
4722655,114.18,151.06,13.86,6.29,61.67,850.68,5,4722655,Divisional Forest office Kotli Araian,,"{'id': 109, 'code': 'PK', 'name': 'Pakistan'}","{'latitude': 32.59938, 'longitude': 74.479594}",32.59938,74.479594,1500,1500,Burning,Burning
4723667,114.18,151.06,13.86,6.29,61.67,850.68,5,4723667,Cheema Palace,,"{'id': 109, 'code': 'PK', 'name': 'Pakistan'}","{'latitude': 32.54477, 'longitude': 74.569535}",32.54477,74.569535,1500,1500,Burning,Burning
4725232,117.06,152.97,17.98,6.03,58.5,957.07,5,4725232,AC  Sambrial,,"{'id': 109, 'code': 'PK', 'name': 'Pakistan'}","{'latitude': 32.477858, 'longitude': 74.337355}",32.477858,74.337355,1500,1500,Burning,Burning
4755317,49.84,103.7,3.36,8.59,100.69,279.22,4,4755317,Walled cities Authority office ,,"{'id': 109, 'code': 'PK', 'name': 'Pakistan'}","{'latitude': 30.19881, 'longitude': 71.46818}",30.19881,71.46818,1500,1500,Dust,Dust
4756281,51.01,100.15,3.78,9.94,102.36,284.02,4,4756281,"WASA office, Chungi #09",,"{'id': 109, 'code': 'PK', 'name': 'Pakistan'}","{'latitude': 30.20645, 'longitude': 71.47604}",30.20645,71.47604,1500,1500,Burning,Burning
4757305,69.85,94.66,8.34,2.06,52.63,560.67,4,4757305,Forman Christian College & Chartered University,,"{'id': 109, 'code': 'PK', 'name': 'Pakistan'}","{'latitude': 31.521146, 'longitude': 74.333954}",31.521146,74.333954,1500,1500,Burning,Burning
4757794,45.27,94.73,3.56,8.77,99.65,268.38,3,4757794,"Multan Industrial EState, Board of Management",,"{'id': 109, 'code': 'PK', 'name': 'Pakistan'}","{'latitude': 30.12721, 'longitude': 71.38191}",30.12721,71.38191,1500,1500,Dust,Dust
4758328,45.27,94.73,3.56,8.77,99.65,268.38,3,4758328,Multan Industrial Estate,,"{'id': 109, 'code': 'PK', 'name': 'Pakistan'}","{'latitude': 30.12714, 'longitude': 71.38146}",30.12714,71.38146,1500,1500,Dust,Dust
4760841,49.84,103.7,3.36,8.59,100.69,279.22,4,4760841,Metropolitan corporation office ,,"{'id': 109, 'code': 'PK', 'name': 'Pakistan'}","{'latitude': 30.17631, 'longitude': 71.48861}",30.17631,71.48861,1500,1500,Dust,Dust
4767239,51.01,100.15,3.78,9.94,102.36,284.02,4,4767239,NFC IET Multan,,"{'id': 109, 'code': 'PK', 'name': 'Pakistan'}","{'latitude': 30.22382, 'longitude': 71.53613}",30.22382,71.53613,1500,1500,Burning,Burning
4769229,51.01,100.15,3.78,9.94,102.36,284.02,4,4769229,women university,,"{'id': 109, 'code': 'PK', 'name': 'Pakistan'}","{'latitude': 30.2515, 'longitude': 71.57288}",30.2515,71.57288,1500,1500,Burning,Burning
4770827,49.84,103.7,3.36,8.59,100.69,279.22,4,4770827,Muhammad Nawaz Sharif University of  Agriculture,,"{'id': 109, 'code': 'PK', 'name': 'Pakistan'}","{'latitude': 30.1477, 'longitude': 71.44326}",30.1477,71.44326,1500,1500,Dust,Dust
4771378,49.84,103.7,3.36,8.59,100.69,279.22,4,4771378,Cantt Public School & College,,"{'id': 109, 'code': 'PK', 'name': 'Pakistan'}","{'latitude': 30.1827, 'longitude': 71.43621}",30.1827,71.43621,1500,1500,Dust,Dust
4779254,51.01,100.15,3.78,9.94,102.36,284.02,4,4779254,District officer Industries / Registrar of Firms,,"{'id': 109, 'code': 'PK', 'name': 'Pakistan'}","{'latitude': 30.207826, 'longitude': 71.439894}",30.207826,71.439894,1500,1500,Burning,Burning
4779736,51.01,100.15,3.78,9.94,102.36,284.02,4,4779736,"WASA office, Chungi #09",,"{'id': 109, 'code': 'PK', 'name': 'Pakistan'}","{'latitude': 30.20654, 'longitude': 71.4762}",30.20654,71.4762,1500,1500,Burning,Burning
4780772,51.01,100.15,3.78,9.94,102.36,284.02,4,4780772,"UC office, khushal colony",,"{'id': 109, 'code': 'PK', 'name': 'Pakistan'}","{'latitude': 30.20817, 'longitude': 71.49625}",30.20817,71.49625,1500,1500,Burning,Burning
4782810,32.03,115.61,0.71,1.06,95.42,209.02,4,4782810,"House#E/21 B,Khayaban Ali Housing scheme ",,"{'id': 109, 'code': 'PK', 'name': 'Pakistan'}","{'latitude': 29.35128, 'longitude': 71.69255}",29.35128,71.69255,1500,1500,Dust,Dust
4790880,32.03,115.61,0.71,1.06,95.42,209.02,4,4790880,PHA Bahawalpur,,"{'id': 109, 'code': 'PK', 'name': 'Pakistan'}","{'latitude': 29.38746, 'longitude': 71.70984}",29.38746,71.70984,1500,1500,Dust,Dust
4791416,114.18,151.06,13.86,6.29,61.67,850.68,5,4791416,Allama iqbal hospital,,"{'id': 109, 'code': 'PK', 'name': 'Pakistan'}","{'latitude': 32.503689, 'longitude': 74.547365}",32.503689,74.547365,1500,1500,Burning,Burning
4791923,32.03,115.61,0.71,1.06,95.42,209.02,4,4791923,Commissioner Office,,"{'id': 109, 'code': 'PK', 'name': 'Pakistan'}","{'latitude': 29.39228, 'longitude': 71.69131}",29.39228,71.69131,1500,1500,Dust,Dust
4792427,114.18,151.06,13.86,6.29,61.67,850.68,5,4792427,Grand Asian University,,"{'id': 109, 'code': 'PK', 'name': 'Pakistan'}","{'latitude': 32.437542, 'longitude': 74.577984}",32.437542,74.577984,1500,1500,Burning,Burning
4792428,32.03,115.61,0.71,1.06,95.42,209.02,4,4792428,District council Office,,"{'id': 109, 'code': 'PK', 'name': 'Pakistan'}","{'latitude': 29.39692, 'longitude': 71.66015}",29.39692,71.66015,1500,1500,Dust,Dust
4792975,114.18,151.06,13.86,6.29,61.67,850.68,5,4792975,Union Council Sohwala,,"{'id': 109, 'code': 'PK', 'name': 'Pakistan'}","{'latitude': 32.456292, 'longitude': 74.407467}",32.456292,74.407467,1500,1500,Burning,Burning
4793474,32.03,115.61,0.71,1.06,95.42,209.02,4,4793474,Wheat Section RARI office,,"{'id': 109, 'code': 'PK', 'name': 'Pakistan'}","{'latitude': 29.38647, 'longitude': 71.6535}",29.38647,71.6535,1500,1500,Dust,Dust
4801603,103.75,139.65,14.89,4.2,50.64,901.9,5,4801603,Ac Office Daska,,"{'id': 109, 'code': 'PK', 'name': 'Pakistan'}","{'latitude': 32.331763, 'longitude': 74.350492}",32.331763,74.350492,1500,1500,Burning,Burning
4802178,32.03,115.61,0.71,1.06,95.42,209.02,4,4802178,Forest Office,,"{'id': 109, 'code': 'PK', 'name': 'Pakistan'}","{'latitude': 29.38456, 'longitude': 71.70905}",29.38456,71.70905,1500,1500,Dust,Dust
4802678,38.14,116.64,1.22,2.67,97.73,228.05,4,4802678,DD office of Forest Department,,"{'id': 109, 'code': 'PK', 'name': 'Pakistan'}","{'latitude': 29.40517, 'longitude': 71.67999}",29.40517,71.67999,1500,1500,Dust,Dust
4803208,114.18,151.06,13.86,6.29,61.67,850.68,5,4803208,University Of Sialkot,,"{'id': 109, 'code': 'PK', 'name': 'Pakistan'}","{'latitude': 32.46479, 'longitude': 74.514128}",32.46479,74.514128,1500,1500,Burning,Burning
4803719,32.03,115.61,0.71,1.06,95.42,209.02,4,4803719,Excise and Taxation Office,,"{'id': 109, 'code': 'PK', 'name': 'Pakistan'}","{'latitude': 29.3904, 'longitude': 71.68645}",29.3904,71.68645,1500,1500,Dust,Dust
4803720,114.18,151.06,13.86,6.29,61.67,850.68,5,4803720,Sialkot Medical College,,"{'id': 109, 'code': 'PK', 'name': 'Pakistan'}","{'latitude': 32.429665, 'longitude': 74.47675}",32.429665,74.47675,1500,1500,Burning,Burning
4804766,32.03,115.61,0.71,1.06,95.42,209.02,4,4804766,Public health engineering department,,"{'id': 109, 'code': 'PK', 'name': 'Pakistan'}","{'latitude': 29.38715, 'longitude': 71.68701}",29.38715,71.68701,1500,1500,Dust,Dust
4804768,32.03,115.61,0.71,1.06,95.42,209.02,4,4804768,Municipal Office,,"{'id': 109, 'code': 'PK', 'name': 'Pakistan'}","{'latitude': 29.39894, 'longitude': 71.68424}",29.39894,71.68424,1500,1500,Dust,Dust
4805270,38.14,116.64,1.22,2.67,97.73,228.05,4,4805270,Punjab Small Industries Corporation,,"{'id': 109, 'code': 'PK', 'name': 'Pakistan'}","{'latitude': 29.42622, 'longitude': 71.66362}",29.42622,71.66362,1500,1500,Dust,Dust
4814172,32.03,115.61,0.71,1.06,95.42,209.02,4,4814172,"Naqash febrics, Melaad Chock",,"{'id': 109, 'code': 'PK', 'name': 'Pakistan'}","{'latitude': 29.39316, 'longitude': 71.66888}",29.39316,71.66888,1500,1500,Dust,Dust
4814248,32.03,115.61,0.71,1.06,95.42,209.02,4,4814248,Yousaf Garden near Qatalmara Road,,"{'id': 109, 'code': 'PK', 'name': 'Pakistan'}","{'latitude': 29.36232, 'longitude': 71.64155}",29.36232,71.64155,1500,1500,Dust,Dust
4814288,32.03,115.61,0.71,1.06,95.42,209.02,4,4814288,"3 Marla, Islamia colony",,"{'id': 109, 'code': 'PK', 'name': 'Pakistan'}","{'latitude': 29.36557, 'longitude': 71.69507}",29.36557,71.69507,1500,1500,Dust,Dust
4816826,32.03,115.61,0.71,1.06,95.42,209.02,4,4816826,Khakwani colony near Darbar Mahel,,"{'id': 109, 'code': 'PK', 'name': 'Pakistan'}","{'latitude': 29.3989, 'longitude': 71.69837}",29.3989,71.69837,1500,1500,Dust,Dust
4834565,61.61,90.37,4.88,3.47,87.28,416.69,4,4834565,Naimat colony,,"{'id': 109, 'code': 'PK', 'name': 'Pakistan'}","{'latitude': 31.41069, 'longitude': 73.12276}",31.41069,73.12276,1500,1500,Burning,Burning
4834608,61.61,90.37,4.88,3.47,87.28,416.69,4,4834608,GC Women University ,,"{'id': 109, 'code': 'PK', 'name': 'Pakistan'}","{'latitude': 31.41805, 'longitude': 73.1205}",31.41805,73.1205,1500,1500,Burning,Burning
4837112,106.08,140.76,19.11,4.08,48.05,1018.71,5,4837112,Divisional Forest Office,,"{'id': 109, 'code': 'PK', 'name': 'Pakistan'}","{'latitude': 32.210657, 'longitude': 74.173003}",32.210657,74.173003,1500,1500,Burning,Burning
4837114,61.61,90.37,4.88,3.47,87.28,416.69,4,4837114,FDA-01,,"{'id': 109, 'code': 'PK', 'name': 'Pakistan'}","{'latitude': 31.41949, 'longitude': 73.09359}",31.41949,73.09359,1500,1500,Burning,Burning
4837115,106.08,140.76,19.11,4.08,48.05,1018.71,5,4837115,Gift University,,"{'id': 109, 'code': 'PK', 'name': 'Pakistan'}","{'latitude': 32.205813, 'longitude': 74.192655}",32.205813,74.192655,1500,1500,Burning,Burning
4837116,61.61,90.37,4.88,3.47,87.28,416.69,4,4837116,PHA Office,,"{'id': 109, 'code': 'PK', 'name': 'Pakistan'}","{'latitude': 31.42893, 'longitude': 73.08995}",31.42893,73.08995,1500,1500,Burning,Burning
4837165,95.05,126.25,15.1,3.56,52.54,870.24,5,4837165,"PHA , Gulshan Iqbal Park",,"{'id': 109, 'code': 'PK', 'name': 'Pakistan'}","{'latitude': 32.188717, 'longitude': 74.180032}",32.188717,74.180032,1500,1500,Burning,Burning
4837166,61.61,90.37,4.88,3.47,87.28,416.69,4,4837166,Amin town,,"{'id': 109, 'code': 'PK', 'name': 'Pakistan'}","{'latitude': 31.44492, 'longitude': 73.12673}",31.44492,73.12673,1500,1500,Burning,Burning
4838124,61.61,90.37,4.88,3.47,87.28,416.69,4,4838124,Faisalabad Chamber of commerce,,"{'id': 109, 'code': 'PK', 'name': 'Pakistan'}","{'latitude': 31.44577, 'longitude': 73.14266}",31.44577,73.14266,1500,1500,Burning,Burning
4845646,95.05,126.25,15.1,3.56,52.54,870.24,5,4845646,Wasa office Model Town,,"{'id': 109, 'code': 'PK', 'name': 'Pakistan'}","{'latitude': 32.170496, 'longitude': 74.177999}",32.170496,74.177999,1500,1500,Burning,Burning
4845647,61.61,90.37,4.88,3.47,87.28,416.69,4,4845647,K-Block Gulistan colony,,"{'id': 109, 'code': 'PK', 'name': 'Pakistan'}","{'latitude': 31.43736, 'longitude': 73.10685}",31.43736,73.10685,1500,1500,Burning,Burning
4846142,95.05,126.25,15.1,3.56,52.54,870.24,5,4846142,"Bureau Of Statistics, Punjab",,"{'id': 109, 'code': 'PK', 'name': 'Pakistan'}","{'latitude': 32.172947, 'longitude': 74.188152}",32.172947,74.188152,1500,1500,Burning,Burning
4846143,61.61,90.37,4.88,3.47,87.28,416.69,4,4846143,WASA OFFICE ,,"{'id': 109, 'code': 'PK', 'name': 'Pakistan'}","{'latitude': 31.44949, 'longitude': 73.08397}",31.44949,73.08397,1500,1500,Burning,Burning
4847174,61.61,90.37,4.88,3.47,87.28,416.69,4,4847174,University Town,,"{'id': 109, 'code': 'PK', 'name': 'Pakistan'}","{'latitude': 31.49787, 'longitude': 73.08318}",31.49787,73.08318,1500,1500,Burning,Burning
4847175,61.61,90.37,4.88,3.47,87.28,416.69,4,4847175,FDA-02,,"{'id': 109, 'code': 'PK', 'name': 'Pakistan'}","{'latitude': 31.50891, 'longitude': 73.07458}",31.50891,73.07458,1500,1500,Burning,Burning
4847176,95.05,126.25,15.1,3.56,52.54,870.24,5,4847176,GDA OFFICE,,"{'id': 109, 'code': 'PK', 'name': 'Pakistan'}","{'latitude': 32.17382, 'longitude': 74.182437}",32.17382,74.182437,1500,1500,Burning,Burning
4847674,93.9,126.38,12.46,3.53,50.65,798.7,5,4847674,WASA Head Office Grw,,"{'id': 109, 'code': 'PK', 'name': 'Pakistan'}","{'latitude': 32.135261, 'longitude': 74.207381}",32.135261,74.207381,1500,1500,Burning,Burning
4848174,61.61,90.37,4.88,3.47,87.28,416.69,4,4848174,GC university,,"{'id': 109, 'code': 'PK', 'name': 'Pakistan'}","{'latitude': 31.41622, 'longitude': 73.06798}",31.41622,73.06798,1500,1500,Burning,Burning
4848175,95.05,126.25,15.1,3.56,52.54,870.24,5,4848175,Commisioner Office,,"{'id': 109, 'code': 'PK', 'name': 'Pakistan'}","{'latitude': 32.174632, 'longitude': 74.195061}",32.174632,74.195061,1500,1500,Burning,Burning
4849914,95.05,126.25,15.1,3.56,52.54,870.24,5,4849914,Dc Office ,,"{'id': 109, 'code': 'PK', 'name': 'Pakistan'}","{'latitude': 32.166635, 'longitude': 74.194615}",32.166635,74.194615,1500,1500,Burning,Burning
4852891,59.46,93.42,5.49,2.87,80.3,405.47,4,4852891,University of Education ,,"{'id': 109, 'code': 'PK', 'name': 'Pakistan'}","{'latitude': 31.39636, 'longitude': 73.06871}",31.39636,73.06871,1500,1500,Burning,Burning
4854007,61.61,90.37,4.88,3.47,87.28,416.69,4,4854007,Ayub Agriculture Research Institute,,"{'id': 109, 'code': 'PK', 'name': 'Pakistan'}","{'latitude': 31.40698, 'longitude': 73.05388}",31.40698,73.05388,1500,1500,Burning,Burning
4854008,61.61,90.37,4.88,3.47,87.28,416.69,4,4854008,Punjab Food Authority,,"{'id': 109, 'code': 'PK', 'name': 'Pakistan'}","{'latitude': 31.4367245, 'longitude': 73.0355178}",31.4367245,73.0355178,1500,1500,Burning,Burning
4854009,93.9,126.38,12.46,3.53,50.65,798.7,5,4854009,Allama Iqbal Open University Grw,,"{'id': 109, 'code': 'PK', 'name': 'Pakistan'}","{'latitude': 32.135302, 'longitude': 74.206118}",32.135302,74.206118,1500,1500,Burning,Burning
4854513,93.9,126.38,12.46,3.53,50.65,798.7,5,4854513,IAS Grw,,"{'id': 109, 'code': 'PK', 'name': 'Pakistan'}","{'latitude': 32.101596, 'longitude': 74.202594}",32.101596,74.202594,1500,1500,Burning,Burning
4854514,59.46,93.42,5.49,2.87,80.3,405.47,4,4854514,Riphah International University,,"{'id': 109, 'code': 'PK', 'name': 'Pakistan'}","{'latitude': 31.38127, 'longitude': 73.12783}",31.38127,73.12783,1500,1500,Burning,Burning
4855550,95.05,126.25,15.1,3.56,52.54,870.24,5,4855550,university of punjab grw,,"{'id': 109, 'code': 'PK', 'name': 'Pakistan'}","{'latitude': 32.190967, 'longitude': 74.152653}",32.190967,74.152653,1500,1500,Burning,Burning
4855551,95.05,126.25,15.1,3.56,52.54,870.24,5,4855551,MC Office Grw,,"{'id': 109, 'code': 'PK', 'name': 'Pakistan'}","{'latitude': 32.147367, 'longitude': 74.192512}",32.147367,74.192512,1500,1500,Burning,Burning
4865063,61.61,90.37,4.88,3.47,87.28,416.69,4,4865063,University of Agriculture ,,"{'id': 109, 'code': 'PK', 'name': 'Pakistan'}","{'latitude': 31.43452, 'longitude': 73.07072}",31.43452,73.07072,1500,1500,Burning,Burning
4866055,61.61,90.37,4.88,3.47,87.28,416.69,4,4866055,Faisalabad Chamber of Commerce ,,"{'id': 109, 'code': 'PK', 'name': 'Pakistan'}","{'latitude': 31.44599, 'longitude': 73.14291}",31.44599,73.14291,1500,1500,Burning,Burning
4867094,61.61,90.37,4.88,3.47,87.28,416.69,4,4867094,NFC Institute of Engineering ,,"{'id': 109, 'code': 'PK', 'name': 'Pakistan'}","{'latitude': 31.40823, 'longitude': 73.1205}",31.40823,73.1205,1500,1500,Burning,Burning
4875553,61.61,90.37,4.88,3.47,87.28,416.69,4,4875553,"Imdad Town, Manawala",,"{'id': 109, 'code': 'PK', 'name': 'Pakistan'}","{'latitude': 31.46174, 'longitude': 73.1286}",31.46174,73.1286,1500,1500,Burning,Burning
4876581,61.61,90.37,4.88,3.47,87.28,416.69,4,4876581,GC Women University ,,"{'id': 109, 'code': 'PK', 'name': 'Pakistan'}","{'latitude': 31.41808, 'longitude': 73.12049}",31.41808,73.12049,1500,1500,Burning,Burning
4877120,61.61,90.37,4.88,3.47,87.28,416.69,4,4877120,"people Colony, Small d Ground",,"{'id': 109, 'code': 'PK', 'name': 'Pakistan'}","{'latitude': 31.41484, 'longitude': 73.10411}",31.41484,73.10411,1500,1500,Burning,Burning
4884063,73.57,105.42,15.96,3.28,76.19,685.51,4,4884063,"Govt. Graduate College, Asghar Mall,",,"{'id': 109, 'code': 'PK', 'name': 'Pakistan'}","{'latitude': 33.6291031, 'longitude': 73.0559127}",33.6291031,73.0559127,1500,1500,Burning,Burning
4889110,5.61,10.59,1.13,0.79,39.46,101.3,1,4889110,"G3 Engineering Consultancy, Hyderabad",,"{'id': 109, 'code': 'PK', 'name': 'Pakistan'}","{'latitude': 25.385742, 'longitude': 68.352781}",25.385742,68.352781,1500,1500,Other,Other
4897485,5.61,10.59,1.13,0.79,39.46,101.3,1,4897485,"Talpur House, Latifabad, Hyderabad",,"{'id': 109, 'code': 'PK', 'name': 'Pakistan'}","{'latitude': 25.367274, 'longitude': 68.337884}",25.367274,68.337884,1500,1500,Other,Other
4908792,61.81,84.06,11.15,1.57,46.21,523.87,4,4908792,"DC Office, Kasur",,"{'id': 109, 'code': 'PK', 'name': 'Pakistan'}","{'latitude': 31.11548, 'longitude': 74.467625}",31.11548,74.467625,1500,1500,Burning,Burning
4916349,12.38,17.14,3.73,0.69,62.67,244.07,2,4916349,CURAJ,,"{'id': 9, 'code': 'IN', 'name': 'India'}","{'latitude': 26.6236, 'longitude': 75.0273}",26.6236,75.0273,1500,1500,Other,Other
4917341,73.57,105.42,15.96,3.28,76.19,685.51,4,4917341,NASTP,,"{'id': 109, 'code': 'PK', 'name': 'Pakistan'}","{'latitude': 33.6079232, 'longitude': 73.0974891}",33.6079232,73.0974891,1500,1500,Burning,Burning
4952332,54.15,94.98,4.8,1.41,82.05,417.89,4,4952332,Gandhara University,,"{'id': 109, 'code': 'PK', 'name': 'Pakistan'}","{'latitude': 33.9926869, 'longitude': 71.4809181}",33.9926869,71.4809181,1500,1500,Burning,Burning
4997881,106.24,149.96,22.41,6.38,45.12,1014.54,5,4997881,Ac Office Pasrur,,"{'id': 109, 'code': 'PK', 'name': 'Pakistan'}","{'latitude': 32.26521, 'longitude': 74.655047}",32.26521,74.655047,1500,1500,Burning,Burning
5057509,3.0,7.57,3.95,1.36,30.74,125.66,1,5057509,IIMA Ventures,,"{'id': 9, 'code': 'IN', 'name': 'India'}","{'latitude': 23.034568596154394, 'longitude': 72.53287536498033}",23.034568596154394,72.53287536498033,1500,1500,Other,Other
5105944,7.14,11.85,1.81,0.68,38.48,140.28,1,5105944,smart air bangladesh office,,"{'id': 128, 'code': 'BD', 'name': 'Bangladesh'}","{'latitude': 23.780810956001233, 'longitude': 90.42464769681916}",23.780810956001233,90.42464769681916,1500,1500,Other,Other
5311872,32.03,115.61,0.71,1.06,95.42,209.02,4,5311872,Islamia Colony ,,"{'id': 109, 'code': 'PK', 'name': 'Pakistan'}","{'latitude': 29.365636, 'longitude': 71.694954}",29.365636,71.694954,1500,1500,Dust,Dust
5325356,73.57,105.42,15.96,3.28,76.19,685.51,4,5325356,DC Office Sialkot,,"{'id': 109, 'code': 'PK', 'name': 'Pakistan'}","{'latitude': 33.64338, 'longitude': 73.06828}",33.64338,73.06828,1500,1500,Burning,Burning
5371016,73.57,105.42,15.96,3.28,76.19,685.51,4,5371016,DC office ,,"{'id': 109, 'code': 'PK', 'name': 'Pakistan'}","{'latitude': 33.64336, 'longitude': 73.06817}",33.64336,73.06817,1500,1500,Burning,Burning
5371017,73.57,105.42,15.96,3.28,76.19,685.51,4,5371017,AC office Allama Iqbal ,,"{'id': 109, 'code': 'PK', 'name': 'Pakistan'}","{'latitude': 33.64333, 'longitude': 73.06813}",33.64333,73.06813,1500,1500,Burning,Burning
5506835,10.92,12.6,16.83,4.82,8.63,402.29,2,5506835,Gaushala Chowk (SC-01),,"{'id': 145, 'code': 'NP', 'name': 'Nepal'}","{'latitude': 27.707763, 'longitude': 85.343189}",27.707763,85.343189,1500,1500,Other,Other
5509787,10.92,12.6,16.83,4.82,8.63,402.29,2,5509787,Baluwatar (SC-02),,"{'id': 145, 'code': 'NP', 'name': 'Nepal'}","{'latitude': 27.7249438, 'longitude': 85.331062}",27.7249438,85.331062,1500,1500,Other,Other
5509788,10.92,12.6,16.83,4.82,8.63,402.29,2,5509788,Lagankhel (SC - 05),,"{'id': 145, 'code': 'NP', 'name': 'Nepal'}","{'latitude': 27.666459, 'longitude': 85.323093}",27.666459,85.323093,1500,1500,Other,Other
5526280,1.02,1.08,0.47,0.09,15.6,126.21,1,5526280,Broadmoor & Munger,,"{'id': 10, 'code': 'CN', 'name': 'China'}","{'latitude': 29.7262683, 'longitude': 95.3295996}",29.7262683,95.3295996,1500,1500,Other,Other
5598104,10.92,12.6,16.83,4.82,8.63,402.29,2,5598104,Pulchowk (SC-44),,"{'id': 145, 'code': 'NP', 'name': 'Nepal'}","{'latitude': 27.6773887, 'longitude': 85.3184176}",27.6773887,85.3184176,1500,1500,Other,Other
5633032,10.92,12.6,16.83,4.82,8.63,402.29,2,5633032,Nakhipot (SC-08),,"{'id': 145, 'code': 'NP', 'name': 'Nepal'}","{'latitude': 27.6510811, 'longitude': 85.3178568}",27.6510811,85.3178568,1500,1500,Other,Other
5634500,10.92,12.6,16.83,4.82,8.63,402.29,2,5634500,Sunakothi (SC - 06),,"{'id': 145, 'code': 'NP', 'name': 'Nepal'}","{'latitude': 27.630412, 'longitude': 85.320402}",27.630412,85.320402,1500,1500,Other,Other
5676345,10.92,12.6,16.83,4.82,8.63,402.29,2,5676345,Chovar (SC - 07),,"{'id': 145, 'code': 'NP', 'name': 'Nepal'}","{'latitude': 27.6662854, 'longitude': 85.2937189}",27.6662854,85.2937189,1500,1500,Other,Other
5676826,10.92,12.6,16.83,4.82,8.63,402.29,2,5676826,Taudaha (SC - 09),,"{'id': 145, 'code': 'NP', 'name': 'Nepal'}","{'latitude': 27.651121, 'longitude': 85.283954}",27.651121,85.283954,1500,1500,Other,Other
5695597,10.92,12.6,16.83,4.82,8.63,402.29,2,5695597,Khumaltar (CEN-SR-25),,"{'id': 145, 'code': 'NP', 'name': 'Nepal'}","{'latitude': 27.6464, 'longitude': 85.3234}",27.6464,85.3234,1500,1500,Other,Other
5698877,11.4,15.55,7.44,3.15,28.92,377.69,2,5698877,Bharatpur Ward no 27 office Meghauli,,"{'id': 145, 'code': 'NP', 'name': 'Nepal'}","{'latitude': 27.57961, 'longitude': 84.23604}",27.57961,84.23604,1500,1500,Other,Other
5710077,10.92,12.6,16.83,4.82,8.63,402.29,2,5710077,Khumaltar (CEN-SR-02),,"{'id': 145, 'code': 'NP', 'name': 'Nepal'}","{'latitude': 27.64591, 'longitude': 85.3237}",27.64591,85.3237,1500,1500,Other,Other
5710078,11.12,13.08,15.82,4.93,12.74,404.9,2,5710078,Hetauda Udhyog Sang Office (CEN-SR-18),,"{'id': 145, 'code': 'NP', 'name': 'Nepal'}","{'latitude': 27.40233, 'longitude': 85.02521}",27.40233,85.02521,1500,1500,Other,Other
5728639,42.83,71.84,14.96,2.51,66.1,498.65,3,5728639,"Bemina, Srinagar",,"{'id': 9, 'code': 'IN', 'name': 'India'}","{'latitude': 34.07023554237501, 'longitude': 74.77548492160591}",34.07023554237501,74.77548492160591,1500,1500,Burning,Burning
5803519,114.18,151.06,13.86,6.29,61.67,850.68,5,5803519,Social Walfare Sialkot,,"{'id': 109, 'code': 'PK', 'name': 'Pakistan'}","{'latitude': 32.49374, 'longitude': 74.5322}",32.49374,74.5322,1500,1500,Burning,Burning
5884439,114.18,151.06,13.86,6.29,61.67,850.68,5,5884439,Ugoki Union Council,,"{'id': 109, 'code': 'PK', 'name': 'Pakistan'}","{'latitude': 32.480061, 'longitude': 74.451296}",32.480061,74.451296,1500,1500,Burning,Burning
5894629,2.19,4.61,0.62,0.13,25.36,131.1,1,5894629,Yangon,,"{'id': 127, 'code': 'MM', 'name': 'Myanmar'}","{'latitude': 16.86421, 'longitude': 96.14311}",16.86421,96.14311,1500,1500,Other,Other
5929186,39.16,64.51,12.59,1.96,62.84,444.61,3,5929186,Psychopath Studios,,"{'id': 9, 'code': 'IN', 'name': 'India'}","{'latitude': 34.0584621, 'longitude': 74.8324004}",34.0584621,74.8324004,1500,1500,Burning,Burning
5963701,42.83,71.84,14.96,2.51,66.1,498.65,3,5963701,Max,,"{'id': 9, 'code': 'IN', 'name': 'India'}","{'latitude': 34.070227923365785, 'longitude': 74.77548616383625}",34.070227923365785,74.77548616383625,1500,1500,Burning,Burning
6003651,1.93,5.97,0.2,0.26,37.09,81.99,1,6003651,SVNIT Surat,,"{'id': 9, 'code': 'IN', 'name': 'India'}","{'latitude': 21.7653, 'longitude': 72.7855}",21.7653,72.7855,1500,1500,Other,Other
6013125,39.16,64.51,12.59,1.96,62.84,444.61,3,6013125,Kanipora,,"{'id': 9, 'code': 'IN', 'name': 'India'}","{'latitude': 34.0132271, 'longitude': 74.8398961}",34.0132271,74.8398961,1500,1500,Burning,Burning
delhi-anand-vihar,65.02,86.05,14.98,2.0,43.42,534.38,4,delhi-anand-vihar,Anand Vihar,Delhi,IN,"{'latitude': 28.646, 'longitude': 77.315}",28.646,77.315,1500,1500,Burning,Burning
delhi-rk-puram,63.49,83.88,14.55,2.02,44.88,532.96,4,delhi-rk-puram,R.K. Puram,Delhi,IN,"{'latitude': 28.562, 'longitude': 77.183}",28.562,77.183,1500,1500,Burning,Burning
delhi-mandir-marg,65.02,86.05,14.98,2.0,43.42,534.38,4,delhi-mandir-marg,Mandir Marg,Delhi,IN,"{'latitude': 28.637, 'longitude': 77.207}",28.637,77.207,1500,1500,Burning,Burning
delhi-ashok-vihar,64.16,85.82,13.21,1.87,50.04,497.83,4,delhi-ashok-vihar,Ashok Vihar,Delhi,IN,"{'latitude': 28.692, 'longitude': 77.17}",28.692,77.17,1500,1500,Burning,Burning
bangalore-btm,10.21,15.65,12.71,2.67,13.81,271.05,2,bangalore-btm,BTM Layout,Bangalore,IN,"{'latitude': 12.916, 'longitude': 77.61}",12.916,77.61,1500,1500,Other,Other
bangalore-peenya,6.87,11.53,9.28,1.62,14.14,220.37,1,bangalore-peenya,Peenya,Bangalore,IN,"{'latitude': 13.03, 'longitude': 77.53}",13.03,77.53,1500,1500,Other,Other
bangalore-yeshwanthpur,6.87,11.53,9.28,1.62,14.14,220.37,1,bangalore-yeshwanthpur,Yeshwanthpur,Bangalore,IN,"{'latitude': 13.02, 'longitude': 77.55}",13.02,77.55,1500,1500,Other,Other
bangalore-whitefield,10.21,15.65,12.71,2.67,13.81,271.05,2,bangalore-whitefield,Whitefield,Bangalore,IN,"{'latitude': 12.969, 'longitude': 77.749}",12.969,77.749,1500,1500,Other,Other
mumbai-bandra,1.33,4.65,0.07,0.14,40.81,82.67,1,mumbai-bandra,Bandra,Mumbai,IN,"{'latitude': 19.054, 'longitude': 72.84}",19.054,72.84,1500,1500,Other,Other
mumbai-kurla,1.33,4.65,0.07,0.14,40.81,82.67,1,mumbai-kurla,Kurla,Mumbai,IN,"{'latitude': 19.074, 'longitude': 72.88}",19.074,72.88,1500,1500,Other,Other
mumbai-borivali,1.34,4.68,0.14,0.28,40.75,82.96,1,mumbai-borivali,Borivali,Mumbai,IN,"{'latitude': 19.231, 'longitude': 72.856}",19.231,72.856,1500,1500,Other,Other
mumbai-dadar,1.33,4.65,0.07,0.14,40.81,82.67,1,mumbai-dadar,Dadar,Mumbai,IN,"{'latitude': 19.017, 'longitude': 72.843}",19.017,72.843,1500,1500,Other,Other
